{"type":"FeatureCollection","features":[{"type":"Feature","properties":{"name":"Tahran"},"geometry":{"type":"Polygon","coordinates":[[[50.55,35.1],[50.55,36.02],[51.82,36.02],[52.22,35.48],[51.52,35.08],[50.55,35.1]]]}},{"type":"Feature","properties":{"name":"Merkezi"},"geometry":{"type":"Polygon","coordinates":[[[49.52,34.0],[49.52,35.1],[50.55,35.1],[51.52,35.08],[51.52,34.52],[50.82,34.0],[49.52,34.0]]]}},{"type":"Feature","properties":{"name":"İsfahan"},"geometry":{"type":"Polygon","coordinates":[[[49.52,31.88],[49.52,34.0],[50.82,34.0],[51.82,33.8],[52.22,33.28],[51.82,32.48],[50.52,31.98],[49.52,31.88]]]}},{"type":"Feature","properties":{"name":"Yazd"},"geometry":{"type":"Polygon","coordinates":[[[52.22,33.28],[51.82,33.8],[52.22,35.48],[53.52,35.18],[54.22,34.52],[54.22,33.28],[53.22,32.78],[52.22,33.28]]]}},{"type":"Feature","properties":{"name":"Kirman"},"geometry":{"type":"Polygon","coordinates":[[[54.22,28.52],[54.22,33.28],[55.52,33.52],[57.02,32.52],[57.52,30.78],[56.52,28.78],[54.22,28.52]]]}},{"type":"Feature","properties":{"name":"Fars"},"geometry":{"type":"Polygon","coordinates":[[[50.98,28.52],[50.98,30.52],[52.98,30.82],[54.02,29.82],[53.52,28.52],[52.02,28.02],[50.98,28.52]]]}},{"type":"Feature","properties":{"name":"Huzestan"},"geometry":{"type":"Polygon","coordinates":[[[47.02,29.98],[47.02,32.52],[49.52,32.52],[49.52,31.88],[48.52,30.0],[47.52,29.78],[47.02,29.98]]]}},{"type":"Feature","properties":{"name":"Kirmanşah"},"geometry":{"type":"Polygon","coordinates":[[[45.02,33.48],[45.02,35.02],[47.02,35.02],[47.52,34.48],[47.02,33.0],[45.82,32.78],[45.02,33.48]]]}},{"type":"Feature","properties":{"name":"Kürdistan"},"geometry":{"type":"Polygon","coordinates":[[[45.02,35.02],[45.02,36.52],[46.0,36.52],[46.52,35.82],[46.52,35.22],[45.82,34.72],[45.02,35.02]]]}},{"type":"Feature","properties":{"name":"Azerbaycan Batı"},"geometry":{"type":"Polygon","coordinates":[[[44.02,36.98],[44.02,38.52],[46.02,38.52],[46.52,37.98],[46.02,36.98],[45.02,36.78],[44.02,36.98]]]}},{"type":"Feature","properties":{"name":"Azerbaycan Doğu"},"geometry":{"type":"Polygon","coordinates":[[[46.02,36.98],[46.02,38.52],[48.02,38.52],[48.32,37.98],[48.02,36.98],[47.02,36.78],[46.02,36.98]]]}},{"type":"Feature","properties":{"name":"Gilan"},"geometry":{"type":"Polygon","coordinates":[[[48.52,36.78],[48.52,37.52],[50.52,37.52],[50.52,36.98],[49.02,36.48],[48.52,36.78]]]}},{"type":"Feature","properties":{"name":"Mazenderan"},"geometry":{"type":"Polygon","coordinates":[[[50.52,36.02],[50.52,37.02],[52.52,37.02],[53.52,36.8],[53.02,36.02],[51.82,36.02],[50.52,36.02]]]}},{"type":"Feature","properties":{"name":"Horasan Razavi"},"geometry":{"type":"Polygon","coordinates":[[[56.02,32.98],[56.02,37.02],[60.02,37.02],[60.52,35.98],[59.52,33.48],[57.52,32.98],[56.02,32.98]]]}},{"type":"Feature","properties":{"name":"Sistan ve Belucistan"},"geometry":{"type":"Polygon","coordinates":[[[60.02,25.48],[60.02,30.02],[62.02,30.02],[63.32,26.98],[62.02,25.48],[60.02,25.48]]]}},{"type":"Feature","properties":{"name":"Hormuzgan"},"geometry":{"type":"Polygon","coordinates":[[[54.02,24.98],[54.02,28.02],[57.02,28.52],[57.52,26.98],[56.52,24.98],[54.02,24.98]]]}},{"type":"Feature","properties":{"name":"Buşehr"},"geometry":{"type":"Polygon","coordinates":[[[50.02,27.52],[50.02,29.82],[51.52,30.02],[52.52,28.98],[52.02,27.52],[50.52,27.22],[50.02,27.52]]]}}]}