{"type":"FeatureCollection","features":[{"type":"Feature","properties":{"name":"Duhok"},"geometry":{"type":"Polygon","coordinates":[[[41.0,37.0],[41.0,37.38],[42.38,37.38],[42.92,37.22],[43.12,36.85],[42.5,36.5],[42.0,36.55],[41.5,36.72],[41.0,37.0]]]}},{"type":"Feature","properties":{"name":"Ninova"},"geometry":{"type":"Polygon","coordinates":[[[41.0,36.55],[41.5,36.72],[42.0,36.55],[42.5,36.5],[43.12,36.85],[43.8,36.75],[43.62,36.12],[42.52,35.82],[41.52,36.0],[41.0,36.55]]]}},{"type":"Feature","properties":{"name":"Erbil"},"geometry":{"type":"Polygon","coordinates":[[[43.12,36.85],[43.8,36.75],[44.8,37.38],[45.52,36.82],[45.02,36.0],[43.8,36.0],[43.12,36.85]]]}},{"type":"Feature","properties":{"name":"Duhok (Batı)"},"geometry":{"type":"Polygon","coordinates":[[[41.0,37.38],[42.38,37.38],[42.92,37.22],[42.38,37.38],[41.0,37.38]]]}},{"type":"Feature","properties":{"name":"Süleymaniye"},"geometry":{"type":"Polygon","coordinates":[[[44.8,37.38],[46.22,37.2],[46.02,36.52],[45.52,35.82],[45.02,36.0],[44.8,37.38]]]}},{"type":"Feature","properties":{"name":"Kerkük"},"geometry":{"type":"Polygon","coordinates":[[[43.02,35.52],[43.02,36.42],[43.8,36.0],[44.22,36.48],[44.82,36.0],[44.52,35.42],[43.52,35.38],[43.02,35.52]]]}},{"type":"Feature","properties":{"name":"Diyala"},"geometry":{"type":"Polygon","coordinates":[[[44.22,33.52],[44.22,35.52],[45.02,36.0],[45.52,35.52],[46.02,34.8],[45.22,33.62],[44.52,33.52],[44.22,33.52]]]}},{"type":"Feature","properties":{"name":"Salahaddin"},"geometry":{"type":"Polygon","coordinates":[[[43.02,33.52],[43.02,35.52],[43.52,35.38],[44.52,35.42],[44.22,33.52],[43.52,33.02],[43.02,33.52]]]}},{"type":"Feature","properties":{"name":"Bağdat"},"geometry":{"type":"Polygon","coordinates":[[[44.02,33.02],[44.02,33.72],[44.82,33.72],[44.82,33.02],[44.42,32.82],[44.02,33.02]]]}},{"type":"Feature","properties":{"name":"Anbar"},"geometry":{"type":"Polygon","coordinates":[[[38.82,32.52],[38.82,34.52],[41.02,34.52],[43.52,34.02],[43.02,33.52],[43.52,33.02],[41.02,32.02],[39.52,32.02],[38.82,32.52]]]}},{"type":"Feature","properties":{"name":"Kerbela"},"geometry":{"type":"Polygon","coordinates":[[[43.52,32.12],[43.52,32.62],[44.02,32.82],[44.42,32.52],[44.22,32.02],[43.82,31.92],[43.52,32.12]]]}},{"type":"Feature","properties":{"name":"Babil"},"geometry":{"type":"Polygon","coordinates":[[[44.02,32.52],[44.02,33.72],[44.82,33.72],[45.22,33.62],[44.52,32.52],[44.02,32.52]]]}},{"type":"Feature","properties":{"name":"Vasıt"},"geometry":{"type":"Polygon","coordinates":[[[44.52,31.82],[44.52,33.52],[45.22,33.62],[45.82,33.02],[45.82,32.02],[45.02,31.62],[44.52,31.82]]]}},{"type":"Feature","properties":{"name":"Necef"},"geometry":{"type":"Polygon","coordinates":[[[43.02,30.82],[43.02,32.12],[43.52,32.12],[44.22,32.02],[44.22,31.42],[43.82,30.82],[43.02,30.82]]]}},{"type":"Feature","properties":{"name":"Kadisiye"},"geometry":{"type":"Polygon","coordinates":[[[43.02,29.52],[43.02,30.82],[43.82,30.82],[43.82,29.52],[43.02,29.52]]]}},{"type":"Feature","properties":{"name":"Muthanna"},"geometry":{"type":"Polygon","coordinates":[[[43.82,29.52],[43.82,31.02],[45.02,31.02],[45.02,30.32],[44.52,29.82],[44.02,29.52],[43.82,29.52]]]}},{"type":"Feature","properties":{"name":"Zi Kar"},"geometry":{"type":"Polygon","coordinates":[[[45.02,30.32],[45.02,31.62],[46.02,31.52],[46.52,31.02],[46.52,30.02],[45.52,29.82],[45.02,30.32]]]}},{"type":"Feature","properties":{"name":"Meysan"},"geometry":{"type":"Polygon","coordinates":[[[46.02,31.22],[46.02,32.52],[46.82,32.82],[47.42,32.02],[47.02,31.22],[46.52,31.02],[46.02,31.22]]]}},{"type":"Feature","properties":{"name":"Basra"},"geometry":{"type":"Polygon","coordinates":[[[46.52,29.82],[46.52,31.02],[47.02,31.22],[48.02,30.82],[48.52,29.82],[47.52,29.52],[46.52,29.82]]]}}]}