{"type":"FeatureCollection","features":[{"type":"Feature","properties":{"name":"Kuzey Bölgesi"},"geometry":{"type":"Polygon","coordinates":[[[35.1,32.68],[35.1,33.28],[35.62,33.28],[35.92,33.05],[35.72,32.72],[35.4,32.65],[35.1,32.68]]]}},{"type":"Feature","properties":{"name":"Hayfa Bölgesi"},"geometry":{"type":"Polygon","coordinates":[[[34.88,32.42],[34.88,32.72],[35.1,32.68],[35.4,32.65],[35.22,32.38],[34.88,32.42]]]}},{"type":"Feature","properties":{"name":"Merkez Bölgesi"},"geometry":{"type":"Polygon","coordinates":[[[34.8,31.88],[34.8,32.42],[35.22,32.38],[35.22,32.0],[35.02,31.8],[34.8,31.88]]]}},{"type":"Feature","properties":{"name":"Tel Aviv"},"geometry":{"type":"Polygon","coordinates":[[[34.75,32.0],[34.75,32.18],[34.98,32.18],[34.98,32.0],[34.75,32.0]]]}},{"type":"Feature","properties":{"name":"Kudüs"},"geometry":{"type":"Polygon","coordinates":[[[34.9,31.65],[34.9,32.0],[35.3,32.0],[35.3,31.65],[35.12,31.55],[34.9,31.65]]]}},{"type":"Feature","properties":{"name":"Güney Bölgesi"},"geometry":{"type":"Polygon","coordinates":[[[34.25,29.5],[34.25,31.7],[34.9,31.65],[35.12,31.55],[35.02,31.0],[34.92,30.12],[34.25,29.5]]]}},{"type":"Feature","properties":{"name":"Golan Tepeleri"},"geometry":{"type":"Polygon","coordinates":[[[35.62,32.75],[35.62,33.28],[35.92,33.28],[35.92,32.75],[35.62,32.75]]]}},{"type":"Feature","properties":{"name":"Batı Şeria (K)"},"geometry":{"type":"Polygon","coordinates":[[[35.02,32.0],[35.02,32.58],[35.3,32.58],[35.58,32.38],[35.52,32.02],[35.3,31.85],[35.02,32.0]]]}},{"type":"Feature","properties":{"name":"Batı Şeria (G)"},"geometry":{"type":"Polygon","coordinates":[[[35.02,31.4],[35.02,32.0],[35.3,31.85],[35.52,32.02],[35.52,31.4],[35.32,31.32],[35.02,31.4]]]}},{"type":"Feature","properties":{"name":"Gazze"},"geometry":{"type":"Polygon","coordinates":[[[34.22,31.22],[34.22,31.58],[34.55,31.58],[34.55,31.22],[34.22,31.22]]]}}]}