{"type":"FeatureCollection","features":[{"type":"Feature","properties":{"name":"Akkar"},"geometry":{"type":"Polygon","coordinates":[[[35.82,34.55],[35.82,34.7],[36.02,34.85],[36.28,34.92],[36.55,34.72],[36.4,34.45],[36.02,34.35],[35.82,34.55]]]}},{"type":"Feature","properties":{"name":"Kuzey Lübnan"},"geometry":{"type":"Polygon","coordinates":[[[35.65,34.25],[35.82,34.55],[36.02,34.35],[36.4,34.45],[36.62,34.18],[36.62,33.98],[36.28,33.85],[35.92,33.95],[35.65,34.25]]]}},{"type":"Feature","properties":{"name":"Baalbek-Hermel"},"geometry":{"type":"Polygon","coordinates":[[[36.28,34.92],[36.55,34.72],[36.92,34.65],[36.92,33.85],[36.62,33.7],[36.28,33.85],[36.28,34.92]]]}},{"type":"Feature","properties":{"name":"Beyrut"},"geometry":{"type":"Polygon","coordinates":[[[35.46,33.84],[35.46,33.92],[35.6,33.92],[35.6,33.84],[35.46,33.84]]]}},{"type":"Feature","properties":{"name":"Dağ Lübnan"},"geometry":{"type":"Polygon","coordinates":[[[35.6,33.6],[35.6,34.25],[35.65,34.25],[35.92,33.95],[36.28,33.85],[36.28,33.52],[35.92,33.4],[35.6,33.6]]]}},{"type":"Feature","properties":{"name":"Bekaa"},"geometry":{"type":"Polygon","coordinates":[[[35.92,33.02],[35.92,33.4],[36.28,33.52],[36.62,33.7],[36.92,33.4],[36.72,33.02],[36.42,32.98],[35.92,33.02]]]}},{"type":"Feature","properties":{"name":"Nabatiye"},"geometry":{"type":"Polygon","coordinates":[[[35.35,33.02],[35.35,33.55],[35.6,33.6],[35.92,33.4],[35.92,33.02],[35.58,32.88],[35.35,33.02]]]}},{"type":"Feature","properties":{"name":"Güney Lübnan"},"geometry":{"type":"Polygon","coordinates":[[[35.08,33.05],[35.08,33.3],[35.35,33.35],[35.35,33.02],[35.58,32.88],[35.48,32.75],[35.18,32.78],[35.08,33.05]]]}}]}