{"type":"FeatureCollection","features":[{"type":"Feature","properties":{"name":"Halep"},"geometry":{"type":"Polygon","coordinates":[[[36.68,37.37],[37.0,37.38],[37.8,37.38],[38.55,37.2],[38.78,36.83],[38.55,36.25],[37.9,36.02],[37.12,35.98],[36.58,36.18],[36.35,36.65],[36.4,37.08],[36.68,37.37]]]}},{"type":"Feature","properties":{"name":"Rakka"},"geometry":{"type":"Polygon","coordinates":[[[37.0,37.38],[38.55,37.38],[39.55,37.38],[40.38,37.12],[40.22,36.52],[39.42,36.12],[38.55,36.25],[37.8,37.38],[37.0,37.38]]]}},{"type":"Feature","properties":{"name":"Haseke"},"geometry":{"type":"Polygon","coordinates":[[[40.38,37.38],[41.78,37.38],[42.38,37.12],[42.38,36.52],[41.82,36.0],[40.92,35.72],[40.22,36.1],[40.22,36.52],[40.38,37.38]]]}},{"type":"Feature","properties":{"name":"Deyrizor"},"geometry":{"type":"Polygon","coordinates":[[[38.22,36.22],[39.0,36.6],[39.55,37.12],[40.38,37.12],[40.22,36.52],[39.82,35.22],[38.92,35.02],[38.22,35.42],[38.22,36.22]]]}},{"type":"Feature","properties":{"name":"İdlib"},"geometry":{"type":"Polygon","coordinates":[[[35.75,36.52],[35.75,36.82],[36.38,36.82],[36.68,37.08],[36.35,36.65],[36.58,36.18],[36.2,35.72],[35.88,36.28],[35.75,36.52]]]}},{"type":"Feature","properties":{"name":"Lazkiye"},"geometry":{"type":"Polygon","coordinates":[[[35.75,35.98],[35.75,36.82],[35.88,36.28],[36.2,35.72],[36.58,36.18],[36.22,35.68],[35.92,35.58],[35.75,35.98]]]}},{"type":"Feature","properties":{"name":"Tartus"},"geometry":{"type":"Polygon","coordinates":[[[35.75,34.55],[35.75,35.98],[35.92,35.58],[36.22,35.68],[36.22,35.1],[35.98,34.9],[35.75,34.55]]]}},{"type":"Feature","properties":{"name":"Hama"},"geometry":{"type":"Polygon","coordinates":[[[36.22,35.1],[36.22,35.68],[36.58,36.18],[37.12,35.98],[37.52,35.58],[37.12,34.92],[36.62,34.82],[36.22,35.1]]]}},{"type":"Feature","properties":{"name":"Humus"},"geometry":{"type":"Polygon","coordinates":[[[36.22,34.38],[36.22,35.1],[36.62,34.82],[37.12,34.92],[37.82,34.62],[37.52,33.92],[37.02,33.62],[36.52,33.72],[36.22,34.38]]]}},{"type":"Feature","properties":{"name":"Şam (Dımaşk)"},"geometry":{"type":"Polygon","coordinates":[[[35.98,33.28],[36.12,33.68],[36.52,33.72],[36.72,33.52],[36.72,33.22],[36.42,33.08],[36.12,33.1],[35.98,33.28]]]}},{"type":"Feature","properties":{"name":"Rif Dımaşk"},"geometry":{"type":"Polygon","coordinates":[[[35.6,33.08],[35.98,33.28],[36.12,33.1],[36.42,33.08],[36.72,33.22],[37.2,32.98],[37.52,32.68],[37.22,32.32],[36.52,32.22],[35.92,32.4],[35.6,33.08]]]}},{"type":"Feature","properties":{"name":"Dera"},"geometry":{"type":"Polygon","coordinates":[[[36.02,32.62],[36.52,32.22],[37.22,32.32],[37.62,32.55],[38.0,32.28],[37.62,31.9],[36.82,31.82],[36.02,32.1],[36.02,32.62]]]}},{"type":"Feature","properties":{"name":"Süveyda"},"geometry":{"type":"Polygon","coordinates":[[[36.52,32.22],[37.22,32.32],[37.52,32.68],[38.0,32.28],[38.32,32.02],[38.12,31.62],[37.52,31.52],[36.82,31.82],[36.52,32.22]]]}},{"type":"Feature","properties":{"name":"Kuneytra"},"geometry":{"type":"Polygon","coordinates":[[[35.6,33.08],[35.92,32.4],[36.52,32.22],[36.02,32.1],[35.6,32.3],[35.6,33.08]]]}}]}