{"type":"FeatureCollection","features":[{"type":"Feature","properties":{"name":"Al-Anbar","iso":"IRQ"},"geometry":{"type":"MultiPolygon","coordinates":[[[[43.45248,32.58043],[43.20059,32.53772],[43.16299,32.50497],[43.50171,32.21924],[43.64574,32.09702],[43.73949,32.0076],[43.69345,31.95113],[43.4069,31.82374],[43.22646,31.60593],[43.1613,31.44276],[43.06283,31.208],[42.96059,30.98014],[42.86381,30.81803],[42.80601,30.60158],[42.6231,30.73198],[42.42882,30.8698],[42.216,31.02],[42.0856,31.11166],[42.01231,31.14159],[41.93886,31.1716],[41.86159,31.20304],[41.78601,31.23376],[41.71199,31.26379],[41.63692,31.29413],[41.55896,31.32561],[41.48843,31.35403],[41.42228,31.38368],[41.34442,31.42776],[41.2707,31.46941],[41.19731,31.51079],[41.11171,31.559],[41.05255,31.59224],[40.98085,31.63239],[40.90301,31.67602],[40.82477,31.7197],[40.75725,31.75735],[40.68287,31.79877],[40.59122,31.84964],[40.52815,31.8846],[40.41325,31.94808],[40.23703,31.97886],[40.15098,31.99379],[40.07745,32.00645],[39.94131,32.02988],[39.62782,32.08313],[39.27231,32.19843],[39.26373,32.3044],[39.10853,32.32065],[39.02553,32.36163],[39.02005,32.46542],[39.05355,32.58197],[38.81804,33.30568],[38.98742,33.46268],[39.63838,33.78026],[40.0321,33.96804],[40.55988,34.21637],[41.01237,34.41986],[41.10944,34.60444],[41.23326,34.82653],[41.22596,35.0],[41.22045,35.09287],[41.35773,35.09496],[41.55019,35.03519],[41.79763,34.97129],[41.99122,34.90902],[42.21132,34.89999],[42.42956,34.91519],[42.47387,34.52095],[42.6728,34.41037],[42.78854,34.3959],[42.92078,34.46351],[42.92612,34.3227],[42.97573,34.19882],[43.006,34.08615],[43.15158,33.94414],[43.39143,33.73394],[43.60077,33.70853],[43.75099,33.64828],[43.95784,33.64347],[44.03206,33.59678],[44.14657,33.4401],[44.25765,33.4096],[44.24711,33.33059],[44.22578,33.2461],[44.24181,33.21886],[44.27293,33.20337],[44.27915,33.17944],[44.26077,33.15502],[44.23101,33.1405],[44.16282,33.15925],[43.99987,33.17896],[43.83579,33.20574],[43.84261,33.16097],[44.01034,33.10965],[44.05555,33.05278],[44.08131,32.90025],[44.10187,32.76912],[44.04017,32.70426],[43.86837,32.73056],[43.69867,32.69224],[43.47118,32.58577],[43.45248,32.58043]]]]}},{"type":"Feature","properties":{"name":"Al-Basrah","iso":"IRQ"},"geometry":{"type":"MultiPolygon","coordinates":[[[[47.88775,30.03484],[47.34178,30.07863],[47.02959,29.75362],[46.91805,29.55],[46.66906,29.2048],[46.61024,29.39276],[46.61211,30.57786],[47.13579,30.82556],[47.35962,31.27825],[48.00061,30.99372],[48.19276,30.34249],[48.38617,30.22146],[48.41227,30.1028],[48.48863,29.97816],[48.54958,29.90291],[48.53931,29.90403],[48.52736,29.90681],[48.51431,29.90736],[48.48597,29.90903],[48.46292,29.91181],[48.44292,29.91181],[48.43819,29.9157],[48.42903,29.91792],[48.41986,29.92069],[48.40958,29.92347],[48.40375,29.9257],[48.39486,29.92792],[48.38847,29.9307],[48.38375,29.93347],[48.37625,29.93653],[48.36931,29.93819],[48.36542,29.94097],[48.36236,29.9443],[48.35792,29.94708],[48.35375,29.94986],[48.34403,29.95292],[48.34125,29.95653],[48.33458,29.95931],[48.32986,29.96208],[48.32486,29.96486],[48.31958,29.96764],[48.31458,29.97042],[48.31014,29.97319],[48.30597,29.97597],[48.30181,29.97875],[48.2982,29.98153],[48.2943,29.9843],[48.29014,29.98708],[48.28597,29.98986],[48.28153,29.99264],[48.27708,29.99542],[48.27292,29.9982],[48.26792,30.00125],[48.26347,30.00431],[48.25819,30.00708],[48.25292,30.00986],[48.24708,30.01292],[48.24097,30.01569],[48.23459,30.01847],[48.22792,30.02125],[48.22014,30.02403],[48.21236,30.02681],[48.2043,30.02958],[48.19375,30.03236],[48.17569,30.03514],[48.1343,30.03347],[48.10736,30.03625],[48.06986,30.03458],[48.05931,30.03181],[48.05125,30.02903],[48.04486,30.02625],[48.04042,30.02347],[48.03625,30.02097],[48.03208,30.01792],[48.02903,30.01486],[48.0257,30.01125],[48.02236,30.00819],[48.01875,30.00542],[48.0132,30.00264],[47.99986,30.00153],[47.9832,30.00375],[47.97764,30.00653],[47.97458,30.01014],[47.97181,30.01986],[47.96903,30.02653],[47.96625,30.04181],[47.96347,30.04625],[47.96042,30.04986],[47.95153,30.04042],[47.94792,30.04375],[47.94514,30.04708],[47.94236,30.04986],[47.93958,30.05292],[47.93681,30.05625],[47.93431,30.06097],[47.93042,30.06348],[47.92875,30.05931],[47.93292,30.05653],[47.93653,30.05292],[47.9393,30.04958],[47.94264,30.04569],[47.94653,30.04042],[47.94959,30.03653],[47.94954,30.02032],[47.88775,30.03484]]],[[[47.96375,30.04319],[47.96403,30.04236],[47.96431,30.04181],[47.96458,30.04125],[47.96486,30.03986],[47.96569,30.03931],[47.96597,30.03847],[47.96625,30.03736],[47.96653,30.03653],[47.9668,30.03514],[47.96708,30.03292],[47.96736,30.03153],[47.96708,30.0307],[47.9668,30.02958],[47.96653,30.02625],[47.9668,30.0257],[47.96708,30.02514],[47.96736,30.02459],[47.96764,30.02403],[47.96792,30.02347],[47.96819,30.02319],[47.96847,30.02264],[47.96875,30.02208],[47.96903,30.02153],[47.96931,30.02097],[47.96958,30.02042],[47.96986,30.01958],[47.97014,30.01903],[47.97042,30.01893],[47.97069,30.01819],[47.97097,30.01764],[47.97125,30.01264],[47.97153,30.01208],[47.97181,30.01153],[47.97208,30.0107],[47.97236,30.00958],[47.97264,30.00847],[47.97292,30.00764],[47.97319,30.00736],[47.97347,30.0068],[47.97375,30.00653],[47.97403,30.00625],[47.97375,30.00597],[47.97264,30.0057],[47.97153,30.00597],[47.97097,30.00625],[47.97069,30.00653],[47.97014,30.0068],[47.96986,30.00708],[47.96958,30.00736],[47.96903,30.00764],[47.96819,30.00792],[47.96792,30.00819],[47.96764,30.00847],[47.96736,30.00903],[47.96708,30.0093],[47.9668,30.00986],[47.96653,30.01014],[47.96625,30.0107],[47.96597,30.01098],[47.96569,30.01153],[47.96542,30.01208],[47.96514,30.01264],[47.96486,30.0132],[47.96458,30.01375],[47.96431,30.01458],[47.96403,30.01514],[47.96375,30.01569],[47.96347,30.01625],[47.9632,30.01681],[47.96292,30.01736],[47.96264,30.01792],[47.96236,30.01875],[47.96208,30.01931],[47.96208,30.02014],[47.96181,30.0207],[47.96153,30.02153],[47.96125,30.02208],[47.96097,30.02292],[47.96069,30.02347],[47.96042,30.02459],[47.96014,30.02625],[47.95986,30.02792],[47.95958,30.02903],[47.95986,30.02958],[47.96014,30.03014],[47.95986,30.0307],[47.95958,30.0318],[47.95931,30.03319],[47.95958,30.03375],[47.95986,30.03514],[47.96014,30.03708],[47.96042,30.04042],[47.96069,30.04097],[47.96097,30.04125],[47.96125,30.04208],[47.96153,30.04375],[47.96181,30.04403],[47.96208,30.04431],[47.96236,30.04403],[47.96375,30.04319]]]]}},{"type":"Feature","properties":{"name":"Al-Muthannia","iso":"IRQ"},"geometry":{"type":"MultiPolygon","coordinates":[[[[46.54779,30.54214],[46.58276,30.34982],[46.62739,30.1786],[46.66045,30.04977],[46.6655,29.96934],[46.65228,29.7726],[46.62239,29.51884],[46.61024,29.39276],[46.59203,29.28164],[46.592,29.21363],[46.60059,29.18715],[46.6156,29.16858],[46.55062,29.10534],[46.55051,29.10531],[46.54986,29.10499],[46.54974,29.10487],[46.54081,29.09815],[46.53116,29.09429],[46.51355,29.086],[46.49126,29.0781],[46.45836,29.06731],[46.43393,29.06107],[46.37887,29.06291],[46.27955,29.07143],[46.26141,29.07184],[46.23911,29.07577],[46.14435,29.08425],[46.08127,29.08967],[45.98668,29.09837],[45.92204,29.10261],[45.8465,29.10612],[45.80302,29.10963],[45.76221,29.11509],[45.69259,29.12234],[45.6486,29.12561],[45.57332,29.13078],[45.51852,29.13485],[45.46209,29.13728],[45.37433,29.14201],[45.28812,29.14959],[45.23897,29.1537],[45.1768,29.159],[45.16428,29.15966],[45.07961,29.16635],[45.03674,29.16994],[44.9997,29.17371],[44.948,29.17784],[44.91127,29.18169],[44.90561,29.18232],[44.87963,29.18306],[44.8336,29.18697],[44.81957,29.18618],[44.77727,29.18921],[44.77073,29.18962],[44.7423,29.19239],[44.71522,29.19603],[44.6776,29.22502],[44.66192,29.23745],[44.6074,29.27933],[44.56761,29.30969],[44.53418,29.33439],[44.5002,29.36434],[44.45715,29.39643],[44.39778,29.44064],[44.34824,29.47747],[44.2855,29.52406],[44.20897,29.58078],[44.1561,29.61991],[44.09177,29.66745],[44.04055,29.70525],[43.98806,29.74393],[43.92274,29.792],[43.87679,29.82576],[43.85173,29.84416],[43.82019,29.8673],[43.91989,30.0036],[43.98091,30.0694],[44.03758,30.15289],[44.05076,30.1882],[44.05366,30.2722],[44.06012,30.30638],[44.13892,30.4773],[44.19931,30.61136],[44.23092,30.6594],[44.25159,30.68043],[44.28987,30.7023],[44.4143,30.76641],[44.44574,30.79119],[44.49277,30.84319],[44.51439,30.87852],[44.53419,30.93852],[44.54789,31.03365],[44.56351,31.0857],[44.63472,31.2792],[44.66274,31.38137],[44.70008,31.37284],[44.74386,31.3548],[44.81044,31.30936],[44.86337,31.26916],[44.89528,31.25808],[44.94198,31.25755],[44.96458,31.32457],[44.97678,31.36632],[45.00764,31.41831],[45.02811,31.46592],[45.05589,31.49934],[45.06649,31.52245],[45.06757,31.54657],[45.05854,31.57112],[45.02436,31.62141],[45.0269,31.63208],[45.03947,31.64204],[45.08909,31.65503],[45.18279,31.67677],[45.25801,31.68274],[45.37719,31.67895],[45.53372,31.65345],[45.61277,31.63589],[45.73568,31.61163],[45.76611,31.61937],[45.78495,31.59616],[45.78983,31.57678],[45.78709,31.56186],[45.77332,31.54115],[45.76678,31.52363],[45.78058,31.47168],[45.78061,31.44534],[45.76703,31.41789],[45.72838,31.37584],[45.71607,31.3589],[45.71278,31.34479],[45.71719,31.32983],[45.73045,31.32283],[45.75628,31.31323],[45.76822,31.30286],[45.77209,31.28391],[45.76326,31.26204],[45.73696,31.21502],[45.73172,31.18951],[45.73822,31.16238],[45.76241,31.13067],[45.77365,31.10838],[45.77278,31.09411],[45.76419,31.08375],[45.73573,31.07398],[45.71983,31.06587],[45.68837,31.01519],[45.64993,30.96173],[45.64316,30.93763],[45.64201,30.90992],[45.65248,30.85348],[45.67404,30.83966],[45.7087,30.82478],[45.78049,30.81141],[45.97283,30.78722],[46.17495,30.76923],[46.24466,30.76434],[46.33092,30.75753],[46.37033,30.74644],[46.38863,30.73433],[46.4535,30.65327],[46.5242,30.57467],[46.54286,30.56111],[46.54779,30.54214]]]]}},{"type":"Feature","properties":{"name":"Al-Qadisiyah","iso":"IRQ"},"geometry":{"type":"MultiPolygon","coordinates":[[[[44.92429,31.25666],[44.8767,31.26259],[44.85101,31.27738],[44.76564,31.3408],[44.72429,31.36367],[44.67472,31.37965],[44.66124,31.38356],[44.64381,31.38981],[44.55501,31.40756],[44.49926,31.41412],[44.46426,31.4212],[44.43868,31.43424],[44.40176,31.46423],[44.38165,31.49741],[44.3769,31.51789],[44.3803,31.54011],[44.39262,31.55678],[44.42193,31.56967],[44.46254,31.57808],[44.47865,31.58615],[44.48742,31.59704],[44.4923,31.65273],[44.50287,31.70668],[44.52155,31.76773],[44.51978,31.78704],[44.50176,31.8238],[44.47902,31.8567],[44.46861,31.88853],[44.46847,31.95859],[44.47787,31.98735],[44.49755,32.01508],[44.52359,32.03166],[44.54567,32.03893],[44.55837,32.04472],[44.56382,32.04834],[44.56774,32.05345],[44.57399,32.05901],[44.57602,32.06243],[44.5769,32.06937],[44.57817,32.07375],[44.58443,32.08367],[44.65292,32.06966],[44.70151,32.06481],[44.7237,32.07004],[44.74512,32.08289],[44.75709,32.1034],[44.75362,32.15005],[44.7541,32.16144],[44.7675,32.17604],[44.78794,32.17775],[44.82421,32.17185],[44.84193,32.17365],[44.93169,32.22784],[44.99765,32.28524],[45.04955,32.32489],[45.13039,32.36611],[45.15179,32.38278],[45.18852,32.40609],[45.19578,32.40306],[45.2059,32.40199],[45.2104,32.40093],[45.2185,32.39717],[45.22424,32.39379],[45.22952,32.38907],[45.2545,32.36364],[45.25953,32.35625],[45.26253,32.35327],[45.26634,32.35124],[45.27076,32.35017],[45.29228,32.3501],[45.30703,32.34579],[45.33282,32.32986],[45.41682,32.25143],[45.527,32.16736],[45.5554,32.13741],[45.64607,32.01423],[45.68956,31.94342],[45.69884,31.91071],[45.69597,31.85483],[45.70419,31.82487],[45.75437,31.73707],[45.76831,31.6616],[45.76611,31.61937],[45.73568,31.61163],[45.61277,31.63589],[45.53372,31.65345],[45.37719,31.67895],[45.25801,31.68274],[45.18279,31.67677],[45.08909,31.65503],[45.03947,31.64204],[45.0269,31.63208],[45.02436,31.62141],[45.05854,31.57112],[45.06757,31.54657],[45.06649,31.52245],[45.05589,31.49934],[45.02811,31.46592],[45.00764,31.41831],[44.97678,31.36632],[44.96458,31.32457],[44.94198,31.25755],[44.92429,31.25666]]]]}},{"type":"Feature","properties":{"name":"An-Najaf","iso":"IRQ"},"geometry":{"type":"MultiPolygon","coordinates":[[[[42.8209,30.64079],[42.85637,30.73047],[42.86166,30.75731],[42.86528,30.83283],[42.87428,30.85978],[42.94253,30.95307],[42.97416,31.00508],[43.05638,31.17179],[43.06186,31.19464],[43.06288,31.26039],[43.06809,31.2821],[43.08932,31.32302],[43.18197,31.48121],[43.20364,31.56154],[43.21659,31.59074],[43.25704,31.64636],[43.32906,31.73814],[43.38606,31.80522],[43.425,31.83765],[43.46219,31.85893],[43.62237,31.92272],[43.71836,31.96455],[43.73447,31.97993],[43.74029,31.9973],[43.73681,32.01513],[43.72364,32.03281],[43.66249,32.09125],[43.6756,32.10021],[44.05354,32.22956],[44.16218,32.26926],[44.18266,32.27287],[44.24203,32.28609],[44.27719,32.29656],[44.29766,32.29186],[44.30751,32.27386],[44.3077,32.25352],[44.28395,32.2094],[44.27798,32.19291],[44.27636,32.16253],[44.28291,32.12716],[44.30795,32.09647],[44.32073,32.09198],[44.35081,32.10366],[44.39754,32.13812],[44.43816,32.15388],[44.47055,32.1425],[44.48783,32.13312],[44.53336,32.10944],[44.55685,32.10189],[44.57736,32.09155],[44.58443,32.08367],[44.57817,32.07375],[44.5769,32.06937],[44.57602,32.06243],[44.57399,32.05901],[44.56774,32.05345],[44.56382,32.04834],[44.55837,32.04472],[44.54567,32.03893],[44.52359,32.03166],[44.49755,32.01508],[44.47787,31.98735],[44.46847,31.95859],[44.46861,31.88853],[44.47902,31.8567],[44.50176,31.8238],[44.51978,31.78704],[44.52155,31.76773],[44.50287,31.70668],[44.4923,31.65273],[44.48742,31.59704],[44.47865,31.58615],[44.46254,31.57808],[44.42193,31.56967],[44.39262,31.55678],[44.3803,31.54011],[44.3769,31.51789],[44.38165,31.49741],[44.40176,31.46423],[44.43868,31.43424],[44.46426,31.4212],[44.49926,31.41412],[44.55501,31.40756],[44.64381,31.38981],[44.66124,31.38356],[44.655,31.34624],[44.60278,31.18983],[44.55301,31.0548],[44.5438,30.9994],[44.52097,30.8951],[44.50704,30.86391],[44.46938,30.81494],[44.42889,30.77675],[44.3929,30.75329],[44.26147,30.68697],[44.24351,30.67354],[44.22019,30.64469],[44.18299,30.57946],[44.0707,30.33209],[44.05496,30.28585],[44.05272,30.21579],[44.04786,30.17521],[44.01068,30.11021],[43.96937,30.05568],[43.88449,29.95788],[43.81297,29.8726],[43.77346,29.90155],[43.7313,29.93242],[43.70639,29.95064],[43.66105,29.98378],[43.62651,30.009],[43.58232,30.04124],[43.53317,30.07705],[43.45411,30.13456],[43.40969,30.16681],[43.35233,30.20842],[43.29041,30.25326],[43.24474,30.2863],[43.17683,30.33534],[43.12996,30.36914],[43.08346,30.40263],[43.0643,30.41642],[43.05556,30.4227],[43.01025,30.45527],[42.97546,30.48025],[42.94495,30.50215],[42.90519,30.53061],[42.87577,30.55168],[42.80601,30.60158],[42.8209,30.64079]]]]}},{"type":"Feature","properties":{"name":"Arbil","iso":"IRQ"},"geometry":{"type":"MultiPolygon","coordinates":[[[[43.85581,35.7826],[43.78036,35.72498],[43.77219,35.65987],[43.74371,35.59299],[43.66445,35.50674],[43.53981,35.43872],[43.43,35.4534],[43.41755,35.5438],[43.39241,35.58957],[43.34195,35.67205],[43.3422,35.74912],[43.36458,35.80877],[43.42887,35.88747],[43.41895,35.92591],[43.35861,35.96727],[43.38211,35.98306],[43.46756,36.00904],[43.52558,36.09435],[43.58632,36.18998],[43.6678,36.25716],[43.71096,36.28602],[43.75402,36.31409],[43.77599,36.34544],[43.81083,36.40012],[43.81524,36.40596],[43.8465,36.45537],[43.96931,36.56517],[44.01057,36.57823],[44.13422,36.58055],[44.21949,36.63132],[44.25824,36.70398],[44.2272,36.74832],[44.12253,36.80093],[44.02979,36.83471],[43.97284,36.90271],[43.84881,36.95271],[43.8128,36.98168],[43.89535,37.02942],[44.01642,37.11954],[44.0476,37.18239],[44.03867,37.28686],[44.02985,37.3247],[44.06145,37.32207],[44.0941,37.31309],[44.14184,37.31565],[44.19448,37.29138],[44.26719,37.25208],[44.27906,37.20391],[44.28166,37.16215],[44.24887,37.15537],[44.23346,37.13981],[44.20268,37.10481],[44.21486,37.07333],[44.24234,37.05499],[44.24272,37.03408],[44.27439,36.9788],[44.30333,36.97488],[44.32347,36.98251],[44.33194,36.99251],[44.36512,37.02635],[44.35068,37.04929],[44.40579,37.05575],[44.4741,37.07859],[44.52059,37.10353],[44.53813,37.12111],[44.5639,37.13751],[44.61882,37.1763],[44.64497,37.18755],[44.67846,37.17516],[44.71854,37.17439],[44.75581,37.16376],[44.78266,37.16113],[44.77718,37.12145],[44.79642,37.07788],[44.82778,37.04422],[44.87789,37.04338],[44.92192,37.0147],[44.89317,36.95819],[44.92407,36.90739],[44.87798,36.85558],[44.85313,36.80076],[44.87954,36.77544],[44.95636,36.77477],[45.0,36.74619],[45.04748,36.72934],[45.07776,36.64224],[45.07359,36.62523],[45.04828,36.60622],[45.0518,36.56783],[45.01561,36.54093],[44.98743,36.51747],[44.94402,36.46032],[44.91333,36.43502],[44.8301,36.44107],[44.7897,36.43553],[44.77576,36.43632],[44.75122,36.42307],[44.603,36.41722],[44.53176,36.36377],[44.50657,36.33697],[44.52603,36.26106],[44.62542,36.23185],[44.63514,36.20324],[44.59939,36.15815],[44.59922,36.12122],[44.66271,36.06295],[44.69801,36.04833],[44.82601,35.94741],[44.89521,35.89316],[44.88074,35.86562],[44.64137,35.85749],[44.57164,35.86218],[44.5108,35.85275],[44.42186,35.85084],[44.31107,35.81417],[44.24604,35.82369],[44.15168,35.83107],[44.12226,35.82132],[44.11174,35.79514],[44.07738,35.76688],[44.01849,35.78399],[43.95191,35.82884],[43.89773,35.83493],[43.85581,35.7826]]]]}},{"type":"Feature","properties":{"name":"As-Sulaymaniyah","iso":"IRQ"},"geometry":{"type":"MultiPolygon","coordinates":[[[[45.88496,35.01066],[45.8975,34.9448],[45.79869,34.90987],[45.78767,34.84154],[45.71573,34.90706],[45.66801,35.08763],[45.56768,34.94196],[45.44551,34.78375],[45.29024,34.61235],[45.1877,34.57449],[45.17447,34.72327],[45.08554,34.78119],[44.97988,34.82351],[44.91076,34.87617],[44.88205,34.99666],[44.60923,35.03111],[44.51739,35.12001],[44.68137,35.31649],[44.72422,35.42217],[44.69048,35.50596],[44.68921,35.62197],[44.66364,35.72137],[44.71286,35.85865],[44.89202,35.90012],[44.69337,36.05338],[44.59513,36.13108],[44.63594,36.20966],[44.51739,36.27951],[44.53826,36.36877],[44.75968,36.42777],[44.79634,36.43871],[44.924,36.43939],[44.99895,36.52216],[45.0697,36.48877],[45.14417,36.40501],[45.22167,36.42599],[45.27018,36.40245],[45.28181,36.31487],[45.28611,36.26292],[45.34399,36.1973],[45.36126,36.11717],[45.35944,36.03205],[45.38033,35.97578],[45.43339,35.98554],[45.48892,36.00456],[45.54833,36.00196],[45.6052,35.96244],[45.69678,35.89362],[45.77318,35.80298],[45.8706,35.81428],[45.95675,35.83969],[46.01954,35.83244],[46.05248,35.85066],[46.08687,35.86005],[46.12817,35.84338],[46.13695,35.83354],[46.15331,35.80461],[46.19555,35.79945],[46.23013,35.81086],[46.26786,35.81208],[46.29815,35.83103],[46.33966,35.82096],[46.34919,35.7953],[46.33735,35.7751],[46.31792,35.75815],[46.30024,35.74704],[46.28266,35.73502],[46.2534,35.72095],[46.22237,35.71458],[46.18859,35.71058],[46.15509,35.68728],[46.11657,35.68941],[46.08455,35.6848],[46.04717,35.69617],[46.01299,35.67784],[46.00549,35.64499],[46.00982,35.62801],[46.01218,35.59827],[46.01818,35.57518],[45.97977,35.57671],[46.01218,35.52541],[46.0,35.48043],[46.03119,35.41897],[46.04755,35.3896],[46.0691,35.36811],[46.09453,35.35029],[46.1312,35.33221],[46.14509,35.30797],[46.15597,35.27964],[46.13239,35.25736],[46.11067,35.23311],[46.12923,35.23235],[46.15604,35.22058],[46.19414,35.21107],[46.20286,35.19112],[46.16412,35.16935],[46.15905,35.14056],[46.17397,35.11706],[46.14337,35.08265],[46.0665,35.05838],[46.05532,35.04078],[46.02228,35.0597],[45.95699,35.0801],[45.90699,35.04239],[45.88496,35.01066]]]]}},{"type":"Feature","properties":{"name":"At-Ta'mim","iso":"IRQ"},"geometry":{"type":"MultiPolygon","coordinates":[[[[44.67768,35.53289],[44.69048,35.50596],[44.71903,35.47482],[44.73067,35.45763],[44.73294,35.44383],[44.72422,35.42217],[44.69532,35.39567],[44.67838,35.37237],[44.67473,35.35579],[44.68137,35.31649],[44.67807,35.30127],[44.61553,35.18602],[44.59875,35.17068],[44.51739,35.12001],[44.5027,35.11243],[44.48243,35.10617],[44.46595,35.08825],[44.45861,35.02127],[44.45034,34.99079],[44.43358,34.96744],[44.36821,34.88429],[44.3134,34.78368],[44.28142,34.7168],[44.26006,34.69739],[44.23532,34.69671],[44.19487,34.72141],[44.13839,34.7758],[44.05333,34.83392],[44.01759,34.85208],[44.00369,34.85781],[43.99678,34.86358],[43.99305,34.8663],[43.97945,34.87329],[43.94088,34.87878],[43.84372,34.92932],[43.67526,35.01179],[43.62207,35.03258],[43.56396,35.04422],[43.51864,35.06137],[43.41211,35.15201],[43.39835,35.17537],[43.39014,35.2203],[43.38225,35.24482],[43.3491,35.29545],[43.31559,35.32417],[43.27968,35.37413],[43.27711,35.38824],[43.28338,35.40265],[43.29652,35.41277],[43.32268,35.42373],[43.37774,35.4281],[43.3938,35.43665],[43.42138,35.4565],[43.43942,35.45164],[43.52816,35.43855],[43.54777,35.44102],[43.59714,35.47232],[43.6903,35.5177],[43.74045,35.57701],[43.74808,35.60338],[43.77166,35.64858],[43.76733,35.68897],[43.77075,35.7097],[43.79391,35.73813],[43.84188,35.771],[43.86439,35.79258],[43.89773,35.83493],[43.90923,35.83259],[43.95191,35.82884],[43.96648,35.82119],[44.01849,35.78399],[44.04387,35.77399],[44.07738,35.76688],[44.10497,35.78424],[44.11174,35.79514],[44.12089,35.8195],[44.12226,35.82132],[44.13257,35.82846],[44.15168,35.83107],[44.23735,35.83052],[44.24604,35.82369],[44.27592,35.81184],[44.31107,35.81417],[44.36809,35.83232],[44.42186,35.85084],[44.4773,35.84811],[44.5108,35.85275],[44.5526,35.86368],[44.57164,35.86218],[44.58359,35.85656],[44.58626,35.84361],[44.62554,35.76802],[44.6569,35.72653],[44.69915,35.69984],[44.70972,35.68943],[44.71459,35.66822],[44.71028,35.65409],[44.68105,35.60206],[44.67655,35.57711],[44.6758,35.54479],[44.67768,35.53289]]]]}},{"type":"Feature","properties":{"name":"Babil","iso":"IRQ"},"geometry":{"type":"MultiPolygon","coordinates":[[[[45.14439,32.37579],[45.10254,32.35062],[45.03503,32.31574],[44.94717,32.24004],[44.85595,32.17968],[44.83318,32.17204],[44.8119,32.17319],[44.77657,32.17817],[44.75908,32.1701],[44.75352,32.15862],[44.75827,32.11995],[44.75145,32.09032],[44.733,32.0745],[44.71157,32.06633],[44.68052,32.06507],[44.60237,32.08174],[44.58146,32.08801],[44.56732,32.09759],[44.54535,32.10485],[44.50759,32.12608],[44.4789,32.13731],[44.46471,32.14766],[44.42649,32.15327],[44.36397,32.11217],[44.33289,32.09542],[44.31496,32.09274],[44.2947,32.10977],[44.27799,32.14206],[44.27681,32.18301],[44.28046,32.20227],[44.30397,32.24099],[44.30847,32.26136],[44.30421,32.28233],[44.28924,32.29949],[44.28492,32.34547],[44.27632,32.41078],[44.26353,32.44721],[44.24741,32.46944],[44.22589,32.49122],[44.1636,32.56527],[44.16508,32.60549],[44.17195,32.61892],[44.19178,32.63113],[44.19891,32.64123],[44.20248,32.65872],[44.19934,32.67402],[44.19062,32.6831],[44.1734,32.69295],[44.15021,32.69456],[44.1303,32.69069],[44.1063,32.69095],[44.09435,32.69472],[44.09479,32.72873],[44.1058,32.80493],[44.10312,32.84079],[44.10008,32.87399],[44.07458,32.91241],[44.06312,32.9489],[44.05817,33.03889],[44.0522,33.06274],[44.03786,33.08915],[44.02081,33.10481],[43.95713,33.12151],[43.89282,33.14835],[43.85197,33.15658],[43.83694,33.16589],[43.83044,33.17964],[43.83239,33.20029],[43.87267,33.20551],[43.92096,33.19821],[43.98457,33.18075],[44.03109,33.17883],[44.09956,33.17973],[44.14495,33.16695],[44.19867,33.13969],[44.22321,33.13344],[44.22902,33.13904],[44.23501,33.14247],[44.24924,33.14831],[44.25901,33.15364],[44.26409,33.15807],[44.2735,33.16781],[44.27579,33.17145],[44.28023,33.18141],[44.28334,33.18531],[44.29108,33.19065],[44.31115,33.18999],[44.35596,33.18133],[44.49009,33.18283],[44.49923,33.16453],[44.50723,33.14898],[44.54543,33.1083],[44.55363,33.07811],[44.55362,33.0396],[44.54917,32.9985],[44.5145,32.98081],[44.49838,32.96869],[44.48843,32.95313],[44.48397,32.92483],[44.50031,32.90783],[44.53567,32.88322],[44.54841,32.85778],[44.56055,32.80337],[44.57048,32.78716],[44.58773,32.77799],[44.65833,32.77225],[44.69009,32.76657],[44.73286,32.75134],[44.76873,32.72876],[44.80083,32.70415],[44.83978,32.69344],[44.86546,32.68147],[44.92341,32.63217],[45.01866,32.52296],[45.04821,32.49603],[45.09452,32.46557],[45.16232,32.44314],[45.18452,32.41849],[45.18482,32.41405],[45.18852,32.40609],[45.15179,32.38278],[45.14439,32.37579]]]]}},{"type":"Feature","properties":{"name":"Baghdad","iso":"IRQ"},"geometry":{"type":"MultiPolygon","coordinates":[[[[44.28727,33.18921],[44.27293,33.20337],[44.26733,33.20646],[44.24735,33.21518],[44.24181,33.21886],[44.23567,33.22537],[44.23031,33.23526],[44.22578,33.2461],[44.22324,33.28643],[44.22845,33.30797],[44.24711,33.33059],[44.27913,33.35613],[44.27927,33.36907],[44.25765,33.4096],[44.25497,33.43391],[44.2608,33.44658],[44.26419,33.45234],[44.26892,33.45763],[44.29415,33.48285],[44.29683,33.48653],[44.30445,33.50035],[44.31598,33.51235],[44.35375,33.49497],[44.39496,33.45791],[44.41638,33.44394],[44.44094,33.43593],[44.47136,33.43521],[44.51858,33.44967],[44.53928,33.44842],[44.55268,33.43884],[44.55931,33.41652],[44.55693,33.38561],[44.54,33.34286],[44.52978,33.30723],[44.53126,33.29663],[44.52431,33.27809],[44.50658,33.18832],[44.49903,33.18097],[44.45201,33.18109],[44.33887,33.18313],[44.30238,33.19112],[44.28727,33.18921]]]]}},{"type":"Feature","properties":{"name":"Dhi-Qar","iso":"IRQ"},"geometry":{"type":"MultiPolygon","coordinates":[[[[46.54286,30.56111],[46.5242,30.57467],[46.4535,30.65327],[46.38863,30.73433],[46.37033,30.74644],[46.33092,30.75753],[46.24466,30.76434],[46.17495,30.76923],[45.97283,30.78722],[45.78049,30.81141],[45.7087,30.82478],[45.67404,30.83966],[45.65248,30.85348],[45.64201,30.90992],[45.64316,30.93763],[45.64993,30.96173],[45.68837,31.01519],[45.71983,31.06587],[45.73573,31.07398],[45.76419,31.08375],[45.77278,31.09411],[45.77365,31.10838],[45.76241,31.13067],[45.73822,31.16238],[45.73172,31.18951],[45.73696,31.21502],[45.76326,31.26204],[45.77209,31.28391],[45.76822,31.30286],[45.75628,31.31323],[45.73045,31.32283],[45.71719,31.32983],[45.71278,31.34479],[45.71607,31.3589],[45.72838,31.37584],[45.76703,31.41789],[45.78061,31.44534],[45.78058,31.47168],[45.76678,31.52363],[45.77332,31.54115],[45.78709,31.56186],[45.78983,31.57678],[45.78495,31.59616],[45.76611,31.61937],[45.76831,31.6616],[45.75437,31.73707],[45.70419,31.82487],[45.69597,31.85483],[45.69884,31.91071],[45.80973,31.91026],[45.86942,31.92113],[45.96632,31.95105],[46.04425,31.97341],[46.11704,31.98135],[46.26272,31.98173],[46.32234,31.98175],[46.33181,31.9706],[46.32635,31.95456],[46.29799,31.92119],[46.29604,31.89931],[46.3024,31.88279],[46.321,31.85766],[46.361,31.8162],[46.4097,31.74225],[46.41069,31.70696],[46.43746,31.65045],[46.50753,31.55831],[46.54753,31.49773],[46.57721,31.44095],[46.61271,31.40287],[46.69262,31.34952],[46.72981,31.31381],[46.74053,31.28971],[46.74586,31.22495],[46.75607,31.19466],[46.77283,31.17168],[46.79608,31.15247],[46.82019,31.14268],[46.86155,31.13515],[46.93575,31.13515],[46.98641,31.13545],[47.11916,31.13947],[47.14355,31.14286],[47.15409,31.14295],[47.16127,31.14565],[47.16481,31.14626],[47.17551,31.14282],[47.18552,31.06167],[47.17786,30.96789],[47.15474,30.87594],[47.12362,30.78618],[47.11464,30.73195],[47.1327,30.67857],[47.1366,30.655],[47.13301,30.63631],[47.12338,30.62666],[47.10389,30.62311],[46.94891,30.64792],[46.8835,30.64646],[46.68994,30.59307],[46.585,30.57406],[46.55492,30.56904],[46.54286,30.56111]]]]}},{"type":"Feature","properties":{"name":"Dihok","iso":"IRQ"},"geometry":{"type":"MultiPolygon","coordinates":[[[[43.10146,36.74323],[43.02005,36.72735],[42.94724,36.72131],[42.93161,36.71238],[42.89455,36.6946],[42.83813,36.69505],[42.80655,36.70327],[42.76622,36.72445],[42.72776,36.75082],[42.69204,36.76356],[42.63247,36.77705],[42.58929,36.7949],[42.57246,36.80861],[42.55756,36.83777],[42.53867,36.89643],[42.52603,36.9132],[42.49506,36.93673],[42.38474,37.06718],[42.3811,37.08203],[42.37358,37.08684],[42.36596,37.08912],[42.36378,37.09254],[42.36304,37.10286],[42.37523,37.11777],[42.39484,37.11261],[42.40359,37.11214],[42.42683,37.11972],[42.44257,37.12611],[42.44761,37.12728],[42.45372,37.1297],[42.46035,37.13343],[42.47201,37.13653],[42.49386,37.13382],[42.50756,37.13295],[42.51708,37.13768],[42.53634,37.14885],[42.56437,37.14823],[42.59165,37.14725],[42.59603,37.17022],[42.61588,37.1905],[42.62341,37.20605],[42.62702,37.21403],[42.64204,37.22252],[42.65811,37.24107],[42.66225,37.25451],[42.66455,37.26199],[42.67505,37.27019],[42.67822,37.27029],[42.68943,37.27555],[42.70066,37.28542],[42.70298,37.29148],[42.6989,37.30246],[42.70197,37.30649],[42.70819,37.30789],[42.7346,37.31252],[42.73581,37.31297],[42.73816,37.31426],[42.74327,37.31804],[42.7455,37.32541],[42.74334,37.33135],[42.73934,37.33573],[42.73426,37.3479],[42.77423,37.35641],[42.78556,37.36405],[42.7936,37.37442],[42.80326,37.37804],[42.82702,37.37258],[42.83457,37.36818],[42.84023,37.35556],[42.84983,37.34686],[42.87307,37.34594],[42.88647,37.33763],[42.89762,37.33553],[42.92137,37.33107],[42.96025,37.31785],[42.97369,37.31652],[42.98742,37.32413],[43.02004,37.33299],[43.02869,37.34164],[43.03466,37.35272],[43.04518,37.35612],[43.0917,37.36389],[43.10588,37.36498],[43.11111,37.366],[43.13761,37.37051],[43.14118,37.37],[43.14775,37.37099],[43.1674,37.37398],[43.17887,37.35916],[43.18804,37.35682],[43.22888,37.34469],[43.25138,37.34452],[43.26348,37.33564],[43.28235,37.32371],[43.30024,37.31429],[43.3233,37.30497],[43.32792,37.30391],[43.33199,37.3157],[43.3427,37.32412],[43.36007,37.33035],[43.37604,37.3248],[43.39381,37.30873],[43.52095,37.26084],[43.55593,37.25278],[43.58688,37.25327],[43.59253,37.24435],[43.62701,37.2364],[43.69697,37.23058],[43.7094,37.23538],[43.7203,37.23037],[43.73656,37.23407],[43.7546,37.23005],[43.80025,37.22991],[43.84644,37.2292],[43.89621,37.23456],[43.94228,37.25085],[43.95124,37.25651],[43.96833,37.27943],[43.97857,37.29239],[43.999,37.29812],[44.00444,37.29964],[44.01245,37.30657],[44.02896,37.311],[44.03867,37.28686],[44.04771,37.22478],[44.0476,37.18239],[44.03741,37.15121],[44.01642,37.11954],[43.97246,37.08079],[43.89535,37.02942],[43.81825,36.99002],[43.79853,36.98145],[43.75351,36.97833],[43.69025,36.97897],[43.6697,36.97232],[43.65419,36.95969],[43.64495,36.94083],[43.65184,36.91976],[43.67665,36.88557],[43.68121,36.85644],[43.67329,36.82802],[43.65233,36.80167],[43.63397,36.79179],[43.60822,36.78886],[43.58018,36.80269],[43.55305,36.80972],[43.46108,36.81423],[43.40851,36.82553],[43.38766,36.83978],[43.36786,36.87117],[43.34538,36.8947],[43.3278,36.9029],[43.31188,36.90369],[43.28884,36.89801],[43.26573,36.87971],[43.2628,36.87334],[43.26021,36.86978],[43.2551,36.86586],[43.25248,36.8628],[43.24918,36.8553],[43.24689,36.85163],[43.20395,36.80864],[43.1947,36.80194],[43.19137,36.799],[43.18467,36.78939],[43.15216,36.77066],[43.13107,36.75856],[43.11379,36.75098],[43.10146,36.74323]]]]}},{"type":"Feature","properties":{"name":"Diyala","iso":"IRQ"},"geometry":{"type":"MultiPolygon","coordinates":[[[[44.52978,33.30723],[44.55693,33.38561],[44.55268,33.43884],[44.51858,33.44967],[44.44094,33.43593],[44.39496,33.45791],[44.31598,33.51235],[44.33769,33.57687],[44.38401,33.61141],[44.39487,33.70806],[44.37691,33.76144],[44.40566,33.83858],[44.4144,33.89434],[44.39059,33.94404],[44.30672,33.98649],[44.28163,34.02463],[44.3018,34.06625],[44.36869,34.16628],[44.43543,34.2322],[44.45012,34.275],[44.45784,34.46018],[44.46975,34.53341],[44.50508,34.56108],[44.57864,34.54625],[44.64741,34.56724],[44.68084,34.60222],[44.68381,34.66681],[44.71116,34.69807],[44.78567,34.73568],[44.81573,34.80059],[44.91839,34.85217],[44.9665,34.82588],[45.03681,34.8275],[45.07644,34.79045],[45.1251,34.76484],[45.17062,34.73052],[45.18037,34.68151],[45.18332,34.5858],[45.20557,34.55308],[45.2647,34.59176],[45.36481,34.65347],[45.41148,34.7125],[45.51175,34.88192],[45.56194,34.92738],[45.60055,35.04385],[45.65286,35.08672],[45.69082,35.07285],[45.71403,34.92583],[45.73596,34.82977],[45.70033,34.79431],[45.68814,34.75361],[45.67433,34.71691],[45.71035,34.68702],[45.72747,34.65609],[45.73475,34.6122],[45.74762,34.5533],[45.72192,34.54465],[45.65228,34.5549],[45.6168,34.5521],[45.55199,34.59262],[45.52413,34.56246],[45.5315,34.49153],[45.51167,34.46502],[45.47024,34.46952],[45.46354,34.42416],[45.4916,34.34778],[45.5197,34.34652],[45.57509,34.32745],[45.5911,34.24819],[45.56571,34.17966],[45.5724,34.13438],[45.53795,34.1144],[45.50065,34.08672],[45.47739,34.05828],[45.47741,34.03115],[45.45491,34.00161],[45.41798,33.97484],[45.44465,33.94127],[45.49545,33.93732],[45.52472,33.93182],[45.58717,33.8438],[45.61684,33.79727],[45.65898,33.75395],[45.71015,33.6744],[45.75561,33.64321],[45.77722,33.61621],[45.7552,33.59347],[45.81685,33.61708],[45.8896,33.62571],[45.90596,33.60318],[45.95005,33.56479],[45.93786,33.53184],[45.87404,33.48795],[45.94189,33.48417],[45.95027,33.45166],[45.9212,33.40083],[45.82646,33.34193],[45.66552,33.2077],[45.58776,33.09772],[45.5006,33.02896],[45.3299,33.04179],[44.94325,33.12309],[44.83846,33.14397],[44.78044,33.10423],[44.69906,33.03423],[44.66216,33.01572],[44.58187,33.05293],[44.54983,33.09589],[44.50196,33.1554],[44.50658,33.18832],[44.53126,33.29663],[44.52978,33.30723]]]]}},{"type":"Feature","properties":{"name":"Karbala'","iso":"IRQ"},"geometry":{"type":"MultiPolygon","coordinates":[[[[43.76277,32.70898],[43.81641,32.72421],[43.92245,32.73249],[43.93514,32.7312],[43.99548,32.71823],[44.06627,32.69791],[44.09435,32.69472],[44.1063,32.69095],[44.1303,32.69069],[44.15021,32.69456],[44.1734,32.69295],[44.19062,32.6831],[44.19934,32.67402],[44.20248,32.65872],[44.19891,32.64123],[44.19178,32.63113],[44.17195,32.61892],[44.16508,32.60549],[44.1636,32.56527],[44.22589,32.49122],[44.24741,32.46944],[44.26353,32.44721],[44.27632,32.41078],[44.28492,32.34547],[44.28924,32.29949],[44.26131,32.28971],[44.22466,32.28102],[44.16531,32.27171],[44.14529,32.26211],[43.71854,32.11773],[43.66667,32.09501],[43.66143,32.08881],[43.64574,32.09702],[43.63981,32.10242],[43.60632,32.13191],[43.50171,32.21924],[43.34608,32.34793],[43.19037,32.47453],[43.16299,32.50497],[43.1622,32.51791],[43.1712,32.5273],[43.20059,32.53772],[43.29178,32.55782],[43.42485,32.57242],[43.45248,32.58043],[43.47118,32.58577],[43.51917,32.60126],[43.6521,32.67423],[43.69867,32.69224],[43.75074,32.70313],[43.76277,32.70898]]]]}},{"type":"Feature","properties":{"name":"Maysan","iso":"IRQ"},"geometry":{"type":"MultiPolygon","coordinates":[[[[47.69918,31.40004],[47.69526,31.27783],[47.43457,31.29663],[47.38527,31.28867],[47.34687,31.26816],[47.25,31.23117],[47.19973,31.19246],[47.16728,31.14567],[47.15662,31.14356],[47.13368,31.14049],[46.94493,31.13712],[46.84094,31.13777],[46.78049,31.16394],[46.74997,31.20756],[46.73644,31.30179],[46.67039,31.3657],[46.5652,31.46089],[46.44712,31.6394],[46.40949,31.71896],[46.33041,31.84685],[46.29779,31.8922],[46.30188,31.92861],[46.33031,31.97376],[46.4057,31.98887],[46.47999,31.97522],[46.54478,32.07262],[46.53136,32.13425],[46.45474,32.18258],[46.42219,32.23309],[46.42451,32.30748],[46.39344,32.35597],[46.39126,32.40659],[46.4157,32.5281],[46.45242,32.65559],[46.49613,32.77939],[46.55419,32.84674],[46.58605,32.84874],[46.61707,32.83487],[46.64675,32.82069],[46.65946,32.80418],[46.68571,32.79186],[46.70608,32.77462],[46.73042,32.76563],[46.75312,32.74966],[46.77739,32.72735],[46.78751,32.71574],[46.80398,32.70998],[46.82769,32.69818],[46.85121,32.67812],[46.87667,32.65723],[46.88688,32.64424],[46.90806,32.62954],[46.93588,32.61312],[46.952,32.597],[46.96848,32.58686],[46.98916,32.57488],[47.01304,32.55618],[47.03315,32.54071],[47.05585,32.52309],[47.07366,32.50544],[47.08844,32.49221],[47.10831,32.47581],[47.12582,32.4696],[47.148,32.45859],[47.17344,32.45118],[47.18142,32.46076],[47.20571,32.45621],[47.22141,32.45797],[47.24089,32.46584],[47.25309,32.46944],[47.27853,32.48191],[47.2908,32.49152],[47.31149,32.48613],[47.33243,32.47318],[47.34355,32.46892],[47.36014,32.4679],[47.37988,32.46819],[47.39343,32.46014],[47.41718,32.42966],[47.43648,32.41249],[47.44759,32.40226],[47.45399,32.39098],[47.45518,32.38016],[47.4507,32.36405],[47.43328,32.35639],[47.42909,32.35045],[47.4409,32.34369],[47.4436,32.3358],[47.44526,32.3235],[47.46158,32.31982],[47.47373,32.31942],[47.48502,32.31489],[47.49954,32.3039],[47.50043,32.29477],[47.4968,32.28451],[47.4972,32.27731],[47.5084,32.2667],[47.51999,32.25892],[47.52688,32.25088],[47.53426,32.24138],[47.55066,32.23437],[47.56728,32.22393],[47.56792,32.21434],[47.56408,32.20315],[47.5547,32.19009],[47.54346,32.18201],[47.53544,32.17347],[47.53437,32.15519],[47.53576,32.14242],[47.54709,32.13425],[47.56071,32.12001],[47.58926,32.11633],[47.60706,32.1126],[47.62878,32.09735],[47.64796,32.08427],[47.65185,32.07024],[47.65287,32.05526],[47.66596,32.03974],[47.68129,32.03175],[47.73324,31.95964],[47.74546,31.91966],[47.79909,31.86366],[47.81854,31.82644],[47.86495,31.77916],[47.75306,31.5236],[47.69918,31.40004]]]]}},{"type":"Feature","properties":{"name":"Ninawa","iso":"IRQ"},"geometry":{"type":"MultiPolygon","coordinates":[[[[42.26208,34.88666],[42.22137,34.89145],[42.1921,34.9109],[42.15496,34.92213],[42.01678,34.9095],[41.97337,34.91121],[41.8618,34.94389],[41.81397,34.96378],[41.73954,34.99236],[41.63353,35.01805],[41.5625,35.03417],[41.5065,35.03428],[41.46338,35.04197],[41.42336,35.05783],[41.33598,35.10408],[41.30833,35.10774],[41.26515,35.10406],[41.21811,35.13225],[41.22525,35.20424],[41.23985,35.27496],[41.24404,35.2905],[41.25618,35.32763],[41.27492,35.38492],[41.27998,35.45159],[41.32141,35.53627],[41.33307,35.55133],[41.39429,35.63027],[41.39127,35.67723],[41.38315,35.80316],[41.38108,35.83529],[41.3332,35.92077],[41.25801,36.05457],[41.27654,36.15855],[41.28969,36.24915],[41.29184,36.2654],[41.29239,36.28392],[41.32727,36.40303],[41.41264,36.51959],[41.41372,36.52047],[41.55069,36.54403],[41.70681,36.56748],[41.75665,36.57801],[41.84969,36.60818],[41.88168,36.62345],[41.93848,36.67033],[41.99076,36.72305],[42.06493,36.79034],[42.12985,36.85299],[42.14752,36.86837],[42.17694,36.89045],[42.24925,36.9577],[42.27673,36.97987],[42.37365,37.05822],[42.51727,36.92031],[42.53141,36.90727],[42.54534,36.88176],[42.56508,36.81941],[42.57979,36.80144],[42.60847,36.78532],[42.66233,36.76923],[42.71147,36.75813],[42.73688,36.7455],[42.78505,36.71306],[42.82428,36.6975],[42.86783,36.6936],[42.91675,36.69796],[42.93922,36.71766],[42.96381,36.72484],[43.0774,36.73586],[43.11379,36.75098],[43.13107,36.75856],[43.15216,36.77066],[43.18467,36.78939],[43.19137,36.799],[43.1947,36.80194],[43.20395,36.80864],[43.24689,36.85163],[43.24918,36.8553],[43.25248,36.8628],[43.2551,36.86586],[43.26021,36.86978],[43.2628,36.87334],[43.26573,36.87971],[43.28884,36.89801],[43.31188,36.90369],[43.3278,36.9029],[43.34538,36.8947],[43.36786,36.87117],[43.38766,36.83978],[43.40851,36.82553],[43.46108,36.81423],[43.55305,36.80972],[43.58018,36.80269],[43.60822,36.78886],[43.63397,36.79179],[43.65233,36.80167],[43.67329,36.82802],[43.68121,36.85644],[43.67665,36.88557],[43.65184,36.91976],[43.64495,36.94083],[43.65419,36.95969],[43.6697,36.97232],[43.69025,36.97897],[43.75351,36.97833],[43.79853,36.98145],[43.8128,36.98168],[43.82053,36.97165],[43.84881,36.95271],[43.8865,36.9361],[43.97284,36.90271],[43.99535,36.87977],[44.02979,36.83471],[44.04236,36.82505],[44.12253,36.80093],[44.18451,36.77589],[44.2272,36.74832],[44.24738,36.72422],[44.25824,36.70398],[44.24446,36.66613],[44.21949,36.63132],[44.16103,36.59248],[44.13422,36.58055],[44.09414,36.5738],[44.01057,36.57823],[43.9888,36.57559],[43.96931,36.56517],[43.9411,36.54015],[43.8465,36.45537],[43.82589,36.42947],[43.81524,36.40596],[43.81506,36.40563],[43.81083,36.40012],[43.79749,36.37232],[43.77599,36.34544],[43.76625,36.33001],[43.75402,36.31409],[43.73696,36.29792],[43.71096,36.28602],[43.70825,36.28224],[43.6678,36.25716],[43.60949,36.21056],[43.58632,36.18998],[43.5567,36.145],[43.52558,36.09435],[43.4902,36.0284],[43.46756,36.00904],[43.42847,35.9912],[43.38211,35.98306],[43.36409,35.97442],[43.35861,35.96727],[43.36776,35.95685],[43.41895,35.92591],[43.42966,35.90548],[43.42887,35.88747],[43.41032,35.85614],[43.36458,35.80877],[43.34956,35.78577],[43.3422,35.74912],[43.34364,35.68706],[43.34195,35.67205],[43.28324,35.63043],[43.23862,35.60328],[43.19298,35.58936],[43.05407,35.58862],[43.01976,35.58597],[42.99717,35.57536],[42.94963,35.52821],[42.87756,35.44817],[42.85806,35.41702],[42.84734,35.37252],[42.84726,35.33627],[42.85555,35.28957],[42.88678,35.23869],[42.94633,35.14982],[42.96767,35.12316],[42.99954,35.09105],[43.00696,35.07605],[43.00468,35.05917],[42.99197,35.04926],[42.94979,35.04194],[42.85204,35.04592],[42.53632,35.05149],[42.48999,35.04856],[42.47372,35.04157],[42.464,35.02759],[42.45942,34.9787],[42.42956,34.91519],[42.30404,34.89316],[42.26208,34.88666]]]]}},{"type":"Feature","properties":{"name":"Sala ad-Din","iso":"IRQ"},"geometry":{"type":"MultiPolygon","coordinates":[[[[44.0648,33.54343],[44.03206,33.59678],[44.01786,33.61324],[43.98755,33.63267],[43.95784,33.64347],[43.91694,33.64472],[43.81581,33.6378],[43.75099,33.64828],[43.71695,33.65673],[43.66269,33.6858],[43.60077,33.70853],[43.44756,33.71313],[43.41574,33.71915],[43.39143,33.73394],[43.30449,33.80793],[43.24308,33.86145],[43.15158,33.94414],[43.08474,34.00328],[43.03249,34.06674],[43.006,34.08615],[42.99526,34.09699],[42.98845,34.11783],[42.97573,34.19882],[42.9625,34.22881],[42.92949,34.27512],[42.92612,34.3227],[42.93153,34.41977],[42.92931,34.44978],[42.92078,34.46351],[42.90191,34.46664],[42.87701,34.45431],[42.78854,34.3959],[42.7693,34.38921],[42.7077,34.38813],[42.6728,34.41037],[42.56308,34.46987],[42.49229,34.50606],[42.47387,34.52095],[42.46408,34.53747],[42.45959,34.57839],[42.45942,34.9787],[42.464,35.02759],[42.47372,35.04157],[42.48999,35.04856],[42.53632,35.05149],[42.85204,35.04592],[42.94979,35.04194],[42.99197,35.04926],[43.00468,35.05917],[43.00696,35.07605],[42.99954,35.09105],[42.96767,35.12316],[42.94633,35.14982],[42.88678,35.23869],[42.85555,35.28957],[42.84726,35.33627],[42.84734,35.37252],[42.85806,35.41702],[42.87756,35.44817],[42.94963,35.52821],[42.99717,35.57536],[43.01976,35.58597],[43.05407,35.58862],[43.19298,35.58936],[43.23862,35.60328],[43.28324,35.63043],[43.34195,35.67205],[43.38089,35.63112],[43.39241,35.58957],[43.40114,35.57027],[43.41755,35.5438],[43.42172,35.51987],[43.41521,35.45345],[43.3862,35.43172],[43.3594,35.42538],[43.31418,35.42179],[43.28946,35.40816],[43.27913,35.39589],[43.27712,35.38465],[43.29324,35.33697],[43.33643,35.30929],[43.3693,35.267],[43.38648,35.23502],[43.39455,35.18987],[43.40276,35.16586],[43.43243,35.13253],[43.53631,35.04541],[43.59546,35.03965],[43.64692,35.02412],[43.80121,34.94883],[43.85323,34.92245],[43.95812,34.87389],[43.98885,34.86863],[43.99498,34.86502],[44.00188,34.8591],[44.00743,34.856],[44.03133,34.8453],[44.08998,34.81158],[44.1566,34.75988],[44.22633,34.70029],[44.25004,34.69501],[44.26905,34.70327],[44.29605,34.74136],[44.32888,34.81606],[44.39399,34.92349],[44.44282,34.97875],[44.45598,35.00624],[44.46141,35.07369],[44.47394,35.09953],[44.49327,35.11077],[44.50743,35.11202],[44.52187,35.09236],[44.57351,35.04721],[44.5963,35.03452],[44.62267,35.02953],[44.73023,35.02616],[44.84823,35.01036],[44.8732,35.00254],[44.89379,34.98441],[44.90734,34.9568],[44.91117,34.92224],[44.91042,34.8817],[44.91115,34.87428],[44.91839,34.85217],[44.83181,34.8097],[44.81573,34.80059],[44.80569,34.78628],[44.78567,34.73568],[44.7712,34.72142],[44.71116,34.69807],[44.69423,34.68526],[44.68381,34.66681],[44.68037,34.64017],[44.68084,34.60222],[44.66825,34.58215],[44.64741,34.56724],[44.60978,34.55115],[44.57864,34.54625],[44.53008,34.55762],[44.50508,34.56108],[44.48611,34.55318],[44.46975,34.53341],[44.45404,34.47771],[44.45784,34.46018],[44.45449,34.37826],[44.45012,34.275],[44.44508,34.24839],[44.43543,34.2322],[44.39059,34.19354],[44.36869,34.16628],[44.3535,34.14011],[44.3018,34.06625],[44.28123,34.04304],[44.28163,34.02463],[44.29103,34.00451],[44.30672,33.98649],[44.36865,33.95804],[44.39059,33.94404],[44.40453,33.92296],[44.4144,33.89434],[44.41535,33.86938],[44.40566,33.83858],[44.38198,33.78996],[44.37691,33.76144],[44.38441,33.7317],[44.39487,33.70806],[44.39252,33.64816],[44.38401,33.61141],[44.37413,33.59951],[44.33769,33.57687],[44.32069,33.55275],[44.31598,33.51235],[44.30445,33.50035],[44.29683,33.48653],[44.29415,33.48285],[44.26892,33.45763],[44.26419,33.45234],[44.2608,33.44658],[44.25497,33.43391],[44.22191,33.41925],[44.19268,33.41136],[44.14657,33.4401],[44.10224,33.47886],[44.0648,33.54343]]]]}},{"type":"Feature","properties":{"name":"Wasit","iso":"IRQ"},"geometry":{"type":"MultiPolygon","coordinates":[[[[45.68956,31.94342],[45.5554,32.13741],[45.41682,32.25143],[45.30703,32.34579],[45.27076,32.35017],[45.26253,32.35327],[45.2545,32.36364],[45.22424,32.39379],[45.2104,32.40093],[45.19578,32.40306],[45.18482,32.41405],[45.16232,32.44314],[45.04821,32.49603],[44.92341,32.63217],[44.83978,32.69344],[44.76873,32.72876],[44.69009,32.76657],[44.58773,32.77799],[44.56055,32.80337],[44.53567,32.88322],[44.48397,32.92483],[44.49838,32.96869],[44.54917,32.9985],[44.5694,33.05824],[44.64632,33.01896],[44.69054,33.02478],[44.75858,33.08881],[44.82689,33.14051],[44.88198,33.14051],[45.22692,33.06256],[45.43764,33.01222],[45.5528,33.06335],[45.65211,33.18666],[45.73047,33.26937],[45.90467,33.38658],[45.94451,33.43442],[45.94767,33.48496],[45.99018,33.50239],[46.00507,33.48225],[46.02857,33.47136],[46.03786,33.45262],[46.03909,33.41618],[46.04417,33.38593],[46.05637,33.36829],[46.07964,33.35569],[46.1003,33.33511],[46.11686,33.31749],[46.12886,33.3019],[46.1388,33.28803],[46.1498,33.27766],[46.18105,33.26413],[46.19572,33.25558],[46.19623,33.23977],[46.18845,33.21841],[46.18533,33.20353],[46.18581,33.19139],[46.20094,33.19022],[46.2048,33.18011],[46.19364,33.1698],[46.17812,33.15625],[46.16104,33.13848],[46.14523,33.12192],[46.12951,33.11088],[46.10941,33.10968],[46.08435,33.11529],[46.06119,33.12423],[46.0492,33.11432],[46.04906,33.09364],[46.08213,33.08369],[46.10369,33.08063],[46.12732,33.06919],[46.1619,33.06367],[46.16474,33.05259],[46.14429,33.02979],[46.12844,33.01736],[46.10719,33.01379],[46.0985,32.99421],[46.0962,32.97639],[46.11293,32.96546],[46.14033,32.95745],[46.15865,32.9535],[46.17515,32.95494],[46.21421,32.9506],[46.24354,32.94866],[46.26839,32.95127],[46.28817,32.95266],[46.31817,32.95234],[46.33725,32.9523],[46.36326,32.95083],[46.39658,32.94655],[46.41225,32.94149],[46.44028,32.9284],[46.46564,32.91447],[46.48708,32.90536],[46.50855,32.89901],[46.52624,32.8821],[46.54135,32.8701],[46.55901,32.86375],[46.54341,32.83216],[46.4884,32.76491],[46.4315,32.59609],[46.40918,32.46182],[46.38907,32.39785],[46.39704,32.35007],[46.42532,32.29644],[46.42452,32.22102],[46.5073,32.15402],[46.53928,32.11982],[46.53012,31.98149],[46.46174,31.9796],[46.38991,31.9889],[46.32234,31.98175],[46.11704,31.98135],[45.96632,31.95105],[45.80973,31.91026],[45.68956,31.94342]]]]}}]}