{"type":"FeatureCollection","features":[{"type":"Feature","properties":{"name":"Golan","iso":"ISR"},"geometry":{"type":"MultiPolygon","coordinates":[[[[35.64913,32.69056],[35.64905,32.69149],[35.64886,32.69358],[35.64604,32.69625],[35.62687,32.70355],[35.62296,32.7059],[35.61963,32.70791],[35.61968,32.70826],[35.61971,32.70845],[35.61994,32.70986],[35.62012,32.71002],[35.62222,32.71182],[35.6389,32.72616],[35.64288,32.7332],[35.6439,32.73501],[35.65011,32.74599],[35.65137,32.75324],[35.65155,32.7543],[35.65315,32.76351],[35.65401,32.78077],[35.65496,32.7999],[35.66199,32.82246],[35.66392,32.83754],[35.66119,32.8535],[35.66023,32.85558],[35.65901,32.85826],[35.65684,32.86299],[35.64961,32.8749],[35.64737,32.8786],[35.6438,32.88448],[35.63776,32.88997],[35.63598,32.89158],[35.63503,32.89246],[35.63082,32.89851],[35.62333,32.89576],[35.62313,32.89585],[35.62249,32.89615],[35.61874,32.89791],[35.61844,32.89853],[35.61818,32.89906],[35.61665,32.90219],[35.61697,32.90736],[35.62275,32.91821],[35.62333,32.92062],[35.62366,32.92198],[35.62482,32.92675],[35.62753,32.95823],[35.62787,32.96213],[35.62864,32.97103],[35.62924,32.97801],[35.62881,32.9838],[35.62867,32.98577],[35.62754,33.00111],[35.61598,33.01944],[35.61598,33.01951],[35.61593,33.02017],[35.61564,33.02412],[35.63205,33.03793],[35.64236,33.05453],[35.64706,33.05915],[35.65783,33.06189],[35.6586,33.06113],[35.65898,33.06076],[35.66073,33.05904],[35.66099,33.08013],[35.66105,33.08503],[35.66146,33.08831],[35.66172,33.0904],[35.66378,33.1069],[35.67868,33.14037],[35.67959,33.14336],[35.6804,33.14603],[35.68238,33.15252],[35.68243,33.1555],[35.68247,33.15758],[35.68249,33.15929],[35.68223,33.16024],[35.67765,33.17668],[35.6773,33.17928],[35.67584,33.19004],[35.67622,33.20187],[35.67652,33.21145],[35.67653,33.21184],[35.68091,33.22575],[35.68139,33.22728],[35.68145,33.22747],[35.68233,33.22918],[35.68549,33.23534],[35.69001,33.24413],[35.68908,33.24673],[35.68897,33.24678],[35.68845,33.24704],[35.68336,33.24954],[35.67767,33.25019],[35.67374,33.25064],[35.67143,33.25091],[35.6714,33.25091],[35.6753,33.25295],[35.67561,33.25309],[35.67921,33.25475],[35.68318,33.25724],[35.68343,33.25744],[35.68453,33.25829],[35.68705,33.26022],[35.69026,33.26298],[35.69074,33.2634],[35.69078,33.26343],[35.69191,33.26452],[35.69415,33.26668],[35.69696,33.26926],[35.69703,33.26935],[35.69867,33.27128],[35.69937,33.2721],[35.70206,33.27527],[35.70446,33.27809],[35.70449,33.27816],[35.70639,33.28127],[35.70879,33.284],[35.71231,33.28747],[35.7154,33.29025],[35.7172,33.29187],[35.71938,33.29383],[35.71941,33.29386],[35.72152,33.29699],[35.72162,33.29713],[35.72415,33.30013],[35.7243,33.30031],[35.72638,33.30362],[35.72757,33.30478],[35.72877,33.30596],[35.73134,33.30893],[35.73192,33.30943],[35.73546,33.3125],[35.73547,33.31251],[35.7395,33.31335],[35.7427,33.31401],[35.74609,33.31484],[35.74719,33.31511],[35.74826,33.3155],[35.75111,33.31653],[35.75376,33.31736],[35.75579,33.31799],[35.7575,33.3207],[35.75772,33.32104],[35.75979,33.32483],[35.76,33.32508],[35.76055,33.32576],[35.76057,33.32578],[35.76172,33.32719],[35.76287,33.32861],[35.76678,33.33217],[35.76707,33.33244],[35.76709,33.33245],[35.7692,33.33273],[35.76922,33.33274],[35.76925,33.33274],[35.76945,33.33279],[35.77142,33.33322],[35.77156,33.33325],[35.77414,33.33389],[35.77448,33.33398],[35.77554,33.33427],[35.77708,33.3347],[35.77851,33.33529],[35.77854,33.33531],[35.77858,33.33532],[35.77863,33.33535],[35.77871,33.3354],[35.77901,33.33558],[35.78016,33.33624],[35.78063,33.33655],[35.78196,33.33742],[35.78332,33.33834],[35.78384,33.33869],[35.7857,33.33986],[35.78615,33.34009],[35.78739,33.34072],[35.78947,33.34185],[35.79173,33.34329],[35.79345,33.34439],[35.79449,33.3452],[35.79468,33.34538],[35.79482,33.34551],[35.79559,33.34635],[35.79679,33.34797],[35.79833,33.34945],[35.79918,33.34996],[35.80005,33.35049],[35.80026,33.35064],[35.80212,33.35194],[35.8024,33.35214],[35.80379,33.35311],[35.80438,33.35344],[35.80521,33.35391],[35.80698,33.35444],[35.80831,33.35469],[35.80924,33.35486],[35.80997,33.35498],[35.81087,33.35512],[35.81238,33.35543],[35.81251,33.3555],[35.81358,33.35616],[35.81411,33.35663],[35.81453,33.35701],[35.81455,33.35703],[35.81551,33.358],[35.81616,33.35887],[35.81636,33.35936],[35.8165,33.35969],[35.81677,33.36063],[35.8169,33.36105],[35.817,33.36134],[35.81705,33.36145],[35.81718,33.36177],[35.81724,33.36277],[35.81725,33.36304],[35.81725,33.36326],[35.81722,33.36403],[35.82375,33.36153],[35.82379,33.36152],[35.8222,33.35747],[35.82098,33.35434],[35.81824,33.35121],[35.81511,33.34763],[35.81422,33.34704],[35.81366,33.34667],[35.81341,33.34651],[35.81304,33.34626],[35.84235,33.32844],[35.84767,33.32521],[35.85106,33.32315],[35.85092,33.32299],[35.83388,33.30406],[35.81749,33.28584],[35.8197,33.28097],[35.8198,33.28075],[35.82215,33.27559],[35.83614,33.26533],[35.84112,33.26101],[35.843,33.25938],[35.85013,33.2532],[35.84751,33.21388],[35.84733,33.21123],[35.84945,33.20936],[35.85349,33.2058],[35.86319,33.19724],[35.86432,33.19225],[35.86785,33.17672],[35.86782,33.17655],[35.86599,33.16465],[35.86598,33.1646],[35.85106,33.14502],[35.8493,33.14119],[35.84547,33.13289],[35.8436,33.12776],[35.84174,33.12263],[35.84587,33.11945],[35.85386,33.1133],[35.85838,33.11095],[35.86179,33.10917],[35.87515,33.1022],[35.87531,33.10211],[35.87438,33.08396],[35.87344,33.06574],[35.87345,33.0657],[35.8779,33.01945],[35.87811,33.01724],[35.88246,32.98864],[35.88464,32.97434],[35.89771,32.96387],[35.90094,32.93873],[35.9001,32.93771],[35.89927,32.93668],[35.89456,32.93088],[35.88744,32.92212],[35.87904,32.91279],[35.87019,32.90227],[35.86902,32.90089],[35.86831,32.90004],[35.86665,32.89808],[35.86412,32.89507],[35.85666,32.87082],[35.85675,32.87032],[35.8575,32.86631],[35.85946,32.8559],[35.85293,32.84004],[35.85279,32.83985],[35.84773,32.83277],[35.8436,32.82698],[35.83976,32.82218],[35.82495,32.80367],[35.81608,32.79451],[35.81211,32.79041],[35.79697,32.77476],[35.78546,32.75967],[35.77957,32.75195],[35.77367,32.75135],[35.7692,32.75089],[35.76664,32.74906],[35.76605,32.74865],[35.76419,32.74732],[35.76222,32.74348],[35.76135,32.74178],[35.76035,32.73983],[35.75945,32.73685],[35.75777,32.73124],[35.75626,32.72624],[35.7562,32.72623],[35.74414,32.72485],[35.73348,32.72363],[35.72402,32.71554],[35.7191,32.71133],[35.71908,32.71132],[35.71327,32.70783],[35.70321,32.70179],[35.69325,32.69922],[35.69315,32.69917],[35.68987,32.69736],[35.68618,32.69533],[35.68613,32.6953],[35.67413,32.69458],[35.66138,32.69382],[35.65727,32.69158],[35.64941,32.6873],[35.64913,32.69056]]],[[[35.65629,33.24652],[35.65163,33.24443],[35.6442,33.24283],[35.63755,33.24416],[35.63676,33.24432],[35.63606,33.24487],[35.63564,33.2452],[35.63712,33.24554],[35.64099,33.24652],[35.64423,33.24725],[35.64528,33.24749],[35.65008,33.24818],[35.65316,33.24828],[35.65404,33.24831],[35.65889,33.24823],[35.65903,33.24822],[35.65992,33.24816],[35.65629,33.24652]]]]}},{"type":"Feature","properties":{"name":"HaDarom","iso":"ISR"},"geometry":{"type":"MultiPolygon","coordinates":[[[[34.91069,29.49708],[34.87656,29.64934],[34.75475,29.99789],[34.54696,30.40008],[34.43755,30.78955],[34.36583,31.35877],[34.54613,31.54261],[34.48986,31.59569],[34.49125,31.59764],[34.49264,31.59958],[34.49403,31.60153],[34.49542,31.60347],[34.49681,31.60542],[34.4982,31.60736],[34.49958,31.60931],[34.50097,31.61125],[34.50236,31.6132],[34.50375,31.61514],[34.50514,31.61708],[34.50653,31.61903],[34.50792,31.62097],[34.5093,31.62292],[34.51069,31.62486],[34.51208,31.62653],[34.51347,31.62847],[34.51569,31.62986],[34.51792,31.63153],[34.51931,31.63319],[34.51708,31.63653],[34.51792,31.63847],[34.51931,31.64042],[34.51986,31.6393],[34.5182,31.63764],[34.52042,31.63625],[34.52236,31.63708],[34.52375,31.6393],[34.52514,31.64125],[34.52653,31.64319],[34.52792,31.64514],[34.5293,31.64708],[34.53069,31.64903],[34.53208,31.65097],[34.53347,31.65291],[34.53486,31.65486],[34.53625,31.65708],[34.53764,31.65931],[34.53903,31.66347],[34.54097,31.66486],[34.54292,31.66625],[34.54458,31.66792],[34.54597,31.66958],[34.54736,31.67125],[34.54875,31.67292],[34.55014,31.67569],[34.55097,31.67819],[34.55236,31.67986],[34.55375,31.68181],[34.55514,31.68431],[34.55792,31.68431],[34.55931,31.68625],[34.5607,31.68819],[34.56208,31.69014],[34.56347,31.69236],[34.56486,31.69431],[34.56625,31.69653],[34.56764,31.69847],[34.56903,31.7007],[34.57042,31.70292],[34.5718,31.70486],[34.57319,31.70708],[34.57458,31.70903],[34.57597,31.71097],[34.57736,31.71292],[34.57875,31.71514],[34.58014,31.71736],[34.58153,31.71958],[34.58292,31.72181],[34.5843,31.72431],[34.58569,31.72653],[34.58708,31.7282],[34.58847,31.72958],[34.58986,31.73125],[34.59125,31.73431],[34.59264,31.73708],[34.59403,31.73931],[34.59542,31.74153],[34.59681,31.74347],[34.59819,31.74569],[34.59958,31.74764],[34.60097,31.74986],[34.60236,31.75208],[34.60375,31.7543],[34.60514,31.75681],[34.60653,31.7593],[34.60792,31.76153],[34.60931,31.76403],[34.61069,31.76653],[34.61208,31.76903],[34.61347,31.77153],[34.61486,31.77375],[34.61625,31.7757],[34.61764,31.77792],[34.61903,31.78042],[34.62042,31.78319],[34.62181,31.78597],[34.6232,31.78847],[34.62458,31.7907],[34.62569,31.79264],[34.62708,31.79514],[34.62847,31.79764],[34.62986,31.80097],[34.63125,31.80375],[34.63264,31.80597],[34.63403,31.80847],[34.63542,31.81097],[34.63681,31.81375],[34.6382,31.81653],[34.63764,31.81875],[34.63625,31.82042],[34.63486,31.82403],[34.63514,31.83014],[34.63653,31.83292],[34.63792,31.83375],[34.63681,31.83125],[34.63542,31.82764],[34.63625,31.82264],[34.63764,31.82069],[34.63903,31.81903],[34.64042,31.82125],[34.63958,31.82319],[34.64069,31.82709],[34.64014,31.83042],[34.64347,31.83042],[34.65125,31.83208],[34.65264,31.83375],[34.65181,31.83542],[34.65181,31.84403],[34.65458,31.84431],[34.65625,31.84597],[34.65764,31.84875],[34.65903,31.8518],[34.66042,31.85459],[34.6618,31.85736],[34.66319,31.86014],[34.66459,31.86292],[34.66597,31.86542],[34.66736,31.86791],[34.66875,31.8707],[34.67014,31.87319],[34.69221,31.8725],[34.70499,31.83278],[34.68639,31.81416],[34.67777,31.78389],[34.72666,31.78722],[34.73416,31.80944],[34.795,31.76611],[34.84277,31.77194],[34.87055,31.73333],[34.87277,31.65916],[34.96469,31.59631],[34.91394,31.34979],[35.19999,31.36329],[35.47559,31.48824],[35.38981,31.24446],[35.44684,31.07641],[35.39472,30.93345],[35.33807,30.8284],[35.2759,30.69667],[35.20679,30.58303],[35.16338,30.40074],[35.17581,30.11914],[35.04971,29.78719],[34.9757,29.571],[34.95986,29.54736],[34.95847,29.54875],[34.95458,29.54903],[34.95319,29.54597],[34.95153,29.54236],[34.94847,29.54042],[34.94625,29.53903],[34.94458,29.53698],[34.9432,29.53264],[34.94181,29.5307],[34.93875,29.52819],[34.93736,29.52681],[34.93597,29.52542],[34.93403,29.52403],[34.9318,29.52208],[34.93042,29.51986],[34.92903,29.51847],[34.92765,29.51708],[34.92625,29.51264],[34.92458,29.51097],[34.92319,29.50931],[34.92181,29.50792],[34.92014,29.50625],[34.9193,29.5032],[34.91764,29.50153],[34.91597,29.50014],[34.91431,29.49847],[34.91125,29.49736],[34.91069,29.49708]]]]}},{"type":"Feature","properties":{"name":"Haifa","iso":"ISR"},"geometry":{"type":"MultiPolygon","coordinates":[[[[34.86597,32.40984],[34.86625,32.41236],[34.86847,32.41459],[34.86653,32.41653],[34.86792,32.41847],[34.86875,32.4207],[34.87042,32.42264],[34.87208,32.42514],[34.87347,32.43069],[34.87486,32.43625],[34.87625,32.44625],[34.87764,32.45181],[34.87903,32.45542],[34.88042,32.45986],[34.88125,32.46569],[34.87986,32.46903],[34.87542,32.46986],[34.87236,32.47125],[34.87931,32.47403],[34.88403,32.47153],[34.88153,32.47375],[34.88292,32.47653],[34.88319,32.47792],[34.88569,32.47903],[34.88597,32.48292],[34.88736,32.48569],[34.8882,32.48792],[34.88653,32.48903],[34.88708,32.4943],[34.88792,32.49681],[34.88903,32.49847],[34.88875,32.5018],[34.88986,32.5057],[34.89097,32.50819],[34.89236,32.51153],[34.89403,32.51347],[34.89125,32.51514],[34.89375,32.51764],[34.89514,32.52125],[34.89653,32.52653],[34.89791,32.53153],[34.89931,32.53625],[34.8968,32.53847],[34.89764,32.5443],[34.89903,32.54597],[34.90208,32.54681],[34.90347,32.5493],[34.90097,32.55264],[34.90097,32.55458],[34.90236,32.55708],[34.90319,32.55931],[34.90347,32.56264],[34.90486,32.56569],[34.90625,32.56931],[34.9082,32.57125],[34.90847,32.57431],[34.90986,32.57681],[34.90903,32.57986],[34.90792,32.58264],[34.90986,32.58625],[34.90931,32.58986],[34.91069,32.59347],[34.91208,32.59542],[34.9118,32.59792],[34.91264,32.60458],[34.91264,32.60875],[34.91403,32.61458],[34.91625,32.62125],[34.91764,32.62542],[34.91903,32.63458],[34.92042,32.63847],[34.92181,32.64069],[34.9207,32.64431],[34.92153,32.65208],[34.92319,32.65347],[34.92458,32.66542],[34.92597,32.67931],[34.92681,32.68403],[34.92597,32.68681],[34.92736,32.68986],[34.92625,32.69236],[34.92708,32.69847],[34.92847,32.70181],[34.93042,32.70403],[34.93153,32.70597],[34.93292,32.70736],[34.93764,32.70819],[34.93903,32.70986],[34.94042,32.71208],[34.94181,32.71569],[34.94209,32.7207],[34.94347,32.72236],[34.94486,32.73264],[34.94625,32.73514],[34.94764,32.74264],[34.94903,32.75653],[34.95042,32.77097],[34.95181,32.77681],[34.95264,32.78597],[34.95292,32.79153],[34.95403,32.79847],[34.95375,32.80514],[34.95403,32.8068],[34.95597,32.80736],[34.9557,32.81014],[34.9543,32.81319],[34.95403,32.82208],[34.95542,32.82375],[34.95514,32.82597],[34.95847,32.82653],[34.96041,32.82792],[34.96181,32.8293],[34.96347,32.8307],[34.96792,32.83153],[34.97264,32.83236],[34.97569,32.83375],[34.97736,32.83541],[34.97931,32.83625],[34.98347,32.83597],[34.98653,32.83486],[34.98792,32.83292],[34.99181,32.83097],[34.99569,32.82958],[35.00042,32.82764],[35.00431,32.82597],[35.01292,32.82653],[35.01542,32.82681],[35.01264,32.82625],[35.0093,32.82486],[35.00042,32.82625],[34.99653,32.82736],[34.99403,32.82875],[34.99097,32.82903],[34.99403,32.82736],[34.99625,32.82542],[34.99903,32.82403],[35.00097,32.82236],[35.00264,32.82069],[35.00486,32.81903],[35.00819,32.81986],[35.00736,32.8218],[35.0093,32.82319],[35.01069,32.8218],[35.01208,32.81764],[35.01486,32.81403],[35.02236,32.81347],[35.02236,32.81569],[35.02514,32.81486],[35.02764,32.81347],[35.02847,32.81014],[35.02958,32.80958],[35.03458,32.81125],[35.0332,32.81236],[35.03069,32.81471],[35.02653,32.81569],[35.03097,32.81708],[35.03347,32.81847],[35.03653,32.81986],[35.03903,32.82125],[35.04208,32.82264],[35.04458,32.82458],[35.04681,32.82792],[35.04819,32.82958],[35.04958,32.83153],[35.05125,32.83319],[35.0532,32.83486],[35.05458,32.83653],[35.05597,32.8382],[35.05764,32.84042],[35.05903,32.84208],[35.06042,32.84458],[35.06181,32.84736],[35.06319,32.84986],[35.06458,32.85236],[35.06597,32.85458],[35.06736,32.85736],[35.06875,32.86042],[35.07097,32.86264],[35.07153,32.86653],[35.07292,32.87069],[35.07403,32.8732],[35.07542,32.87653],[35.07736,32.87931],[35.07792,32.88292],[35.0793,32.88764],[35.08014,32.89208],[35.08153,32.89903],[35.08181,32.91264],[35.08042,32.91542],[35.08627,32.9183],[35.10333,32.86555],[35.14861,32.79333],[35.14278,32.72833],[35.11388,32.70667],[35.1125,32.67361],[35.04888,32.64444],[35.04972,32.60944],[35.03305,32.59027],[35.05305,32.5525],[35.1011,32.53249],[35.16138,32.56194],[35.19832,32.53046],[35.07673,32.44521],[34.99972,32.3975],[34.89944,32.40472],[34.86597,32.40984]]]]}},{"type":"Feature","properties":{"name":"HaMerkaz","iso":"ISR"},"geometry":{"type":"MultiPolygon","coordinates":[[[[34.8251,31.79277],[34.795,31.76611],[34.76555,31.80277],[34.72694,31.80694],[34.72888,31.79194],[34.71555,31.78139],[34.67777,31.78389],[34.6861,31.80111],[34.67361,31.82389],[34.69694,31.83056],[34.70583,31.86],[34.69221,31.8725],[34.6707,31.87486],[34.67153,31.87681],[34.67236,31.87847],[34.67319,31.88042],[34.67403,31.88236],[34.67486,31.88431],[34.67569,31.88597],[34.67625,31.88711],[34.67665,31.88792],[34.67708,31.88878],[34.67792,31.89046],[34.67875,31.89214],[34.67957,31.89382],[34.68014,31.89597],[34.68097,31.89847],[34.6818,31.90014],[34.68264,31.90181],[34.68347,31.90347],[34.68431,31.90542],[34.68514,31.90736],[34.68597,31.90986],[34.68681,31.91264],[34.68764,31.91458],[34.68847,31.91847],[34.68986,31.91986],[34.69097,31.92236],[34.69264,31.92486],[34.69347,31.92597],[34.69431,31.92708],[34.69542,31.92792],[34.69653,31.92986],[34.69736,31.93069],[34.69819,31.9318],[34.69903,31.93292],[34.69986,31.93403],[34.7007,31.93514],[34.70153,31.93625],[34.70236,31.93736],[34.70319,31.93847],[34.70403,31.93986],[34.70486,31.94097],[34.7057,31.94264],[34.70653,31.94431],[34.70736,31.94597],[34.70819,31.94764],[34.70903,31.94958],[34.70986,31.95125],[34.71069,31.95319],[34.71153,31.95486],[34.71236,31.95681],[34.7132,31.95847],[34.71403,31.96042],[34.71486,31.96236],[34.71569,31.96403],[34.71653,31.96597],[34.71736,31.96792],[34.71819,31.96986],[34.71903,31.97181],[34.71986,31.9743],[34.7207,31.97681],[34.72153,31.97931],[34.72236,31.98181],[34.72319,31.98431],[34.72403,31.9868],[34.72486,31.9893],[34.72569,31.99181],[34.72653,31.9943],[34.72736,31.99653],[34.7282,31.99819],[34.72903,31.99986],[34.72931,32.00236],[34.73014,32.00458],[34.73097,32.00681],[34.75083,32.00166],[34.81499,32.00527],[34.85444,32.01194],[34.88444,32.02111],[34.86138,32.06721],[34.84583,32.09305],[34.8661,32.14361],[34.85249,32.18027],[34.8032,32.19298],[34.80403,32.19431],[34.80486,32.1968],[34.80403,32.19903],[34.80486,32.20097],[34.80569,32.20292],[34.80653,32.2043],[34.80736,32.20597],[34.80819,32.20708],[34.80847,32.20875],[34.80931,32.21097],[34.81042,32.21264],[34.81125,32.21542],[34.81208,32.21764],[34.81292,32.21875],[34.81375,32.21986],[34.81458,32.22208],[34.81514,32.22569],[34.81597,32.22764],[34.81569,32.23042],[34.81681,32.23125],[34.81764,32.23236],[34.81847,32.23875],[34.81931,32.24181],[34.82014,32.24458],[34.82097,32.24597],[34.8218,32.24736],[34.82264,32.24903],[34.82347,32.25097],[34.82431,32.25486],[34.82458,32.25708],[34.82542,32.25903],[34.82625,32.26125],[34.82653,32.26264],[34.82736,32.26431],[34.82819,32.2668],[34.82903,32.26903],[34.82875,32.27403],[34.82958,32.27542],[34.83042,32.27681],[34.83125,32.2832],[34.83208,32.28486],[34.83292,32.28653],[34.83375,32.28764],[34.83458,32.28986],[34.83541,32.29208],[34.83625,32.29403],[34.83708,32.2957],[34.83764,32.29875],[34.83903,32.29986],[34.83875,32.30486],[34.83958,32.30847],[34.84069,32.30958],[34.84097,32.31347],[34.8418,32.31681],[34.84264,32.32014],[34.84347,32.32375],[34.84431,32.32708],[34.84375,32.32875],[34.84292,32.33042],[34.84431,32.33125],[34.84597,32.33208],[34.84708,32.33403],[34.84792,32.33764],[34.84875,32.34125],[34.84958,32.34403],[34.84986,32.34681],[34.85014,32.34875],[34.85069,32.3493],[34.85097,32.35042],[34.85153,32.35097],[34.85209,32.35375],[34.85292,32.3568],[34.85375,32.36014],[34.85458,32.36347],[34.85542,32.36708],[34.85625,32.37264],[34.85708,32.37708],[34.85597,32.37931],[34.8568,32.38014],[34.85764,32.38097],[34.85875,32.38181],[34.85958,32.38347],[34.86042,32.38903],[34.86014,32.3918],[34.86097,32.39458],[34.86125,32.39653],[34.85958,32.39736],[34.86042,32.39875],[34.86125,32.40014],[34.86236,32.40153],[34.86319,32.40319],[34.86403,32.40486],[34.86514,32.40653],[34.86597,32.40984],[34.90388,32.40388],[34.98722,32.40527],[35.01722,32.38027],[35.05581,32.37093],[35.01258,32.27846],[34.98707,32.249],[34.98676,32.16398],[34.98367,32.09507],[35.00816,32.05634],[35.0,32.00079],[34.992,31.94251],[35.0,31.866],[34.91777,31.85804],[34.84993,31.81963],[34.8251,31.79277]]]]}},{"type":"Feature","properties":{"name":"HaZafon","iso":"ISR"},"geometry":{"type":"MultiPolygon","coordinates":[[[[35.63564,33.2452],[35.65629,33.24652],[35.67374,33.25064],[35.69001,33.24413],[35.67653,33.21184],[35.68223,33.16024],[35.67959,33.14336],[35.66099,33.08013],[35.64236,33.05453],[35.62754,33.00111],[35.62753,32.95823],[35.61665,32.90219],[35.62333,32.89576],[35.64737,32.8786],[35.66392,32.83754],[35.65137,32.75324],[35.62012,32.71002],[35.62687,32.70355],[35.62122,32.67692],[35.59446,32.64217],[35.58263,32.60005],[35.58659,32.57164],[35.57367,32.54556],[35.56129,32.51807],[35.58702,32.49248],[35.58569,32.45726],[35.56856,32.41065],[35.55973,32.39043],[35.44426,32.40982],[35.42493,32.44218],[35.36291,32.51917],[35.26334,32.52952],[35.21112,32.54272],[35.17805,32.57249],[35.14583,32.54778],[35.11749,32.52805],[35.07139,32.54361],[35.05111,32.55778],[35.04222,32.58305],[35.02722,32.60278],[35.045,32.60999],[35.03611,32.62416],[35.05389,32.64444],[35.08888,32.65916],[35.11055,32.68666],[35.11111,32.70889],[35.1325,32.70889],[35.14333,32.73027],[35.15611,32.77722],[35.145,32.82722],[35.1,32.85472],[35.09,32.88361],[35.0793,32.91744],[35.07847,32.91847],[35.07764,32.9193],[35.07653,32.92014],[35.07514,32.92097],[35.0718,32.92125],[35.07069,32.9193],[35.06958,32.91875],[35.06625,32.92097],[35.06709,32.92319],[35.06792,32.92542],[35.06875,32.92736],[35.06958,32.92903],[35.07042,32.93097],[35.07125,32.93819],[35.07208,32.94181],[35.07292,32.94458],[35.07375,32.94792],[35.07486,32.95181],[35.0757,32.9593],[35.07597,32.96153],[35.07625,32.96514],[35.07708,32.9707],[35.07736,32.97264],[35.07819,32.97486],[35.07903,32.97625],[35.07986,32.98042],[35.08153,32.98264],[35.08181,32.98903],[35.08292,32.99208],[35.08375,32.99375],[35.08458,32.99514],[35.08541,32.99653],[35.08625,32.99792],[35.08708,32.99958],[35.08708,33.00153],[35.08681,33.00403],[35.08653,33.00514],[35.08736,33.00986],[35.0882,33.01125],[35.08847,33.01486],[35.08931,33.01653],[35.08958,33.01792],[35.09097,33.01903],[35.09069,33.02069],[35.09097,33.02236],[35.0918,33.02403],[35.09264,33.02653],[35.09347,33.0293],[35.09431,33.03097],[35.09514,33.03375],[35.09542,33.03542],[35.09625,33.03653],[35.09708,33.03847],[35.09792,33.03959],[35.09708,33.04236],[35.09819,33.04319],[35.0993,33.04403],[35.09903,33.04542],[35.09986,33.04736],[35.09958,33.04875],[35.10042,33.05014],[35.10125,33.05097],[35.10153,33.05403],[35.10209,33.05708],[35.10236,33.05847],[35.1032,33.06264],[35.10347,33.06458],[35.10375,33.06847],[35.10458,33.07319],[35.10486,33.07542],[35.10569,33.07958],[35.10514,33.0843],[35.10486,33.08989],[35.10807,33.09403],[35.12476,33.09248],[35.13947,33.09192],[35.14805,33.09092],[35.15496,33.09143],[35.15665,33.08615],[35.15852,33.0873],[35.16116,33.08825],[35.16309,33.08879],[35.16588,33.09016],[35.1677,33.09086],[35.1703,33.09192],[35.17207,33.09362],[35.17546,33.09372],[35.17797,33.09351],[35.20649,33.08899],[35.20757,33.09122],[35.2062,33.09323],[35.20611,33.09455],[35.20815,33.09721],[35.21144,33.09981],[35.21382,33.09985],[35.21663,33.09958],[35.21868,33.09927],[35.22161,33.09911],[35.2259,33.09844],[35.22748,33.09637],[35.23721,33.09716],[35.26516,33.09893],[35.27428,33.10065],[35.28123,33.10158],[35.28976,33.10669],[35.29866,33.10509],[35.31273,33.10273],[35.32374,33.09573],[35.32217,33.08488],[35.33286,33.07695],[35.33456,33.07405],[35.33652,33.07239],[35.33831,33.07328],[35.33952,33.07536],[35.34135,33.077],[35.34328,33.0787],[35.34936,33.07187],[35.35725,33.06167],[35.35719,33.05977],[35.35806,33.05802],[35.35989,33.05677],[35.3738,33.05542],[35.38138,33.06146],[35.42213,33.06455],[35.44062,33.08322],[35.44491,33.09055],[35.46242,33.09308],[35.47844,33.0926],[35.48929,33.09241],[35.50238,33.10322],[35.50212,33.11038],[35.50151,33.11246],[35.50421,33.1154],[35.5243,33.12413],[35.52807,33.13607],[35.52643,33.14368],[35.52983,33.15694],[35.54139,33.19903],[35.53749,33.23321],[35.54239,33.23602],[35.5466,33.24396],[35.54906,33.25539],[35.55545,33.25945],[35.55587,33.26229],[35.55649,33.26432],[35.55929,33.26712],[35.56331,33.27351],[35.56282,33.28065],[35.56307,33.286],[35.56747,33.29082],[35.57492,33.28693],[35.58378,33.28192],[35.58463,33.27433],[35.62085,33.24898],[35.62242,33.24459],[35.63564,33.2452]]]]}},{"type":"Feature","properties":{"name":"Jerusalem","iso":"ISR"},"geometry":{"type":"MultiPolygon","coordinates":[[[[34.96923,31.60279],[34.94749,31.61722],[34.94416,31.61861],[34.9286,31.62194],[34.92305,31.62861],[34.91861,31.63194],[34.905,31.63833],[34.89055,31.64666],[34.87527,31.65416],[34.87277,31.65916],[34.87444,31.66694],[34.87444,31.67389],[34.87194,31.68083],[34.87277,31.68889],[34.87138,31.70389],[34.87222,31.70777],[34.87499,31.7125],[34.87555,31.71889],[34.87499,31.72305],[34.87055,31.73333],[34.87,31.73694],[34.87527,31.74639],[34.87527,31.75],[34.87028,31.75528],[34.86666,31.75639],[34.86166,31.75694],[34.85278,31.75528],[34.84944,31.75694],[34.84722,31.75944],[34.84277,31.77194],[34.83861,31.78],[34.83222,31.78805],[34.82666,31.79277],[34.8251,31.79277],[34.82949,31.80247],[34.83849,31.80982],[34.84993,31.81963],[34.86628,31.82453],[34.88262,31.8278],[34.89816,31.83026],[34.90878,31.83598],[34.91286,31.8466],[34.91777,31.85804],[34.92513,31.86295],[34.93412,31.86377],[34.94965,31.86213],[34.97531,31.86122],[34.96389,31.84679],[34.97224,31.82001],[34.99156,31.81294],[35.0,31.8119],[35.0192,31.80954],[35.04467,31.81735],[35.06345,31.83476],[35.07708,31.84164],[35.0825,31.84439],[35.1045,31.827],[35.12462,31.81876],[35.1678,31.80389],[35.2142,31.80411],[35.23242,31.78785],[35.22941,31.75167],[35.21897,31.73772],[35.21759,31.73588],[35.1672,31.73475],[35.12457,31.71986],[35.08136,31.6833],[35.07231,31.67565],[35.04552,31.66487],[35.02544,31.65638],[35.00883,31.64399],[35.0,31.63583],[34.97833,31.61579],[34.96923,31.60279]]]]}},{"type":"Feature","properties":{"name":"Tel Aviv","iso":"ISR"},"geometry":{"type":"MultiPolygon","coordinates":[[[[34.8032,32.19298],[34.83611,32.18944],[34.85249,32.18027],[34.86583,32.16861],[34.8661,32.14361],[34.85611,32.11833],[34.84583,32.09305],[34.84444,32.08028],[34.86138,32.06721],[34.87917,32.03249],[34.88444,32.02111],[34.86417,32.01722],[34.85444,32.01194],[34.84,32.0225],[34.81499,32.00527],[34.78416,31.99694],[34.75083,32.00166],[34.73325,32.00677],[34.73153,32.00764],[34.7318,32.00958],[34.73236,32.01042],[34.73264,32.01181],[34.7332,32.01264],[34.73347,32.01431],[34.73403,32.01486],[34.73431,32.01597],[34.73486,32.01653],[34.73514,32.01792],[34.73569,32.01875],[34.73597,32.02125],[34.73653,32.02375],[34.7368,32.02542],[34.73736,32.02597],[34.73764,32.02653],[34.73819,32.02681],[34.73847,32.02764],[34.73792,32.02792],[34.73736,32.02847],[34.73792,32.02903],[34.73819,32.03042],[34.73875,32.03125],[34.73903,32.0332],[34.73958,32.03403],[34.73986,32.03514],[34.74042,32.03542],[34.7407,32.03625],[34.74125,32.03792],[34.74153,32.03903],[34.74208,32.03959],[34.74236,32.04042],[34.74292,32.0407],[34.74319,32.04153],[34.74375,32.04403],[34.74403,32.04681],[34.74458,32.04764],[34.74486,32.04819],[34.74569,32.04847],[34.74625,32.04903],[34.74681,32.0493],[34.74736,32.04986],[34.74736,32.05236],[34.74681,32.05292],[34.74681,32.0532],[34.74708,32.05347],[34.74736,32.05403],[34.7482,32.05431],[34.74847,32.05486],[34.74931,32.05514],[34.74958,32.05569],[34.75208,32.05597],[34.75236,32.05653],[34.75347,32.0568],[34.75375,32.05736],[34.75431,32.05792],[34.75459,32.05847],[34.75514,32.05903],[34.75542,32.05958],[34.75597,32.06014],[34.75625,32.0607],[34.75681,32.06125],[34.75708,32.06208],[34.75764,32.06264],[34.75792,32.06403],[34.75847,32.06458],[34.75875,32.0657],[34.75903,32.06681],[34.75951,32.06738],[34.75986,32.06792],[34.76042,32.06847],[34.76069,32.07042],[34.76042,32.07097],[34.76014,32.07153],[34.76116,32.0718],[34.76181,32.07208],[34.76147,32.07264],[34.76097,32.07292],[34.76069,32.07375],[34.76153,32.07431],[34.76097,32.07486],[34.76153,32.0757],[34.76181,32.07708],[34.76236,32.07792],[34.76264,32.0793],[34.7632,32.07986],[34.76347,32.08097],[34.76403,32.08153],[34.76431,32.08264],[34.76486,32.08319],[34.76514,32.0843],[34.76569,32.08486],[34.76597,32.08736],[34.76653,32.08764],[34.76708,32.0882],[34.76736,32.08847],[34.76764,32.08958],[34.76792,32.09069],[34.76736,32.09125],[34.76708,32.09236],[34.76653,32.09292],[34.76708,32.09597],[34.76792,32.09625],[34.7682,32.09681],[34.76958,32.09708],[34.76986,32.09736],[34.77042,32.09792],[34.77069,32.0993],[34.77125,32.09986],[34.77153,32.10125],[34.77208,32.10181],[34.77236,32.10292],[34.77291,32.10347],[34.77319,32.10458],[34.77375,32.10486],[34.77403,32.10569],[34.77347,32.10625],[34.77319,32.10708],[34.77264,32.10764],[34.77291,32.10931],[34.77403,32.10903],[34.77431,32.10792],[34.7757,32.10847],[34.77597,32.10986],[34.77653,32.11042],[34.77681,32.1118],[34.77736,32.11264],[34.77764,32.11431],[34.77819,32.11514],[34.77847,32.11708],[34.77903,32.11819],[34.7793,32.12069],[34.77986,32.12181],[34.78014,32.12347],[34.78069,32.12431],[34.78097,32.12514],[34.78153,32.12542],[34.78181,32.12625],[34.78236,32.12653],[34.78264,32.12708],[34.7832,32.12764],[34.78347,32.12903],[34.78347,32.12986],[34.78375,32.13042],[34.78431,32.1307],[34.78458,32.13236],[34.78514,32.13347],[34.78542,32.13569],[34.78597,32.13653],[34.78625,32.1382],[34.7868,32.13903],[34.78708,32.14125],[34.78708,32.14292],[34.78736,32.14458],[34.78792,32.14514],[34.78819,32.14653],[34.78875,32.14708],[34.78903,32.14847],[34.78959,32.14903],[34.78986,32.1507],[34.79042,32.15125],[34.79014,32.15292],[34.79042,32.1543],[34.7907,32.15486],[34.79153,32.15514],[34.79208,32.15542],[34.79292,32.15681],[34.79264,32.15792],[34.79153,32.1582],[34.79125,32.15875],[34.7907,32.15903],[34.79097,32.16375],[34.79153,32.16542],[34.79181,32.16597],[34.79292,32.16625],[34.79347,32.1657],[34.7943,32.16597],[34.79458,32.16736],[34.79514,32.16819],[34.79542,32.16958],[34.79597,32.17042],[34.79625,32.17181],[34.79681,32.17264],[34.79708,32.1743],[34.79764,32.17514],[34.79792,32.17681],[34.79847,32.17764],[34.79875,32.18014],[34.7993,32.18125],[34.79958,32.18403],[34.80014,32.18513],[34.80042,32.18625],[34.80069,32.18819],[34.80125,32.18903],[34.80153,32.19069],[34.80208,32.19125],[34.80236,32.19208],[34.80292,32.19264],[34.8032,32.19298]]]]}}]}