{"type":"FeatureCollection","features":[{"type":"Feature","properties":{"name":"Akkar","iso":"LBN"},"geometry":{"type":"MultiPolygon","coordinates":[[[[35.74823,34.24056],[35.74829,34.2403],[35.74841,34.24],[35.74834,34.23963],[35.7483,34.23972],[35.74816,34.23998],[35.74805,34.24031],[35.74802,34.24052],[35.74798,34.24079],[35.74806,34.24079],[35.74823,34.24078],[35.74823,34.24056]]],[[[35.7564,34.26402],[35.75648,34.26412],[35.75663,34.2643],[35.75685,34.26448],[35.7569,34.26452],[35.757,34.26459],[35.75707,34.26464],[35.7571,34.26466],[35.7573,34.26476],[35.75733,34.26477],[35.75753,34.2648],[35.75757,34.2648],[35.75758,34.2648],[35.75761,34.26479],[35.75762,34.26478],[35.75767,34.26477],[35.75784,34.26471],[35.75791,34.26461],[35.75796,34.26453],[35.75802,34.26424],[35.75803,34.26408],[35.75805,34.26383],[35.75806,34.26366],[35.75806,34.26361],[35.75807,34.26351],[35.75808,34.26341],[35.75793,34.26363],[35.75779,34.26383],[35.75757,34.26397],[35.75733,34.26402],[35.75722,34.26402],[35.75709,34.26401],[35.75636,34.26397],[35.7564,34.26402]]],[[[36.02733,34.44406],[36.01952,34.44084],[36.01012,34.44046],[36.00295,34.4394],[35.99607,34.44086],[35.98836,34.44582],[35.98984,34.45239],[35.98796,34.45738],[35.98664,34.46407],[35.98674,34.4697],[35.98547,34.47662],[35.98353,34.48384],[35.97676,34.49039],[35.97322,34.49406],[35.96593,34.49662],[35.96195,34.50404],[35.95797,34.50986],[35.95689,34.51431],[35.9644,34.51802],[35.97443,34.51777],[35.97619,34.51978],[35.98091,34.52298],[35.98706,34.53645],[35.99019,34.55164],[35.99083,34.56512],[35.98967,34.57795],[35.98872,34.58438],[35.98647,34.59462],[35.98429,34.60308],[35.98024,34.61625],[35.97665,34.62671],[35.9743,34.63377],[35.97636,34.63709],[35.97484,34.64358],[35.9798,34.64491],[35.97913,34.64909],[35.98176,34.64955],[35.98566,34.64891],[35.98849,34.65043],[35.98993,34.64891],[35.98842,34.64531],[35.99134,34.64314],[35.99249,34.64436],[35.99573,34.6428],[36.00222,34.64507],[36.00654,34.64467],[36.0049,34.64206],[36.00841,34.64125],[36.01429,34.63761],[36.0192,34.63561],[36.023,34.63438],[36.02524,34.63163],[36.02897,34.62983],[36.03326,34.63012],[36.03395,34.62766],[36.03639,34.62855],[36.04185,34.62994],[36.04927,34.62845],[36.05286,34.63194],[36.05682,34.63319],[36.0612,34.63593],[36.06359,34.63498],[36.06452,34.63212],[36.06668,34.63394],[36.06893,34.63328],[36.07219,34.62975],[36.07375,34.62862],[36.07773,34.6343],[36.07952,34.63292],[36.08184,34.63118],[36.08658,34.63066],[36.09026,34.63039],[36.0935,34.63096],[36.09592,34.63275],[36.09663,34.63642],[36.10035,34.6348],[36.1047,34.63488],[36.10956,34.63301],[36.11448,34.63362],[36.11801,34.6391],[36.12398,34.64159],[36.12908,34.63902],[36.13117,34.63953],[36.13369,34.63813],[36.14267,34.63547],[36.15168,34.63325],[36.16822,34.62921],[36.17531,34.63231],[36.18397,34.6358],[36.19555,34.63601],[36.20456,34.6352],[36.2184,34.63053],[36.22537,34.62601],[36.23082,34.62843],[36.23571,34.63207],[36.24407,34.63522],[36.25695,34.6307],[36.26126,34.63031],[36.26557,34.6272],[36.27593,34.62832],[36.28554,34.63092],[36.28978,34.63263],[36.29581,34.63465],[36.30197,34.64078],[36.30236,34.64485],[36.30541,34.65371],[36.30756,34.65527],[36.30329,34.66408],[36.30191,34.66641],[36.30759,34.67782],[36.31453,34.6836],[36.31816,34.68678],[36.32439,34.68929],[36.35423,34.68177],[36.35353,34.67823],[36.35108,34.67293],[36.34972,34.66784],[36.34876,34.66274],[36.35198,34.65856],[36.35374,34.65609],[36.35837,34.64791],[36.3643,34.64296],[36.37373,34.63878],[36.38709,34.63207],[36.39275,34.63209],[36.41854,34.62644],[36.43738,34.63237],[36.44906,34.63705],[36.4632,34.63559],[36.45754,34.62557],[36.45562,34.62181],[36.45878,34.61423],[36.45854,34.60886],[36.45681,34.6034],[36.45284,34.59649],[36.44856,34.59182],[36.44354,34.59299],[36.43245,34.59246],[36.42669,34.60343],[36.42245,34.60532],[36.41324,34.6067],[36.40656,34.6111],[36.40352,34.60523],[36.40423,34.5982],[36.40143,34.58604],[36.39883,34.58032],[36.3987,34.57222],[36.41148,34.56535],[36.4133,34.56005],[36.40828,34.55239],[36.39549,34.54938],[36.38517,34.54544],[36.38358,34.54166],[36.38135,34.53682],[36.3705,34.534],[36.36213,34.52509],[36.35325,34.5201],[36.34706,34.5121],[36.33949,34.50597],[36.33428,34.50525],[36.33514,34.51044],[36.33504,34.51494],[36.33365,34.52013],[36.3303,34.52251],[36.32635,34.51863],[36.32152,34.51643],[36.31588,34.51488],[36.30796,34.50996],[36.29878,34.49627],[36.29144,34.48501],[36.27321,34.47034],[36.25845,34.4594],[36.24004,34.45474],[36.24009,34.44777],[36.24758,34.44188],[36.24516,34.43422],[36.24676,34.4267],[36.2437,34.42171],[36.24149,34.41865],[36.23349,34.41874],[36.2284,34.42366],[36.22409,34.41945],[36.21928,34.41757],[36.20781,34.41913],[36.19429,34.41574],[36.18122,34.41415],[36.17015,34.41817],[36.16063,34.41905],[36.15352,34.41949],[36.1414,34.42184],[36.13871,34.42852],[36.1331,34.43478],[36.12786,34.44022],[36.12278,34.44472],[36.11631,34.44699],[36.10896,34.44543],[36.10202,34.44692],[36.09441,34.44581],[36.08514,34.44373],[36.07844,34.4452],[36.0737,34.44571],[36.06712,34.44675],[36.06107,34.44572],[36.0553,34.44543],[36.05017,34.44547],[36.04295,34.44282],[36.03747,34.44242],[36.03139,34.44391],[36.02733,34.44406]]]]}},{"type":"Feature","properties":{"name":"Baalbak - Hermel","iso":"LBN"},"geometry":{"type":"MultiPolygon","coordinates":[[[[36.08266,33.81559],[36.0767,33.82194],[36.0694,33.82165],[36.07184,33.82439],[36.07789,33.82853],[36.07598,33.82869],[36.07598,33.83073],[36.08169,33.84331],[36.0861,33.84862],[36.09013,33.85768],[36.099,33.86103],[36.08783,33.86651],[36.07737,33.86923],[36.06449,33.86818],[36.05586,33.8668],[36.04505,33.86828],[36.03701,33.87623],[36.02753,33.87757],[36.01218,33.86851],[35.9966,33.86346],[35.99644,33.86704],[35.98864,33.87475],[35.98067,33.88174],[35.97861,33.89434],[35.97607,33.89752],[35.9716,33.90094],[35.96645,33.90897],[35.95803,33.91412],[35.94345,33.9102],[35.93427,33.91363],[35.92698,33.91639],[35.91744,33.92367],[35.91149,33.93301],[35.88414,33.95453],[35.9007,33.98416],[35.92445,34.00779],[35.93579,34.01184],[35.95099,34.02803],[35.9667,34.03899],[35.97723,34.0613],[35.98312,34.08589],[35.99566,34.08747],[36.00102,34.09274],[36.00434,34.10445],[36.00835,34.11796],[36.01598,34.13072],[36.03112,34.16503],[36.01873,34.1721],[36.03406,34.19431],[36.06,34.21172],[36.06833,34.2236],[36.08213,34.23779],[36.09503,34.25212],[36.10793,34.26838],[36.12936,34.28357],[36.13631,34.29715],[36.13923,34.30621],[36.15009,34.3187],[36.16024,34.3362],[36.16898,34.34288],[36.17685,34.34509],[36.17985,34.3526],[36.18067,34.37038],[36.17865,34.38403],[36.17062,34.39258],[36.15518,34.39872],[36.14382,34.41215],[36.14095,34.41976],[36.14959,34.4203],[36.1573,34.42029],[36.16835,34.4191],[36.17514,34.41668],[36.18671,34.41391],[36.19876,34.41669],[36.2142,34.42016],[36.22105,34.41696],[36.22523,34.42027],[36.22916,34.42486],[36.23419,34.41806],[36.24174,34.41856],[36.2437,34.42171],[36.24685,34.42651],[36.24572,34.43369],[36.24808,34.4412],[36.2412,34.44526],[36.23965,34.45317],[36.24851,34.45844],[36.27002,34.46998],[36.28732,34.47862],[36.29415,34.49406],[36.30391,34.50148],[36.31213,34.51373],[36.31863,34.5148],[36.32233,34.51759],[36.32753,34.519],[36.33179,34.52269],[36.33336,34.51976],[36.33516,34.51477],[36.33514,34.51044],[36.33428,34.50545],[36.33894,34.50568],[36.34862,34.50964],[36.35488,34.50697],[36.36475,34.50337],[36.37283,34.50341],[36.37675,34.49921],[36.38479,34.50124],[36.38802,34.49671],[36.44147,34.49789],[36.44873,34.48268],[36.45216,34.47822],[36.45628,34.47126],[36.46324,34.46354],[36.46847,34.4611],[36.47746,34.45992],[36.48298,34.45802],[36.49575,34.4546],[36.49472,34.44967],[36.50618,34.44894],[36.51247,34.44384],[36.50863,34.43956],[36.51129,34.4403],[36.51208,34.43565],[36.51487,34.43484],[36.51892,34.43517],[36.52119,34.43042],[36.52289,34.42676],[36.52603,34.43007],[36.53064,34.42517],[36.53625,34.42501],[36.5405,34.42204],[36.55442,34.41774],[36.5583,34.40475],[36.56001,34.39625],[36.55087,34.38759],[36.53787,34.37859],[36.53264,34.37361],[36.53253,34.36386],[36.53957,34.35181],[36.54681,34.33847],[36.56034,34.32815],[36.56139,34.32299],[36.55799,34.31539],[36.55504,34.30946],[36.56583,34.30319],[36.57025,34.30167],[36.57425,34.29648],[36.57753,34.29577],[36.5852,34.2942],[36.58911,34.29202],[36.59715,34.29006],[36.59531,34.28641],[36.58816,34.28153],[36.57355,34.27462],[36.57772,34.26598],[36.58144,34.25609],[36.5831,34.24747],[36.58175,34.23328],[36.58838,34.22305],[36.59899,34.22115],[36.60739,34.21549],[36.61959,34.20424],[36.62043,34.1947],[36.60914,34.19328],[36.60232,34.19099],[36.5896,34.18018],[36.58724,34.1707],[36.58296,34.16302],[36.57161,34.15697],[36.5712,34.14773],[36.56223,34.13335],[36.54366,34.12831],[36.51891,34.10728],[36.50603,34.09027],[36.51127,34.07117],[36.48972,34.04589],[36.44296,34.04927],[36.41582,34.04187],[36.38416,34.01672],[36.36239,33.98309],[36.33888,33.9763],[36.31822,33.96104],[36.29439,33.92753],[36.29022,33.89608],[36.33215,33.87681],[36.39025,33.85435],[36.38892,33.82932],[36.34595,33.83047],[36.29888,33.83383],[36.29184,33.84038],[36.28421,33.84432],[36.28029,33.84785],[36.27836,33.85217],[36.27118,33.8528],[36.26498,33.85439],[36.25753,33.85531],[36.25,33.85686],[36.24755,33.85223],[36.24046,33.84729],[36.23756,33.84177],[36.21279,33.83418],[36.19787,33.83407],[36.16754,33.83687],[36.15416,33.8461],[36.13798,33.83445],[36.12162,33.83408],[36.11541,33.83381],[36.11421,33.83145],[36.11565,33.82711],[36.11199,33.82372],[36.10873,33.81947],[36.08266,33.81559]],[[36.16423,33.84755],[36.16488,33.84801],[36.16486,33.84801],[36.16481,33.84801],[36.1642,33.84757],[36.16423,33.84755]]]]}},{"type":"Feature","properties":{"name":"Beirut","iso":"LBN"},"geometry":{"type":"MultiPolygon","coordinates":[[[[35.51822,33.87504],[35.51748,33.87436],[35.517,33.87331],[35.51653,33.87203],[35.5159,33.87101],[35.51476,33.87102],[35.51381,33.87109],[35.5138,33.87015],[35.51316,33.86983],[35.51253,33.86956],[35.5117,33.86945],[35.51099,33.8691],[35.51041,33.86863],[35.51015,33.86816],[35.50928,33.86807],[35.50877,33.86775],[35.50834,33.8672],[35.50817,33.86651],[35.50822,33.86526],[35.50854,33.86435],[35.50897,33.86361],[35.50951,33.86288],[35.50842,33.86284],[35.50741,33.86282],[35.50629,33.86271],[35.50574,33.86248],[35.50497,33.86238],[35.50405,33.86265],[35.50327,33.86282],[35.5027,33.86314],[35.50201,33.86318],[35.50193,33.86383],[35.50187,33.86443],[35.5017,33.86508],[35.50168,33.86566],[35.50175,33.86624],[35.50188,33.86676],[35.50202,33.86736],[35.50164,33.86769],[35.50063,33.8675],[35.49976,33.86746],[35.49873,33.86747],[35.49758,33.86757],[35.49572,33.86769],[35.49463,33.86777],[35.49342,33.86785],[35.49228,33.86787],[35.49049,33.868],[35.48845,33.868],[35.48566,33.86797],[35.48452,33.86795],[35.48312,33.86784],[35.48204,33.86766],[35.4805,33.86761],[35.4798,33.86792],[35.47978,33.86876],[35.47982,33.86935],[35.48009,33.8703],[35.48005,33.87087],[35.47992,33.87175],[35.4795,33.87369],[35.47883,33.87659],[35.47842,33.87834],[35.47823,33.87929],[35.47795,33.88024],[35.4776,33.88168],[35.47737,33.8823],[35.47689,33.88286],[35.4762,33.88307],[35.47586,33.8828],[35.47544,33.88246],[35.47509,33.88303],[35.47467,33.88376],[35.47343,33.88409],[35.47269,33.884],[35.47174,33.88399],[35.47131,33.88434],[35.47173,33.88456],[35.47216,33.88478],[35.47203,33.88523],[35.4716,33.88554],[35.47139,33.88601],[35.47086,33.88626],[35.47016,33.88594],[35.46964,33.88594],[35.46983,33.88631],[35.47074,33.88671],[35.47096,33.88707],[35.47048,33.88692],[35.46999,33.88676],[35.46948,33.88676],[35.46888,33.88687],[35.46831,33.88676],[35.46782,33.88697],[35.46723,33.88756],[35.46765,33.88785],[35.46753,33.88807],[35.46733,33.88823],[35.46769,33.88857],[35.46827,33.88839],[35.46832,33.88865],[35.46806,33.88872],[35.46835,33.88879],[35.46906,33.88892],[35.46983,33.88915],[35.47013,33.889],[35.47045,33.8894],[35.4705,33.88992],[35.47021,33.8911],[35.46971,33.89169],[35.46914,33.89182],[35.46859,33.89186],[35.46822,33.8921],[35.46758,33.8922],[35.46724,33.89237],[35.46752,33.89254],[35.4676,33.89273],[35.46709,33.89265],[35.46651,33.89271],[35.46637,33.89297],[35.46647,33.89322],[35.46601,33.89321],[35.46592,33.89359],[35.46632,33.8939],[35.46677,33.89403],[35.46642,33.89447],[35.46616,33.89468],[35.46637,33.89518],[35.46662,33.89547],[35.46724,33.89586],[35.46801,33.89609],[35.46878,33.89627],[35.46803,33.89647],[35.46729,33.89634],[35.46692,33.89641],[35.46755,33.89874],[35.46804,33.89856],[35.46785,33.89811],[35.46814,33.89801],[35.46877,33.89802],[35.46896,33.89824],[35.46881,33.89867],[35.46869,33.89907],[35.46771,33.8992],[35.46731,33.89917],[35.46751,33.89956],[35.46744,33.89998],[35.46778,33.89977],[35.46822,33.89947],[35.46868,33.8995],[35.46875,33.89993],[35.46818,33.90018],[35.46849,33.90048],[35.46914,33.90049],[35.46997,33.90069],[35.47085,33.90083],[35.47113,33.90116],[35.47194,33.9023],[35.47281,33.90178],[35.47377,33.90225],[35.47519,33.90248],[35.4761,33.90266],[35.47722,33.90284],[35.4783,33.90305],[35.47916,33.90323],[35.47986,33.90363],[35.48069,33.90366],[35.48133,33.90322],[35.48197,33.90282],[35.4845,33.90208],[35.48531,33.90191],[35.48669,33.90162],[35.48818,33.90166],[35.48917,33.90185],[35.4894,33.90226],[35.4893,33.90257],[35.48996,33.90272],[35.49052,33.90311],[35.49137,33.9035],[35.49223,33.90326],[35.49314,33.90358],[35.49648,33.90539],[35.49385,33.90268],[35.49452,33.90219],[35.49598,33.90186],[35.49754,33.90276],[35.49782,33.90422],[35.4979,33.90444],[35.50151,33.90551],[35.50527,33.90641],[35.51001,33.90701],[35.51716,33.90622],[35.52468,33.91024],[35.53188,33.91622],[35.53182,33.91511],[35.52537,33.9103],[35.50685,33.90281],[35.50972,33.89972],[35.51222,33.90053],[35.51835,33.9043],[35.52231,33.90617],[35.5273,33.90593],[35.52932,33.90915],[35.52975,33.9091],[35.53456,33.90885],[35.53668,33.90746],[35.53622,33.90634],[35.53611,33.906],[35.53488,33.90477],[35.53548,33.90456],[35.5363,33.905],[35.53744,33.90555],[35.53844,33.90578],[35.53891,33.90536],[35.53958,33.90457],[35.54112,33.90437],[35.53949,33.90292],[35.5376,33.90102],[35.5372,33.89928],[35.53641,33.89743],[35.53589,33.89603],[35.53498,33.89479],[35.53388,33.89338],[35.53311,33.89125],[35.53274,33.89039],[35.53216,33.88892],[35.5319,33.88792],[35.53231,33.88646],[35.53239,33.88581],[35.53209,33.88499],[35.5307,33.88406],[35.53025,33.88235],[35.53017,33.88064],[35.53033,33.87972],[35.53003,33.87895],[35.52922,33.8777],[35.52814,33.87731],[35.52695,33.87701],[35.5262,33.87716],[35.52553,33.87751],[35.52411,33.87754],[35.52232,33.87724],[35.52141,33.8767],[35.52011,33.87566],[35.51917,33.87522],[35.51845,33.8751],[35.51822,33.87504]]]]}},{"type":"Feature","properties":{"name":"Bekaa","iso":"LBN"},"geometry":{"type":"MultiPolygon","coordinates":[[[[35.7718,33.41776],[35.76648,33.42576],[35.7635,33.43065],[35.75832,33.43572],[35.7561,33.43943],[35.75397,33.4421],[35.75412,33.44664],[35.75652,33.45243],[35.75949,33.45748],[35.75508,33.46484],[35.75706,33.46939],[35.74758,33.47637],[35.73352,33.47534],[35.72539,33.47005],[35.71776,33.46714],[35.70901,33.46222],[35.69964,33.46001],[35.69422,33.46182],[35.68692,33.46517],[35.68333,33.46138],[35.68351,33.45131],[35.67746,33.44569],[35.66935,33.4353],[35.66516,33.42788],[35.65776,33.42361],[35.65279,33.42594],[35.6515,33.43344],[35.64232,33.43288],[35.62849,33.43197],[35.6324,33.44635],[35.62263,33.44715],[35.61493,33.4328],[35.61027,33.43073],[35.61282,33.44324],[35.61367,33.4582],[35.61687,33.4631],[35.62003,33.47013],[35.61983,33.47699],[35.62296,33.48689],[35.62714,33.49803],[35.62893,33.50633],[35.62995,33.51471],[35.63107,33.52001],[35.63332,33.52693],[35.63463,33.53288],[35.64211,33.54261],[35.65072,33.56808],[35.65291,33.58324],[35.67072,33.62235],[35.67511,33.63385],[35.69484,33.66685],[35.70311,33.65738],[35.70864,33.65307],[35.70604,33.65974],[35.73142,33.68902],[35.73534,33.696],[35.74502,33.70559],[35.7585,33.72206],[35.75984,33.72832],[35.76588,33.7337],[35.77145,33.73817],[35.78318,33.74403],[35.78743,33.74924],[35.79647,33.75888],[35.79937,33.76708],[35.80468,33.78181],[35.80805,33.7846],[35.8099,33.79169],[35.80323,33.79039],[35.79129,33.79155],[35.78432,33.79307],[35.77819,33.79227],[35.77448,33.79455],[35.77029,33.80066],[35.7668,33.80436],[35.7663,33.81011],[35.77446,33.8111],[35.77969,33.81276],[35.78295,33.80999],[35.79164,33.80998],[35.78897,33.8138],[35.79027,33.8205],[35.80124,33.82659],[35.79803,33.83106],[35.79642,33.84018],[35.80989,33.85022],[35.81898,33.85872],[35.82439,33.86831],[35.83614,33.87829],[35.84684,33.88314],[35.85193,33.89198],[35.85583,33.90268],[35.85949,33.91161],[35.86901,33.91692],[35.87672,33.91356],[35.88404,33.91761],[35.89474,33.92103],[35.90075,33.92706],[35.90968,33.93412],[35.91837,33.92229],[35.92991,33.9166],[35.9397,33.91168],[35.95447,33.91551],[35.96676,33.90863],[35.972,33.89971],[35.97841,33.89569],[35.98121,33.88552],[35.98864,33.87475],[35.99694,33.86706],[36.00309,33.8631],[36.01968,33.87756],[36.03819,33.87729],[36.04644,33.86715],[36.05892,33.86844],[36.07105,33.87207],[36.08603,33.86565],[36.0993,33.86081],[36.08829,33.8544],[36.08263,33.84611],[36.07775,33.8323],[36.07662,33.82895],[36.07705,33.8279],[36.07003,33.82328],[36.06635,33.81618],[36.05848,33.8077],[36.04902,33.78973],[36.04359,33.77959],[36.03526,33.77266],[36.02799,33.76388],[36.02391,33.76609],[36.01438,33.7696],[36.00846,33.76768],[36.00691,33.75856],[35.99942,33.74479],[35.99414,33.738],[35.98993,33.73404],[35.98688,33.72624],[35.98161,33.72687],[35.97736,33.72808],[35.97309,33.72746],[35.97227,33.72138],[35.96979,33.7154],[35.97105,33.70703],[35.96762,33.69879],[35.9736,33.6913],[35.97176,33.68808],[35.96821,33.68362],[35.96647,33.67754],[35.95454,33.67368],[35.94587,33.67006],[35.94446,33.66008],[35.93918,33.65448],[35.93342,33.65068],[35.93509,33.64619],[35.93631,33.64072],[35.94985,33.63414],[35.97799,33.63592],[35.98327,33.63127],[36.03137,33.60596],[36.04229,33.60047],[36.04977,33.59545],[36.0565,33.59073],[36.06081,33.58325],[36.06529,33.5787],[36.06038,33.57341],[36.0515,33.567],[36.02423,33.54111],[36.0181,33.54251],[36.01186,33.54197],[35.97092,33.53345],[35.94338,33.51034],[35.95783,33.49982],[35.95325,33.49303],[35.95326,33.48146],[35.95062,33.47493],[35.9354,33.46105],[35.91964,33.45141],[35.9045,33.43909],[35.88965,33.42963],[35.86505,33.41923],[35.84996,33.41075],[35.84012,33.405],[35.82958,33.39956],[35.82106,33.39152],[35.81817,33.38429],[35.81741,33.3753],[35.81507,33.37102],[35.81721,33.36451],[35.81251,33.3555],[35.79409,33.34568],[35.78894,33.347],[35.78179,33.34952],[35.77549,33.35237],[35.77488,33.35612],[35.76874,33.35851],[35.7631,33.36169],[35.7655,33.3667],[35.77236,33.37535],[35.7738,33.37989],[35.77733,33.38773],[35.78462,33.39865],[35.7839,33.40723],[35.78016,33.40579],[35.77603,33.40936],[35.77237,33.41623],[35.7718,33.41776]]]]}},{"type":"Feature","properties":{"name":"Mount Lebanon","iso":"LBN"},"geometry":{"type":"MultiPolygon","coordinates":[[[[35.51207,33.57667],[35.51993,33.57452],[35.51123,33.57012],[35.49903,33.5673],[35.49242,33.5688],[35.4809,33.57302],[35.47797,33.57163],[35.4768,33.57427],[35.47534,33.57087],[35.47504,33.56661],[35.47109,33.56449],[35.46592,33.56649],[35.45712,33.5675],[35.44593,33.5743],[35.44366,33.57196],[35.43791,33.57381],[35.42942,33.57261],[35.42864,33.57725],[35.4217,33.58109],[35.40637,33.58158],[35.39927,33.58569],[35.38922,33.58887],[35.38695,33.59626],[35.38733,33.60269],[35.39106,33.60742],[35.39792,33.62164],[35.39845,33.63538],[35.39809,33.64903],[35.40689,33.64946],[35.41632,33.66574],[35.41472,33.68753],[35.4249,33.69534],[35.42806,33.69677],[35.43678,33.70113],[35.44298,33.72055],[35.4445,33.73449],[35.44842,33.74721],[35.45824,33.76382],[35.46606,33.77456],[35.47154,33.78185],[35.47687,33.79063],[35.47964,33.80769],[35.47971,33.84187],[35.48126,33.8381],[35.48226,33.84328],[35.48256,33.84802],[35.48244,33.85336],[35.48031,33.86415],[35.48157,33.86759],[35.49873,33.86747],[35.50224,33.86316],[35.50832,33.86501],[35.5138,33.87015],[35.52232,33.87724],[35.53164,33.8847],[35.53676,33.89839],[35.54645,33.90305],[35.5513,33.89999],[35.5629,33.90194],[35.5703,33.90429],[35.57969,33.91325],[35.58197,33.93113],[35.5905,33.94665],[35.59653,33.95938],[35.59848,33.96394],[35.60043,33.9693],[35.60204,33.9721],[35.60793,33.978],[35.60994,33.98136],[35.61624,33.98834],[35.62019,33.986],[35.62771,33.98405],[35.63458,33.98727],[35.63686,33.99062],[35.64061,33.9961],[35.6426,34.00164],[35.64374,34.00758],[35.63175,34.01535],[35.62271,34.0177],[35.62215,34.02882],[35.6231,34.03251],[35.62738,34.04223],[35.63301,34.04988],[35.63661,34.05487],[35.641,34.06713],[35.64674,34.08189],[35.64726,34.09385],[35.64935,34.09751],[35.64854,34.10833],[35.64466,34.11716],[35.64131,34.12],[35.64069,34.12224],[35.63963,34.13169],[35.63069,34.13993],[35.62725,34.15305],[35.62982,34.15802],[35.63069,34.16635],[35.62989,34.17225],[35.63046,34.1778],[35.63115,34.1823],[35.63352,34.18794],[35.63144,34.19198],[35.63242,34.1941],[35.63489,34.19929],[35.63761,34.2049],[35.64616,34.21003],[35.66634,34.20902],[35.68044,34.20978],[35.68721,34.1982],[35.69709,34.19287],[35.71053,34.19474],[35.72515,34.1881],[35.74119,34.1828],[35.75546,34.18437],[35.76724,34.19242],[35.78247,34.19363],[35.78979,34.18461],[35.80887,34.18156],[35.80829,34.18996],[35.81355,34.19153],[35.82676,34.18939],[35.84086,34.18644],[35.85432,34.17955],[35.86552,34.17913],[35.87275,34.1925],[35.88117,34.19264],[35.8923,34.19067],[35.88857,34.18298],[35.87972,34.17551],[35.88164,34.16522],[35.87873,34.15448],[35.89162,34.15269],[35.90327,34.15382],[35.92315,34.15538],[35.93288,34.15905],[35.94903,34.16648],[35.95929,34.15919],[35.97613,34.15747],[35.9926,34.15108],[36.00919,34.14644],[36.01197,34.13454],[36.00697,34.11542],[36.00194,34.08879],[35.98141,34.07935],[35.96543,34.04153],[35.93229,34.01016],[35.90076,33.98045],[35.90092,33.92729],[35.88934,33.91727],[35.87518,33.9138],[35.8602,33.91315],[35.85966,33.90083],[35.84674,33.88298],[35.82715,33.87004],[35.81378,33.8548],[35.79696,33.8413],[35.80046,33.82837],[35.78971,33.81944],[35.79023,33.81132],[35.78185,33.81111],[35.77446,33.8111],[35.76639,33.80582],[35.77202,33.79934],[35.77757,33.79251],[35.78652,33.79293],[35.80367,33.79047],[35.80885,33.78551],[35.80389,33.78067],[35.79654,33.75905],[35.78534,33.74759],[35.76974,33.73646],[35.76012,33.72903],[35.75392,33.69893],[35.73512,33.69594],[35.70973,33.66698],[35.70694,33.65319],[35.69783,33.66691],[35.67372,33.63021],[35.65408,33.58105],[35.6424,33.54351],[35.63335,33.53181],[35.63107,33.52001],[35.62839,33.51143],[35.62567,33.49504],[35.61801,33.50503],[35.61462,33.52356],[35.60087,33.5469],[35.59331,33.55528],[35.60384,33.57135],[35.60251,33.57849],[35.59719,33.58721],[35.59213,33.59165],[35.58645,33.59145],[35.57756,33.58387],[35.5743,33.59056],[35.56529,33.59461],[35.55709,33.59412],[35.54638,33.59019],[35.53902,33.5832],[35.531,33.5815],[35.51814,33.58182],[35.51207,33.57667]]]]}},{"type":"Feature","properties":{"name":"Nabatiyeh","iso":"LBN"},"geometry":{"type":"MultiPolygon","coordinates":[[[[35.35851,33.05692],[35.34165,33.07731],[35.32566,33.08109],[35.30238,33.11311],[35.29852,33.13166],[35.30458,33.1485],[35.31443,33.16217],[35.31798,33.16888],[35.31232,33.17642],[35.31993,33.17545],[35.33162,33.17128],[35.34844,33.19026],[35.34132,33.19952],[35.35636,33.19792],[35.36344,33.20157],[35.36721,33.20573],[35.37209,33.20745],[35.37877,33.20719],[35.36643,33.21436],[35.357,33.21891],[35.37278,33.22603],[35.38599,33.23358],[35.38995,33.24653],[35.40054,33.24174],[35.40988,33.23863],[35.41449,33.24887],[35.41762,33.26457],[35.41612,33.27098],[35.42474,33.26979],[35.42732,33.27582],[35.42822,33.28569],[35.41855,33.28671],[35.41337,33.28588],[35.41114,33.29333],[35.41467,33.29652],[35.41759,33.30256],[35.42403,33.30299],[35.43003,33.31252],[35.42249,33.31568],[35.41442,33.30844],[35.40795,33.30308],[35.40193,33.30182],[35.39623,33.30803],[35.38872,33.31118],[35.37994,33.30639],[35.37352,33.30489],[35.37135,33.31038],[35.36573,33.30958],[35.36002,33.31047],[35.35634,33.31024],[35.3461,33.31497],[35.34893,33.32018],[35.34415,33.31865],[35.3406,33.31966],[35.3429,33.32703],[35.3497,33.33148],[35.35711,33.33431],[35.36223,33.34004],[35.36465,33.34905],[35.36214,33.35511],[35.34678,33.35218],[35.34439,33.35511],[35.33827,33.36048],[35.33033,33.36133],[35.32214,33.36089],[35.31487,33.36236],[35.30328,33.36696],[35.29668,33.3686],[35.30651,33.36821],[35.3145,33.36613],[35.31916,33.37371],[35.31507,33.37904],[35.30917,33.38118],[35.31678,33.38648],[35.31335,33.38881],[35.32036,33.39359],[35.32433,33.40009],[35.32643,33.39446],[35.33797,33.39867],[35.34179,33.39966],[35.34892,33.40136],[35.3565,33.39843],[35.36433,33.39266],[35.3751,33.39705],[35.38493,33.39752],[35.39289,33.40107],[35.39865,33.41174],[35.39321,33.41935],[35.38953,33.42351],[35.39006,33.42955],[35.38637,33.43525],[35.3886,33.44192],[35.39008,33.44644],[35.39248,33.45125],[35.3945,33.45839],[35.40221,33.45595],[35.40942,33.45384],[35.4141,33.4505],[35.41914,33.45014],[35.41814,33.4561],[35.42313,33.45907],[35.42697,33.46232],[35.42313,33.46403],[35.41933,33.46648],[35.41604,33.46988],[35.41125,33.47152],[35.40615,33.47553],[35.41549,33.47678],[35.42359,33.47921],[35.42888,33.48623],[35.43547,33.48516],[35.44199,33.48037],[35.44927,33.48035],[35.45314,33.47601],[35.45757,33.47975],[35.45775,33.48348],[35.45939,33.4894],[35.46597,33.48557],[35.47172,33.48141],[35.47739,33.47573],[35.48425,33.48254],[35.48549,33.48664],[35.49272,33.48978],[35.49934,33.49507],[35.50703,33.49654],[35.51488,33.49646],[35.52199,33.50605],[35.53117,33.51108],[35.53819,33.50827],[35.54771,33.50618],[35.54977,33.50247],[35.54268,33.49182],[35.54249,33.48735],[35.54242,33.48118],[35.53418,33.47626],[35.52703,33.4727],[35.5213,33.46138],[35.5371,33.44864],[35.52558,33.43633],[35.5228,33.42797],[35.54182,33.41808],[35.53694,33.411],[35.53176,33.40466],[35.52903,33.39771],[35.52744,33.39096],[35.5234,33.38205],[35.52302,33.37516],[35.52669,33.36609],[35.53713,33.36427],[35.53867,33.35865],[35.5387,33.35083],[35.54494,33.35266],[35.54702,33.35812],[35.54826,33.36539],[35.55061,33.37146],[35.55663,33.37702],[35.56292,33.37992],[35.56956,33.38205],[35.57886,33.38058],[35.58707,33.38096],[35.59396,33.38834],[35.59595,33.39555],[35.60248,33.39938],[35.60768,33.40673],[35.61471,33.4157],[35.62069,33.41252],[35.6231,33.41927],[35.63197,33.42806],[35.65104,33.43433],[35.65554,33.42471],[35.66516,33.42788],[35.67268,33.44058],[35.68253,33.45239],[35.68486,33.46504],[35.6941,33.4607],[35.70718,33.46219],[35.7183,33.46936],[35.73352,33.47534],[35.75345,33.47185],[35.75445,33.46426],[35.75623,33.45476],[35.75346,33.44475],[35.75545,33.43932],[35.75909,33.43399],[35.76648,33.42576],[35.77329,33.41466],[35.7799,33.40549],[35.7876,33.40314],[35.7773,33.38764],[35.77308,33.37679],[35.76393,33.36459],[35.76717,33.36048],[35.77591,33.35476],[35.78149,33.34958],[35.79093,33.34665],[35.77851,33.33529],[35.73134,33.30893],[35.6753,33.25295],[35.5842,33.27594],[35.56383,33.27593],[35.54748,33.25461],[35.52718,33.14734],[35.50211,33.11],[35.44218,33.08577],[35.35851,33.05692]]]]}},{"type":"Feature","properties":{"name":"North","iso":"LBN"},"geometry":{"type":"MultiPolygon","coordinates":[[[[35.73069,34.18402],[35.71454,34.19431],[35.70082,34.19369],[35.68961,34.1951],[35.67897,34.20516],[35.67122,34.2099],[35.652,34.20954],[35.65211,34.21919],[35.65326,34.22575],[35.65448,34.23109],[35.65487,34.23471],[35.65655,34.23706],[35.65762,34.23914],[35.65894,34.24212],[35.65952,34.24509],[35.65727,34.24691],[35.65656,34.24807],[35.6552,34.25044],[35.6567,34.25317],[35.65606,34.25814],[35.65594,34.2598],[35.65681,34.26217],[35.65765,34.26573],[35.65572,34.26988],[35.65397,34.27234],[35.65134,34.27348],[35.65298,34.27618],[35.65412,34.27886],[35.65132,34.28082],[35.65184,34.28096],[35.65331,34.28303],[35.65455,34.28377],[35.65331,34.28157],[35.65639,34.28135],[35.65511,34.28266],[35.6579,34.28395],[35.65889,34.28469],[35.6624,34.28559],[35.66525,34.2873],[35.66642,34.29022],[35.66843,34.29313],[35.6714,34.29368],[35.6691,34.29589],[35.66942,34.29767],[35.67071,34.29935],[35.6713,34.30382],[35.67563,34.30774],[35.67831,34.31118],[35.68088,34.31235],[35.68427,34.3133],[35.68774,34.31407],[35.69127,34.31319],[35.69446,34.31175],[35.69677,34.31045],[35.6972,34.30962],[35.69937,34.30737],[35.70174,34.30527],[35.70435,34.30633],[35.71414,34.31097],[35.71155,34.3132],[35.7092,34.31542],[35.71122,34.31393],[35.71376,34.31164],[35.71614,34.31258],[35.71925,34.31585],[35.71992,34.32505],[35.72141,34.32842],[35.72404,34.32841],[35.72366,34.33018],[35.72426,34.33205],[35.7257,34.33507],[35.7284,34.33926],[35.72565,34.34488],[35.72799,34.35061],[35.72764,34.35662],[35.72492,34.36169],[35.73229,34.36141],[35.73541,34.36546],[35.73466,34.36987],[35.73723,34.37692],[35.74625,34.37916],[35.75598,34.38072],[35.76285,34.38126],[35.77295,34.38306],[35.78221,34.38807],[35.78888,34.39127],[35.79435,34.39772],[35.7976,34.39923],[35.79907,34.40059],[35.80204,34.40093],[35.80183,34.40191],[35.804,34.40179],[35.80667,34.4027],[35.8113,34.4047],[35.81194,34.40635],[35.81334,34.40819],[35.8153,34.40827],[35.81485,34.40918],[35.81503,34.40932],[35.81684,34.40954],[35.81579,34.41211],[35.81636,34.4127],[35.81745,34.4133],[35.81924,34.41412],[35.81984,34.41742],[35.81892,34.41949],[35.81953,34.42368],[35.81864,34.42529],[35.81576,34.42674],[35.81384,34.42869],[35.8119,34.43108],[35.81109,34.43269],[35.81085,34.43517],[35.80875,34.43747],[35.80978,34.44059],[35.81243,34.44372],[35.8086,34.44767],[35.80534,34.44762],[35.80547,34.4502],[35.80315,34.45137],[35.80584,34.45323],[35.80947,34.45604],[35.81732,34.45214],[35.81912,34.45133],[35.82831,34.45865],[35.83811,34.45776],[35.84357,34.45591],[35.84858,34.45616],[35.85858,34.4571],[35.86272,34.45913],[35.87225,34.46068],[35.87974,34.46242],[35.88979,34.46501],[35.9007,34.46658],[35.91214,34.47514],[35.92191,34.48341],[35.92587,34.48692],[35.92871,34.49356],[35.93199,34.49739],[35.93789,34.49822],[35.94148,34.50328],[35.95232,34.5099],[35.96145,34.50587],[35.97046,34.49506],[35.98013,34.48689],[35.98745,34.47306],[35.98715,34.46259],[35.99002,34.45181],[35.99649,34.44088],[36.00989,34.44053],[36.02668,34.44372],[36.03915,34.44222],[36.05153,34.44618],[36.06252,34.44578],[36.07402,34.44572],[36.0849,34.44377],[36.10066,34.44669],[36.11432,34.44631],[36.12644,34.44124],[36.13479,34.43139],[36.14087,34.41833],[36.15691,34.39829],[36.1785,34.38314],[36.17905,34.35115],[36.16812,34.34263],[36.14919,34.31705],[36.13511,34.29415],[36.10765,34.26711],[36.08107,34.23628],[36.05869,34.21155],[36.01111,34.17038],[36.01515,34.12896],[36.01293,34.14042],[36.00349,34.14893],[35.98496,34.15409],[35.96954,34.15867],[35.9549,34.1637],[35.93832,34.16566],[35.92911,34.15717],[35.91051,34.15578],[35.89743,34.15308],[35.88361,34.15277],[35.88261,34.15903],[35.87735,34.17049],[35.88335,34.18197],[35.89259,34.18698],[35.88637,34.19434],[35.87793,34.19492],[35.86988,34.18657],[35.86265,34.175],[35.85168,34.18164],[35.83662,34.1913],[35.82103,34.18867],[35.81106,34.19418],[35.80777,34.18643],[35.80052,34.18225],[35.79089,34.18897],[35.77739,34.19539],[35.7609,34.18847],[35.74766,34.18443],[35.73552,34.18306],[35.73069,34.18402]],[[35.74805,34.24031],[35.74816,34.23998],[35.7483,34.23972],[35.74834,34.23963],[35.74841,34.24],[35.74829,34.2403],[35.74823,34.24056],[35.74823,34.24078],[35.74806,34.24079],[35.74798,34.24079],[35.74802,34.24052],[35.74805,34.24031]],[[35.75808,34.26341],[35.75807,34.26351],[35.75806,34.26361],[35.75806,34.26366],[35.75805,34.26383],[35.75803,34.26408],[35.75802,34.26424],[35.75796,34.26453],[35.75791,34.26461],[35.75784,34.26471],[35.75767,34.26477],[35.75762,34.26478],[35.75761,34.26479],[35.75758,34.2648],[35.75757,34.2648],[35.75753,34.2648],[35.75733,34.26477],[35.7573,34.26476],[35.7571,34.26466],[35.75707,34.26464],[35.757,34.26459],[35.7569,34.26452],[35.75685,34.26448],[35.75663,34.2643],[35.75648,34.26412],[35.7564,34.26402],[35.75636,34.26397],[35.75709,34.26401],[35.75722,34.26402],[35.75733,34.26402],[35.75757,34.26397],[35.75779,34.26383],[35.75793,34.26363],[35.75808,34.26341]]]]}},{"type":"Feature","properties":{"name":"South","iso":"LBN"},"geometry":{"type":"MultiPolygon","coordinates":[[[[35.26311,33.09856],[35.21202,33.09979],[35.17407,33.09375],[35.15718,33.08632],[35.10326,33.0962],[35.10849,33.10848],[35.11639,33.11554],[35.12848,33.12019],[35.13961,33.12632],[35.14773,33.13073],[35.1544,33.14363],[35.15776,33.14945],[35.16431,33.15951],[35.18142,33.16745],[35.1907,33.17927],[35.19369,33.19247],[35.20342,33.20269],[35.20879,33.22163],[35.2113,33.24022],[35.2095,33.25742],[35.19642,33.26802],[35.19041,33.27227],[35.19594,33.27462],[35.21651,33.28697],[35.21989,33.29969],[35.22371,33.31018],[35.22705,33.31423],[35.23205,33.3234],[35.24126,33.33059],[35.24331,33.33594],[35.24532,33.35118],[35.2485,33.36837],[35.25147,33.38159],[35.25926,33.40287],[35.26567,33.41234],[35.26675,33.42422],[35.27287,33.43841],[35.28149,33.45273],[35.29002,33.46319],[35.30243,33.46801],[35.30899,33.47155],[35.32035,33.48203],[35.33319,33.49389],[35.3409,33.50652],[35.3582,33.52701],[35.3627,33.54949],[35.36851,33.56712],[35.38232,33.58211],[35.38968,33.58887],[35.40196,33.58473],[35.41737,33.58128],[35.42886,33.57719],[35.43226,33.5729],[35.44201,33.57335],[35.44593,33.5743],[35.45888,33.56606],[35.47112,33.5672],[35.47503,33.56642],[35.47527,33.57192],[35.47715,33.57216],[35.48063,33.5731],[35.49353,33.56873],[35.50594,33.56997],[35.51962,33.57403],[35.51202,33.57835],[35.52531,33.58028],[35.53819,33.58294],[35.54866,33.58971],[35.56364,33.59724],[35.57166,33.59071],[35.58054,33.58501],[35.58774,33.58953],[35.59669,33.58861],[35.60295,33.57763],[35.59562,33.5601],[35.59549,33.55027],[35.6153,33.52319],[35.6189,33.49923],[35.61901,33.47646],[35.61528,33.46214],[35.61164,33.44243],[35.6184,33.43962],[35.63186,33.43723],[35.6234,33.41787],[35.61817,33.41394],[35.60847,33.41116],[35.60213,33.39848],[35.59441,33.39263],[35.58797,33.38103],[35.57655,33.3825],[35.5652,33.3815],[35.55678,33.37716],[35.54963,33.36967],[35.54851,33.35987],[35.54465,33.35237],[35.53751,33.35521],[35.53719,33.36294],[35.52343,33.36607],[35.52439,33.37908],[35.52366,33.39038],[35.52956,33.39911],[35.53431,33.40766],[35.54145,33.41702],[35.52265,33.43003],[35.53088,33.44248],[35.52312,33.46332],[35.53077,33.4725],[35.53915,33.4818],[35.54139,33.48732],[35.54548,33.49458],[35.54897,33.50541],[35.53463,33.50933],[35.52248,33.50933],[35.51535,33.49679],[35.50277,33.49632],[35.49476,33.49036],[35.48505,33.48669],[35.48254,33.47919],[35.47351,33.47955],[35.46442,33.48681],[35.4558,33.48751],[35.45705,33.48037],[35.45131,33.477],[35.44424,33.47897],[35.43567,33.48508],[35.42702,33.48328],[35.41706,33.47753],[35.406,33.47517],[35.41255,33.46876],[35.41942,33.46745],[35.42381,33.4641],[35.42485,33.46058],[35.41872,33.45639],[35.4184,33.44963],[35.41123,33.45335],[35.40233,33.45589],[35.39235,33.45482],[35.39027,33.44734],[35.38877,33.44157],[35.38963,33.43279],[35.38923,33.42481],[35.39333,33.41841],[35.40147,33.4028],[35.38583,33.39744],[35.37212,33.39417],[35.35707,33.39508],[35.34906,33.40121],[35.34187,33.40094],[35.33006,33.39485],[35.32462,33.3998],[35.31691,33.39187],[35.31881,33.3877],[35.30895,33.38038],[35.3172,33.37754],[35.31493,33.3668],[35.30344,33.36831],[35.29681,33.3666],[35.31472,33.36268],[35.32247,33.36202],[35.33643,33.36132],[35.34476,33.35531],[35.35688,33.35275],[35.36372,33.35171],[35.36054,33.33922],[35.354,33.33179],[35.3435,33.3275],[35.34035,33.31826],[35.34645,33.32112],[35.34621,33.31513],[35.35706,33.30816],[35.36397,33.30915],[35.37164,33.31011],[35.37585,33.30623],[35.38741,33.31065],[35.39721,33.30766],[35.40473,33.30099],[35.41357,33.30837],[35.42544,33.31537],[35.42638,33.30831],[35.41781,33.30265],[35.41326,33.29437],[35.41206,33.28757],[35.41906,33.28663],[35.42947,33.28245],[35.42517,33.27181],[35.41502,33.27003],[35.4102,33.25949],[35.41092,33.23933],[35.3978,33.24398],[35.38562,33.2389],[35.37374,33.22586],[35.35937,33.21518],[35.37545,33.21128],[35.37188,33.20784],[35.36308,33.20519],[35.35913,33.19862],[35.34127,33.1982],[35.34401,33.18344],[35.32164,33.17534],[35.31328,33.17401],[35.32105,33.16425],[35.30496,33.14906],[35.29883,33.12629],[35.27686,33.10086],[35.26311,33.09856]]]]}}]}