{"type":"FeatureCollection","features":[{"type":"Feature","properties":{"name":"Al Ḥasakah","iso":"SYR"},"geometry":{"type":"MultiPolygon","coordinates":[[[[41.27654,36.15855],[41.25801,36.05457],[41.3332,35.92077],[41.38108,35.83529],[41.38315,35.80316],[41.39127,35.67723],[41.39429,35.63027],[41.33307,35.55133],[41.32141,35.53627],[41.18321,35.54211],[41.12489,35.51968],[41.02469,35.53314],[40.96038,35.55259],[40.89907,35.57352],[40.83476,35.57203],[40.75849,35.57801],[40.68671,35.63483],[40.56707,35.73204],[40.49977,35.78139],[40.41752,35.83822],[40.32629,35.90104],[40.22012,35.98329],[40.19619,36.01469],[40.09001,36.09993],[39.94046,36.21658],[39.90157,36.28538],[39.90539,36.32983],[39.88601,36.34085],[39.8767,36.36103],[39.87359,36.39053],[39.87359,36.41693],[39.85496,36.42624],[39.82236,36.43556],[39.81305,36.44177],[39.80994,36.47127],[39.7851,36.48989],[39.74007,36.50232],[39.69661,36.52716],[39.62674,36.52716],[39.54601,36.53337],[39.51185,36.54734],[39.47614,36.58615],[39.4482,36.63118],[39.44354,36.66689],[39.45037,36.69899],[39.46706,36.69791],[39.49827,36.70129],[39.53239,36.70599],[39.59664,36.71961],[39.62685,36.72334],[39.67577,36.72948],[39.71203,36.74157],[39.78059,36.74773],[39.83173,36.75368],[39.85598,36.76052],[39.87753,36.77087],[39.92906,36.78695],[40.0,36.81632],[40.01836,36.82487],[40.07275,36.84909],[40.08701,36.86069],[40.15849,36.8746],[40.18086,36.87868],[40.2328,36.90041],[40.24771,36.91042],[40.26021,36.91999],[40.27843,36.92614],[40.29436,36.9348],[40.33262,36.95433],[40.3696,36.9674],[40.39754,36.98134],[40.42296,37.00118],[40.43814,37.0088],[40.50269,37.02001],[40.54627,37.02671],[40.60225,37.05407],[40.64585,37.06767],[40.67838,37.08083],[40.68845,37.08757],[40.72077,37.10105],[40.74055,37.10241],[40.76493,37.11212],[40.82253,37.11972],[40.82818,37.11609],[40.85047,37.10662],[40.85432,37.1075],[40.87047,37.11805],[40.89041,37.12463],[40.92108,37.12711],[40.96487,37.11979],[41.00052,37.112],[41.05952,37.1054],[41.1188,37.09457],[41.16974,37.09224],[41.20772,37.0765],[41.21423,37.06581],[41.23677,37.06491],[41.24875,37.06907],[41.26865,37.07849],[41.28598,37.08014],[41.50085,37.07954],[41.55814,37.08523],[41.62648,37.10511],[41.65068,37.11084],[41.68692,37.11446],[41.72843,37.11351],[41.84994,37.13528],[41.89945,37.14489],[42.00038,37.17052],[42.05733,37.18888],[42.10611,37.21285],[42.12243,37.2354],[42.13917,37.24945],[42.16651,37.26624],[42.19395,37.28218],[42.21646,37.31522],[42.22494,37.31915],[42.23486,37.31569],[42.233,37.30766],[42.21881,37.28396],[42.22083,37.27748],[42.235,37.28053],[42.25587,37.2788],[42.27561,37.27114],[42.30013,37.27459],[42.30663,37.26192],[42.31798,37.25782],[42.32752,37.24513],[42.34979,37.23647],[42.35873,37.21808],[42.34016,37.19956],[42.33707,37.17487],[42.34938,37.14835],[42.35997,37.1352],[42.36371,37.10926],[42.36221,37.09497],[42.36462,37.09123],[42.37341,37.08689],[42.37451,37.08625],[42.38504,37.07412],[42.37365,37.05822],[42.27673,36.97987],[42.24925,36.9577],[42.17694,36.89045],[42.14752,36.86837],[42.12985,36.85299],[42.06493,36.79034],[41.99076,36.72305],[41.93848,36.67033],[41.88168,36.62345],[41.84969,36.60818],[41.75665,36.57801],[41.70681,36.56748],[41.55069,36.54403],[41.41372,36.52047],[41.41264,36.51959],[41.32727,36.40303],[41.29239,36.28392],[41.29184,36.2654],[41.28969,36.24915],[41.27654,36.15855]]]]}},{"type":"Feature","properties":{"name":"Aleppo","iso":"SYR"},"geometry":{"type":"MultiPolygon","coordinates":[[[[37.75378,35.42831],[37.66695,35.4377],[37.65404,35.44709],[37.58363,35.50694],[37.50149,35.50459],[37.40527,35.50576],[37.35525,35.49954],[37.28396,35.50482],[37.23643,35.51802],[37.17571,35.53827],[37.1405,35.56995],[37.10706,35.59195],[37.07362,35.64115],[37.09738,35.68515],[37.11762,35.75996],[37.07186,35.81893],[37.02873,35.81893],[37.00849,35.79957],[36.96184,35.83653],[36.93984,35.88758],[36.87823,35.9307],[36.88528,35.97031],[36.89129,36.01152],[36.84083,36.05142],[36.8068,36.06668],[36.75869,36.0831],[36.74813,36.12183],[36.74329,36.14075],[36.78641,36.16451],[36.80137,36.20676],[36.83746,36.19972],[36.83482,36.24284],[36.73624,36.31853],[36.71691,36.31517],[36.69513,36.31673],[36.66898,36.3143],[36.65931,36.33398],[36.62148,36.3288],[36.61201,36.34075],[36.62785,36.35967],[36.6157,36.39266],[36.58914,36.3978],[36.57558,36.43855],[36.56779,36.46773],[36.55303,36.50111],[36.5944,36.5492],[36.60292,36.59097],[36.58893,36.63931],[36.61885,36.67999],[36.63683,36.72001],[36.62397,36.74709],[36.64631,36.77839],[36.67858,36.81745],[36.66854,36.83677],[36.73903,36.82418],[36.80418,36.79856],[36.92226,36.77936],[36.99886,36.75532],[37.05183,36.72683],[37.0527,36.70692],[37.0314,36.65766],[37.06458,36.64232],[37.10357,36.62696],[37.13311,36.6622],[37.17445,36.65457],[37.21821,36.66105],[37.33133,36.65584],[37.39027,36.65104],[37.47254,36.63797],[37.52101,36.66721],[37.60263,36.70698],[37.67398,36.73682],[37.71032,36.74462],[37.76701,36.74658],[37.86232,36.77407],[37.95811,36.81043],[38.01063,36.82521],[38.05173,36.83637],[38.07052,36.85857],[38.15546,36.88954],[38.19434,36.90692],[38.25282,36.91349],[38.31633,36.90539],[38.40784,36.89539],[38.5216,36.85406],[38.57965,36.82378],[38.62285,36.79031],[38.62844,36.74072],[38.64993,36.692],[38.63417,36.64327],[38.59977,36.60744],[38.6571,36.60027],[38.68433,36.56588],[38.66713,36.47416],[38.6227,36.37527],[38.55487,36.31938],[38.46315,36.29071],[38.31697,36.25489],[38.18082,36.24629],[38.11463,36.20925],[38.03796,36.08096],[38.09272,36.03558],[38.1647,35.973],[38.19129,35.93232],[38.12402,35.89007],[38.04265,35.7868],[38.00667,35.63347],[38.04109,35.57558],[38.07082,35.53803],[38.17565,35.49892],[38.23122,35.43949],[38.00843,35.42596],[37.89577,35.42831],[37.82771,35.40836],[37.77172,35.42765],[37.75378,35.42831]]]]}},{"type":"Feature","properties":{"name":"Ar Raqqah","iso":"SYR"},"geometry":{"type":"MultiPolygon","coordinates":[[[[38.49467,36.30362],[38.55487,36.31938],[38.62377,36.37241],[38.6227,36.37527],[38.6485,36.4154],[38.66713,36.47416],[38.6829,36.52718],[38.68433,36.56588],[38.67716,36.59597],[38.6571,36.60027],[38.6227,36.60027],[38.59977,36.60744],[38.60121,36.63181],[38.63417,36.64327],[38.64993,36.66333],[38.64993,36.692],[38.6442,36.71206],[38.62844,36.74072],[38.63497,36.77786],[38.67331,36.74779],[38.72362,36.71043],[38.77342,36.70001],[38.80076,36.69744],[38.84706,36.69668],[38.92975,36.69787],[38.98099,36.70042],[39.02023,36.70331],[39.07394,36.69821],[39.14838,36.68383],[39.21553,36.66603],[39.2759,36.67371],[39.34484,36.6896],[39.43045,36.69454],[39.45037,36.69899],[39.44354,36.66689],[39.4482,36.63118],[39.47614,36.58615],[39.51185,36.54734],[39.54601,36.53337],[39.62674,36.52716],[39.69661,36.52716],[39.74007,36.50232],[39.7851,36.48989],[39.80994,36.47127],[39.81305,36.44177],[39.80361,36.42543],[39.78068,36.31078],[39.75489,36.22623],[39.7391,36.1878],[39.71903,36.12474],[39.6961,36.05165],[39.67174,35.9886],[39.67461,35.95277],[39.70327,35.90691],[39.72763,35.86535],[39.73336,35.81805],[39.74053,35.79369],[39.7391,35.76216],[39.73623,35.712],[39.72763,35.67904],[39.69754,35.65181],[39.65454,35.64751],[39.56237,35.51996],[39.38752,35.32648],[39.29296,35.23827],[39.17542,35.26199],[38.95042,35.30785],[38.7985,35.34225],[38.66809,35.36661],[38.56633,35.37521],[38.55344,35.38026],[38.39939,35.37531],[38.32272,35.35966],[38.30082,35.37374],[38.2836,35.40034],[38.24606,35.42694],[38.22572,35.44415],[38.20381,35.48014],[38.14279,35.5083],[38.08803,35.53021],[38.07082,35.55211],[38.0536,35.56776],[38.0317,35.57714],[38.0098,35.60062],[38.0098,35.70232],[38.02388,35.75708],[38.05986,35.8181],[38.09898,35.8713],[38.14905,35.90259],[38.18816,35.91667],[38.18973,35.94327],[38.17878,35.96674],[38.14279,35.98864],[38.10524,36.02306],[38.08177,36.0434],[38.04735,36.06687],[38.04578,36.09347],[38.09272,36.1717],[38.13865,36.23581],[38.16505,36.23339],[38.19371,36.24772],[38.26824,36.25202],[38.34276,36.25632],[38.42159,36.28212],[38.4698,36.29344],[38.49467,36.30362]]]]}},{"type":"Feature","properties":{"name":"As Suwayda'","iso":"SYR"},"geometry":{"type":"MultiPolygon","coordinates":[[[[37.41018,32.63533],[37.1589,32.50036],[37.03356,32.43268],[36.91085,32.36191],[36.84583,32.31248],[36.78664,32.32036],[36.72,32.32512],[36.69205,32.33915],[36.64826,32.3442],[36.55273,32.37593],[36.55397,32.42068],[36.55522,32.44927],[36.54155,32.47413],[36.53036,32.4965],[36.54652,32.52385],[36.5567,32.53006],[36.54403,32.5599],[36.50674,32.57109],[36.44831,32.59222],[36.42097,32.61459],[36.4421,32.62827],[36.47318,32.64442],[36.46945,32.67426],[36.4334,32.69042],[36.39611,32.69663],[36.39108,32.70089],[36.38741,32.83585],[36.38989,32.92287],[36.41848,32.93654],[36.40942,32.95936],[36.44086,32.98253],[36.48188,32.98502],[36.54279,32.99123],[36.58878,33.00367],[36.59499,33.03226],[36.56392,33.04842],[36.52166,33.06209],[36.51047,33.09689],[36.51047,33.13419],[36.54279,33.16899],[36.60928,33.18481],[36.6932,33.19758],[36.83366,33.21996],[36.90327,33.21996],[36.95299,33.16526],[37.00396,33.11057],[37.01763,33.06706],[37.02758,33.03474],[37.06362,33.0335],[37.10589,33.03226],[37.11707,33.02107],[37.16058,33.01609],[37.18047,32.99123],[37.1842,32.95892],[37.2103,32.93778],[37.24511,32.93032],[37.27743,32.93032],[37.30975,32.92784],[37.33585,32.89801],[37.33585,32.86693],[37.36071,32.82715],[37.4067,32.78489],[37.48129,32.73144],[37.51026,32.68879],[37.49236,32.67923],[37.41018,32.63533]]]]}},{"type":"Feature","properties":{"name":"Damascus","iso":"SYR"},"geometry":{"type":"MultiPolygon","coordinates":[[[[36.28908,33.56475],[36.30193,33.59313],[36.40179,33.59046],[36.40089,33.51022],[36.3162,33.51468],[36.28945,33.54945],[36.28908,33.56475]]]]}},{"type":"Feature","properties":{"name":"Dar`a","iso":"SYR"},"geometry":{"type":"MultiPolygon","coordinates":[[[[35.78546,32.75967],[35.81211,32.79041],[35.82495,32.80367],[35.8436,32.82698],[35.85279,32.83985],[35.85946,32.8559],[35.85675,32.87032],[35.86412,32.89507],[35.86831,32.90004],[35.90321,32.87455],[35.91463,32.89135],[35.91734,32.89541],[35.94613,32.93157],[35.98093,32.98378],[35.99088,33.00615],[35.9859,33.03226],[35.9789,33.04436],[35.96725,33.0596],[35.98714,33.10062],[36.01822,33.12797],[36.00952,33.14786],[35.98839,33.16153],[35.97844,33.18267],[35.98326,33.18997],[36.02148,33.18344],[36.04199,33.18158],[36.06343,33.18438],[36.08395,33.1937],[36.09886,33.20395],[36.11471,33.20861],[36.1893,33.20861],[36.20794,33.21794],[36.2182,33.23378],[36.2182,33.25896],[36.22845,33.2804],[36.26667,33.29345],[36.30117,33.29905],[36.33473,33.2776],[36.35338,33.25802],[36.3655,33.24124],[36.36736,33.21421],[36.37762,33.1965],[36.41211,33.19929],[36.44754,33.24031],[36.49136,33.26362],[36.51105,33.27772],[36.54729,33.28693],[36.57246,33.26735],[36.59857,33.23472],[36.60882,33.20022],[36.57759,33.18018],[36.5229,33.15159],[36.51047,33.1143],[36.51047,33.07576],[36.53906,33.05463],[36.58008,33.04344],[36.59624,33.01982],[36.56889,32.99123],[36.51544,32.98626],[36.45453,32.98502],[36.42594,32.96762],[36.41724,32.94276],[36.39984,32.93654],[36.38865,32.89179],[36.38741,32.73766],[36.39114,32.70036],[36.41351,32.69291],[36.44956,32.68545],[36.47442,32.65561],[36.46199,32.63572],[36.42842,32.62453],[36.42345,32.60838],[36.47318,32.58103],[36.52911,32.56736],[36.55149,32.54374],[36.55522,32.53006],[36.53284,32.50893],[36.53036,32.4878],[36.55273,32.45921],[36.55522,32.43559],[36.55273,32.39706],[36.55457,32.35205],[36.51339,32.35664],[36.50173,32.36031],[36.49277,32.3675],[36.46355,32.37733],[36.40057,32.38724],[36.37297,32.41114],[36.29611,32.47049],[36.25774,32.49286],[36.20561,32.52837],[36.1784,32.51831],[36.14901,32.52309],[36.12992,32.52378],[36.09134,32.51809],[36.0887,32.53666],[36.07044,32.57579],[36.04487,32.59785],[36.03633,32.60394],[36.03882,32.63082],[36.0363,32.65435],[36.02183,32.66127],[36.01077,32.6628],[35.98301,32.66506],[35.97259,32.67348],[35.98268,32.69062],[35.97464,32.69687],[35.95166,32.70339],[35.94518,32.71767],[35.93084,32.72465],[35.92037,32.72208],[35.90131,32.7248],[35.88638,32.73313],[35.8619,32.7357],[35.83506,32.72903],[35.82022,32.7346],[35.80761,32.7384],[35.8093,32.75105],[35.80773,32.75652],[35.78342,32.75304],[35.78546,32.75967]]]]}},{"type":"Feature","properties":{"name":"Dayr Az Zawr","iso":"SYR"},"geometry":{"type":"MultiPolygon","coordinates":[[[[41.22965,34.93783],[41.23009,34.85593],[41.23775,34.78498],[41.18186,34.71464],[41.13947,34.66415],[41.05099,34.48799],[41.02709,34.4467],[41.01724,34.43951],[40.9608,34.39658],[40.7923,34.32024],[40.60371,34.23682],[40.45004,34.16499],[40.29559,34.0925],[40.16374,34.03034],[40.0,33.95279],[39.96092,33.93422],[39.7568,34.18305],[39.54438,34.44653],[39.48745,34.51623],[39.41589,34.60689],[39.35789,34.67063],[39.31538,34.71888],[39.32227,34.76139],[39.32917,34.80965],[39.32342,34.8579],[39.28896,34.91879],[39.24644,34.97279],[39.19015,35.0107],[39.15568,35.03368],[39.15683,35.09343],[39.20853,35.14627],[39.29296,35.23827],[39.38752,35.32648],[39.56237,35.51996],[39.65454,35.64751],[39.69754,35.65181],[39.72763,35.67904],[39.73623,35.712],[39.7391,35.76216],[39.74053,35.79369],[39.73336,35.81805],[39.72763,35.86535],[39.70327,35.90691],[39.67461,35.95277],[39.67174,35.9886],[39.6961,36.05165],[39.71903,36.12474],[39.7391,36.1878],[39.75489,36.22623],[39.78068,36.31078],[39.80361,36.42543],[39.82236,36.43556],[39.85496,36.42624],[39.87359,36.41693],[39.87359,36.39053],[39.8767,36.36103],[39.88601,36.34085],[39.90539,36.32983],[39.90157,36.28538],[39.94046,36.21658],[40.09001,36.09993],[40.19619,36.01469],[40.22012,35.98329],[40.32629,35.90104],[40.41752,35.83822],[40.49977,35.78139],[40.56707,35.73204],[40.68671,35.63483],[40.75849,35.57801],[40.83476,35.57203],[40.89907,35.57352],[40.96038,35.55259],[41.02469,35.53314],[41.12489,35.51968],[41.18321,35.54211],[41.32141,35.53627],[41.27998,35.45159],[41.27492,35.38492],[41.25618,35.32763],[41.24404,35.2905],[41.23985,35.27496],[41.22525,35.20424],[41.21811,35.13225],[41.22131,35.07844],[41.22286,35.0523],[41.22311,35.04811],[41.22879,34.95248],[41.22965,34.93783]]]]}},{"type":"Feature","properties":{"name":"Hamah","iso":"SYR"},"geometry":{"type":"MultiPolygon","coordinates":[[[[36.92883,34.98662],[36.89806,34.97021],[36.80988,34.96099],[36.79449,34.93433],[36.7702,34.93058],[36.73605,34.94868],[36.66857,34.9309],[36.64663,34.92517],[36.60889,34.9292],[36.58276,34.91683],[36.56275,34.91177],[36.54326,34.91895],[36.52378,34.94253],[36.49917,34.97432],[36.47699,34.95619],[36.45527,34.92138],[36.43047,34.90459],[36.37685,34.8946],[36.35879,34.89432],[36.35766,34.91381],[36.29511,34.91587],[36.21615,34.95689],[36.18231,35.01738],[36.20692,35.05328],[36.23256,35.12506],[36.20692,35.18966],[36.18539,35.22965],[36.19491,35.27829],[36.20487,35.32912],[36.19154,35.38449],[36.18026,35.43576],[36.19667,35.46858],[36.2182,35.57112],[36.22743,35.63162],[36.20692,35.67982],[36.22025,35.73211],[36.25072,35.75301],[36.30353,35.75037],[36.3581,35.74685],[36.3757,35.72925],[36.41794,35.71341],[36.43642,35.70284],[36.4329,35.6738],[36.43054,35.63862],[36.42793,35.59067],[36.41996,35.55403],[36.41677,35.50545],[36.43191,35.4712],[36.44386,35.43217],[36.48209,35.43775],[36.52191,35.43775],[36.53886,35.39782],[36.58005,35.39235],[36.62067,35.38757],[36.66493,35.37562],[36.69952,35.39155],[36.7489,35.4035],[36.7935,35.39474],[36.82845,35.39146],[36.8626,35.39146],[36.88191,35.38757],[36.88908,35.36129],[36.89905,35.34229],[36.91058,35.335],[36.95678,35.33899],[36.97589,35.36686],[36.98943,35.32704],[37.00424,35.28336],[37.03483,35.2673],[37.09616,35.28223],[37.10496,35.29676],[37.12529,35.32588],[37.12588,35.34955],[37.11828,35.36169],[37.10272,35.36636],[37.07235,35.37478],[37.07094,35.38028],[37.08014,35.41152],[37.12685,35.4123],[37.14553,35.43643],[37.14937,35.45012],[37.1502,35.47691],[37.17434,35.48937],[37.20158,35.49482],[37.20781,35.50883],[37.22222,35.52276],[37.25932,35.51186],[37.31916,35.49866],[37.40475,35.506],[37.47215,35.50341],[37.5672,35.50811],[37.64231,35.45882],[37.65848,35.44386],[37.73501,35.42949],[37.78899,35.41188],[37.86292,35.41541],[37.92042,35.43066],[38.17271,35.43535],[38.2617,35.41756],[38.32046,35.36112],[38.29304,35.22012],[38.20998,35.09322],[38.09616,35.0317],[38.03848,34.94864],[37.99387,34.90019],[37.94542,34.93864],[37.87389,35.0117],[37.84467,35.06631],[37.77084,35.10938],[37.64317,35.09707],[37.48243,35.0217],[37.43859,34.96479],[37.38707,34.93326],[37.32554,34.91019],[37.28709,34.93787],[37.25248,34.91326],[37.20864,34.91711],[37.1625,34.90711],[37.08713,34.87481],[37.04099,34.86173],[37.00176,34.88327],[36.99035,34.93125],[36.92968,34.99686],[36.92883,34.98662]]]]}},{"type":"Feature","properties":{"name":"Hims","iso":"SYR"},"geometry":{"type":"MultiPolygon","coordinates":[[[[39.76941,33.843],[37.72444,33.49046],[37.13132,33.98759],[36.74349,34.19828],[36.6124,34.21131],[36.59829,34.22143],[36.58273,34.22997],[36.58335,34.24837],[36.57867,34.26312],[36.57437,34.27516],[36.59334,34.28467],[36.59323,34.2907],[36.58604,34.29394],[36.5763,34.29604],[36.57064,34.30101],[36.56312,34.30535],[36.5578,34.31507],[36.5622,34.32543],[36.54716,34.33797],[36.53688,34.35744],[36.53264,34.37361],[36.54601,34.38389],[36.56051,34.39668],[36.55473,34.41295],[36.54012,34.42229],[36.53218,34.42577],[36.52628,34.42947],[36.52217,34.42988],[36.5183,34.4358],[36.51347,34.43564],[36.51168,34.44087],[36.51193,34.44287],[36.50389,34.44893],[36.49488,34.45441],[36.48024,34.45937],[36.46864,34.46139],[36.46077,34.46677],[36.45216,34.47822],[36.44464,34.49149],[36.3876,34.49661],[36.37967,34.50254],[36.37201,34.50323],[36.35817,34.5045],[36.34732,34.50985],[36.35511,34.52069],[36.36635,34.52895],[36.38135,34.53682],[36.38319,34.54351],[36.3924,34.54913],[36.41289,34.55766],[36.41397,34.56351],[36.39732,34.57373],[36.40125,34.58391],[36.40568,34.5997],[36.40363,34.60855],[36.41324,34.6067],[36.42401,34.60486],[36.43135,34.59261],[36.44504,34.59291],[36.45247,34.59451],[36.45753,34.60413],[36.45796,34.61363],[36.45589,34.62223],[36.4602,34.62664],[36.44906,34.63705],[36.42864,34.62941],[36.39428,34.63276],[36.38052,34.6334],[36.36637,34.64246],[36.35598,34.65244],[36.35313,34.65829],[36.34855,34.66327],[36.34913,34.67074],[36.35353,34.67823],[36.33083,34.69083],[36.31844,34.68707],[36.30987,34.68295],[36.30192,34.66837],[36.30404,34.66149],[36.30669,34.65467],[36.30232,34.64479],[36.29675,34.63596],[36.28978,34.63263],[36.28148,34.63221],[36.26625,34.62749],[36.25987,34.63062],[36.247,34.63326],[36.2367,34.62912],[36.22567,34.62802],[36.21795,34.63068],[36.19971,34.63753],[36.18397,34.6358],[36.17432,34.62917],[36.15543,34.63356],[36.14156,34.63498],[36.30331,34.88818],[36.48481,34.96304],[36.6376,34.92612],[36.91133,34.9749],[37.17865,34.90865],[37.45705,35.00017],[38.01387,34.90326],[38.56633,35.37521],[39.32917,34.80965],[39.76941,33.843]]]]}},{"type":"Feature","properties":{"name":"Idlib","iso":"SYR"},"geometry":{"type":"MultiPolygon","coordinates":[[[[37.07626,35.66403],[37.08682,35.60515],[37.13082,35.56995],[37.16162,35.54179],[37.22222,35.52276],[37.20781,35.50883],[37.20158,35.49482],[37.17434,35.48937],[37.1502,35.47691],[37.14937,35.45012],[37.14553,35.43643],[37.12685,35.4123],[37.08014,35.41152],[37.07094,35.38028],[37.07235,35.37478],[37.10272,35.36636],[37.11828,35.36169],[37.12588,35.34955],[37.12529,35.32588],[37.10496,35.29676],[37.09616,35.28223],[37.03483,35.2673],[37.00424,35.28336],[36.98943,35.32704],[36.97589,35.36686],[36.95678,35.33899],[36.91058,35.335],[36.89905,35.34229],[36.88908,35.36129],[36.88191,35.38757],[36.8626,35.39146],[36.82845,35.39146],[36.7935,35.39474],[36.7489,35.4035],[36.69952,35.39155],[36.66493,35.37562],[36.62067,35.38757],[36.58005,35.39235],[36.53886,35.39782],[36.52191,35.43775],[36.48209,35.43775],[36.44386,35.43217],[36.43191,35.4712],[36.41677,35.50545],[36.41996,35.55403],[36.42793,35.59067],[36.43054,35.63862],[36.4329,35.6738],[36.43642,35.70284],[36.41794,35.71341],[36.3757,35.72925],[36.3581,35.74685],[36.30353,35.75037],[36.25072,35.75301],[36.22277,35.75989],[36.2164,35.78469],[36.17855,35.80141],[36.18612,35.8606],[36.18092,35.90174],[36.20599,35.94354],[36.24445,35.96353],[36.27892,35.95476],[36.30608,35.96071],[36.3028,35.99641],[36.36641,35.99431],[36.38229,36.00985],[36.39508,36.04598],[36.39784,36.08376],[36.38564,36.10347],[36.38831,36.1515],[36.39866,36.18982],[36.39762,36.21272],[36.42267,36.21705],[36.47107,36.2018],[36.49065,36.22525],[36.50616,36.23103],[36.52277,36.23808],[36.58386,36.23211],[36.62239,36.21709],[36.65419,36.22925],[36.70071,36.24428],[36.69482,36.26777],[36.70004,36.29104],[36.66888,36.30942],[36.68372,36.31517],[36.7055,36.31828],[36.73091,36.31621],[36.79433,36.26661],[36.85154,36.2226],[36.81545,36.20148],[36.79345,36.18299],[36.75825,36.15219],[36.73586,36.12868],[36.75869,36.11361],[36.7716,36.06668],[36.83379,36.0655],[36.87017,36.03499],[36.89056,35.99055],[36.8756,35.95358],[36.91344,35.8999],[36.94864,35.86909],[36.97945,35.80837],[37.02697,35.80133],[37.04721,35.82685],[37.10442,35.80133],[37.11762,35.7098],[37.08682,35.67635],[37.07626,35.66403]]]]}},{"type":"Feature","properties":{"name":"Lattakia","iso":"SYR"},"geometry":{"type":"MultiPolygon","coordinates":[[[[36.18333,35.25323],[35.94031,35.24347],[35.9343,35.25375],[35.93005,35.26236],[35.92404,35.26653],[35.92097,35.28375],[35.92133,35.29932],[35.92047,35.30872],[35.9193,35.32736],[35.91903,35.33903],[35.91875,35.35653],[35.91764,35.37347],[35.91847,35.38375],[35.91653,35.39431],[35.91236,35.4096],[35.91403,35.4193],[35.90681,35.42781],[35.90131,35.43512],[35.89431,35.44153],[35.88857,35.4468],[35.88146,35.45319],[35.87514,35.45847],[35.86625,35.46458],[35.85879,35.46986],[35.85042,35.47569],[35.84292,35.48069],[35.8343,35.48669],[35.82681,35.49153],[35.81535,35.49764],[35.80208,35.50319],[35.78625,35.50625],[35.78042,35.49682],[35.77264,35.50097],[35.76292,35.50561],[35.76208,35.51708],[35.75677,35.52903],[35.76042,35.52375],[35.76069,35.51292],[35.76431,35.5132],[35.76903,35.52403],[35.76783,35.52958],[35.77063,35.53792],[35.76356,35.54375],[35.75764,35.54319],[35.75653,35.5493],[35.74764,35.55347],[35.73889,35.55988],[35.736,35.56537],[35.74458,35.57319],[35.73958,35.5835],[35.72597,35.58085],[35.71931,35.58208],[35.71736,35.58616],[35.7282,35.5853],[35.73597,35.58958],[35.74208,35.59042],[35.75347,35.59347],[35.75986,35.60028],[35.76438,35.61014],[35.77403,35.60764],[35.77236,35.61764],[35.77958,35.62375],[35.78292,35.6307],[35.77875,35.64653],[35.77175,35.65542],[35.76789,35.66449],[35.77236,35.67612],[35.78042,35.68097],[35.79319,35.68236],[35.79993,35.69067],[35.80625,35.69903],[35.81208,35.70458],[35.81764,35.71097],[35.8307,35.71712],[35.83347,35.73542],[35.84403,35.74139],[35.84292,35.76234],[35.84042,35.77486],[35.83653,35.78708],[35.8307,35.79653],[35.82764,35.80708],[35.8218,35.81458],[35.81952,35.82847],[35.80653,35.83541],[35.81125,35.84736],[35.80042,35.85403],[35.81292,35.85764],[35.82428,35.8532],[35.8406,35.85014],[35.85209,35.85486],[35.85958,35.86014],[35.86493,35.86597],[35.87753,35.87014],[35.88236,35.88014],[35.88708,35.89764],[35.89236,35.90708],[35.89648,35.91711],[35.90631,35.92352],[35.91687,35.92875],[36.15484,35.82018],[36.20282,35.2922],[36.18333,35.25323]]]]}},{"type":"Feature","properties":{"name":"Quneitra","iso":"SYR"},"geometry":{"type":"MultiPolygon","coordinates":[[[[35.86902,32.90089],[35.87904,32.91279],[35.89456,32.93088],[35.9001,32.93771],[35.89771,32.96387],[35.88246,32.98864],[35.8779,33.01945],[35.87344,33.06574],[35.87531,33.10211],[35.86179,33.10917],[35.85386,33.1133],[35.84174,33.12263],[35.84547,33.13289],[35.85106,33.14502],[35.86599,33.16465],[35.86785,33.17672],[35.86319,33.19724],[35.84945,33.20936],[35.84751,33.21388],[35.843,33.25938],[35.83614,33.26533],[35.8198,33.28075],[35.81749,33.28584],[35.85092,33.32299],[35.84767,33.32521],[35.8709,33.32094],[35.8877,33.31567],[35.91505,33.29827],[35.91629,33.27465],[35.92996,33.25476],[35.96228,33.25103],[35.97844,33.21871],[35.97752,33.18882],[35.97969,33.16899],[35.99709,33.1578],[36.01574,33.1404],[36.01325,33.11305],[35.96974,33.07576],[35.97844,33.04469],[35.9772,33.04096],[35.99088,33.01734],[35.99088,32.99621],[35.96353,32.95643],[35.93121,32.90298],[35.91724,32.8952],[35.91343,32.8896],[35.86902,32.90089]]]]}},{"type":"Feature","properties":{"name":"Rif Dimashq","iso":"SYR"},"geometry":{"type":"MultiPolygon","coordinates":[[[[38.04157,32.97096],[37.2103,32.93778],[36.83366,33.21996],[36.3655,33.22912],[36.0914,33.20022],[35.8709,33.32094],[35.81617,33.36764],[35.81565,33.37312],[35.81837,33.38197],[35.81961,33.38842],[35.82925,33.39941],[35.8402,33.40506],[35.85497,33.41352],[35.86947,33.42064],[35.89968,33.43531],[35.91558,33.44846],[35.93105,33.45793],[35.95021,33.47437],[35.9533,33.48182],[35.95365,33.49519],[35.95507,33.50184],[35.9547,33.52856],[36.0004,33.53761],[36.01691,33.54267],[36.02393,33.54116],[36.05211,33.56758],[36.06199,33.5745],[36.06501,33.58043],[36.05988,33.58827],[36.0521,33.59346],[36.04493,33.59988],[36.03135,33.60584],[35.98224,33.63153],[35.97637,33.63699],[35.94249,33.63837],[35.93458,33.64356],[35.93431,33.64947],[35.93757,33.65396],[35.94429,33.65992],[35.94632,33.6713],[35.95744,33.67404],[35.96725,33.68006],[35.97118,33.68549],[35.97368,33.68905],[35.96854,33.69711],[35.97111,33.70681],[35.97004,33.7156],[35.97353,33.72353],[35.97356,33.72867],[35.97999,33.72656],[35.98532,33.72643],[35.98902,33.73358],[35.99379,33.73803],[35.99975,33.74539],[36.00922,33.76086],[36.00936,33.76884],[36.01924,33.7687],[36.02593,33.76433],[36.03381,33.76983],[36.04328,33.77932],[36.05,33.79162],[36.06012,33.80971],[36.06918,33.82101],[36.0803,33.81876],[36.1106,33.82007],[36.11232,33.82607],[36.11441,33.83118],[36.1176,33.83351],[36.13397,33.83311],[36.15942,33.84664],[36.18838,33.83109],[36.21187,33.83414],[36.23802,33.84342],[36.24624,33.85104],[36.25145,33.85751],[36.26323,33.8543],[36.27118,33.8528],[36.28016,33.85098],[36.28368,33.84449],[36.29395,33.83878],[36.32451,33.83628],[36.39004,33.83018],[36.35361,33.87152],[36.29351,33.89461],[36.30196,33.93935],[36.33265,33.97198],[36.36329,33.98573],[36.40134,34.02792],[36.44189,34.04972],[36.49834,34.05612],[36.50824,34.08846],[36.52155,34.11071],[36.55878,34.13104],[36.5712,34.14773],[36.57956,34.15963],[36.58749,34.16947],[36.5935,34.18205],[36.60583,34.19258],[36.62099,34.19491],[36.81527,34.17498],[37.267,33.93906],[37.79737,33.45068],[38.04157,32.97096]],[[36.37333,33.59122],[36.28856,33.586],[36.28945,33.54945],[36.3162,33.51468],[36.40089,33.51022],[36.40179,33.59046],[36.37333,33.59122]]],[[[36.16486,33.84801],[36.16423,33.84755],[36.16481,33.84801],[36.16486,33.84801]]]]}},{"type":"Feature","properties":{"name":"Tartus","iso":"SYR"},"geometry":{"type":"MultiPolygon","coordinates":[[[[36.28588,34.86255],[36.13202,34.63932],[36.12613,34.64167],[36.1152,34.63699],[36.10795,34.63298],[36.10008,34.6346],[36.09524,34.63256],[36.09026,34.63039],[36.08173,34.63168],[36.07861,34.6344],[36.07221,34.62851],[36.06743,34.63369],[36.06366,34.63183],[36.05977,34.63515],[36.05189,34.63056],[36.0417,34.62995],[36.03395,34.62766],[36.02957,34.63002],[36.0231,34.63353],[36.01632,34.63696],[36.00655,34.64199],[36.00654,34.64542],[35.99482,34.64269],[35.99063,34.6427],[35.98991,34.64911],[35.98566,34.64891],[35.97917,34.64939],[35.97527,34.64401],[35.9693,34.64819],[35.96569,34.65792],[35.96236,34.66625],[35.95792,34.67569],[35.95429,34.68549],[35.95012,34.69458],[35.94597,34.70236],[35.94231,34.71292],[35.93875,34.72042],[35.93403,34.73125],[35.93125,34.7489],[35.92903,34.75736],[35.92959,34.7682],[35.92708,34.78042],[35.92347,34.78931],[35.92001,34.79625],[35.91653,34.80269],[35.91236,34.80986],[35.90854,34.8196],[35.90447,34.82653],[35.90097,34.83292],[35.89807,34.84069],[35.89431,34.84903],[35.89014,34.85764],[35.88681,34.86319],[35.88292,34.87598],[35.87875,34.88514],[35.87488,34.8927],[35.87042,34.89789],[35.85708,34.90181],[35.85569,34.90931],[35.85875,34.90153],[35.87014,34.90097],[35.86514,34.90431],[35.86347,34.90708],[35.86319,34.91097],[35.86597,34.91292],[35.86054,34.91014],[35.86181,34.91211],[35.87273,34.9157],[35.87903,34.91958],[35.87847,34.94514],[35.87569,34.96014],[35.87128,34.96851],[35.87597,34.97181],[35.87736,34.98069],[35.88042,34.99153],[35.88458,34.99486],[35.88958,34.9982],[35.89459,35.00339],[35.89819,35.01292],[35.89508,35.0307],[35.89153,35.04236],[35.88788,35.05072],[35.88514,35.06375],[35.8882,35.06986],[35.89148,35.07788],[35.88903,35.09292],[35.89014,35.10792],[35.89375,35.11375],[35.9007,35.11853],[35.90681,35.12625],[35.90875,35.13292],[35.91264,35.14069],[35.91681,35.14764],[35.92319,35.15097],[35.92736,35.15653],[35.92347,35.17264],[35.9282,35.17792],[35.93542,35.18153],[35.9432,35.18458],[35.95111,35.18988],[35.95148,35.2085],[35.94849,35.22632],[35.95774,35.2358],[36.20487,34.97432],[36.28588,34.86255]]],[[[35.86069,34.85903],[35.86125,34.85903],[35.86125,34.85875],[35.86153,34.85875],[35.86181,34.85792],[35.86181,34.85764],[35.86153,34.85736],[35.86181,34.85708],[35.86196,34.85708],[35.86236,34.85692],[35.86249,34.8568],[35.86264,34.85503],[35.86262,34.85459],[35.86236,34.85404],[35.86208,34.85388],[35.86181,34.85375],[35.86072,34.85352],[35.85792,34.8532],[35.85736,34.85347],[35.8568,34.85375],[35.85625,34.85403],[35.85597,34.85486],[35.85569,34.85569],[35.85542,34.85653],[35.8557,34.85736],[35.85569,34.85875],[35.85596,34.85905],[35.85651,34.85931],[35.85903,34.85949],[35.85986,34.85959],[35.85986,34.85931],[35.86069,34.85903]]]]}}]}